<?xml version="1.0" encoding="UTF-8"?>
<gpx version="1.1" creator="letnaturechoose" xmlns="http://www.topografix.com/GPX/1/1">
<metadata><name>호암산 등산로</name></metadata>
<trk><name>호암산</name>
<trkseg><trkpt lat="37.457141" lon="126.918914"/><trkpt lat="37.45703" lon="126.919885"/><trkpt lat="37.456958" lon="126.920411"/><trkpt lat="37.456943" lon="126.921108"/><trkpt lat="37.456798" lon="126.921782"/><trkpt lat="37.456429" lon="126.922394"/><trkpt lat="37.455843" lon="126.922609"/><trkpt lat="37.454732" lon="126.923062"/><trkpt lat="37.454317" lon="126.923727"/><trkpt lat="37.453769" lon="126.924175"/></trkseg>
<trkseg><trkpt lat="37.449983" lon="126.924305"/><trkpt lat="37.449514" lon="126.924004"/><trkpt lat="37.449128" lon="126.923599"/><trkpt lat="37.448756" lon="126.923255"/><trkpt lat="37.44905" lon="126.922768"/><trkpt lat="37.449451" lon="126.92215"/></trkseg>
<trkseg><trkpt lat="37.449983" lon="126.924305"/><trkpt lat="37.449962" lon="126.923577"/><trkpt lat="37.449917" lon="126.922417"/><trkpt lat="37.450015" lon="126.922308"/></trkseg>
<trkseg><trkpt lat="37.451271" lon="126.924111"/><trkpt lat="37.452133" lon="126.924383"/><trkpt lat="37.4531" lon="126.924117"/><trkpt lat="37.453769" lon="126.924175"/></trkseg>
<trkseg><trkpt lat="37.440691" lon="126.908885"/><trkpt lat="37.440404" lon="126.90881"/><trkpt lat="37.440127" lon="126.908784"/><trkpt lat="37.439877" lon="126.908869"/><trkpt lat="37.439683" lon="126.908817"/></trkseg>
<trkseg><trkpt lat="37.441632" lon="126.911152"/><trkpt lat="37.441485" lon="126.910683"/><trkpt lat="37.441576" lon="126.909901"/><trkpt lat="37.44142" lon="126.909008"/><trkpt lat="37.441174" lon="126.908683"/><trkpt lat="37.441005" lon="126.908877"/><trkpt lat="37.440794" lon="126.90889"/><trkpt lat="37.440691" lon="126.908885"/></trkseg>
<trkseg><trkpt lat="37.440233" lon="126.9107"/><trkpt lat="37.440326" lon="126.911108"/><trkpt lat="37.440317" lon="126.911133"/></trkseg>
<trkseg><trkpt lat="37.470165" lon="126.910558"/><trkpt lat="37.470383" lon="126.910328"/><trkpt lat="37.470493" lon="126.910073"/><trkpt lat="37.470606" lon="126.90986"/><trkpt lat="37.470742" lon="126.909737"/><trkpt lat="37.470966" lon="126.909415"/><trkpt lat="37.47106" lon="126.909248"/></trkseg>
<trkseg><trkpt lat="37.464875" lon="126.907453"/><trkpt lat="37.465224" lon="126.907564"/><trkpt lat="37.465603" lon="126.907712"/><trkpt lat="37.465704" lon="126.907957"/><trkpt lat="37.465777" lon="126.908152"/><trkpt lat="37.465596" lon="126.908311"/><trkpt lat="37.465572" lon="126.908575"/><trkpt lat="37.465517" lon="126.908848"/><trkpt lat="37.465557" lon="126.909046"/><trkpt lat="37.465682" lon="126.909269"/><trkpt lat="37.465763" lon="126.909495"/><trkpt lat="37.465755" lon="126.90966"/><trkpt lat="37.465833" lon="126.909767"/><trkpt lat="37.465837" lon="126.910279"/><trkpt lat="37.466067" lon="126.910365"/><trkpt lat="37.46616" lon="126.910137"/><trkpt lat="37.466267" lon="126.910179"/><trkpt lat="37.466411" lon="126.910155"/><trkpt lat="37.466459" lon="126.909954"/><trkpt lat="37.46665" lon="126.9099"/><trkpt lat="37.466967" lon="126.90985"/><trkpt lat="37.467248" lon="126.909814"/><trkpt lat="37.467536" lon="126.909676"/><trkpt lat="37.467633" lon="126.909627"/></trkseg>
<trkseg><trkpt lat="37.453787" lon="126.917433"/><trkpt lat="37.454146" lon="126.91712"/><trkpt lat="37.454767" lon="126.917033"/><trkpt lat="37.45545" lon="126.91785"/><trkpt lat="37.45605" lon="126.918117"/><trkpt lat="37.457141" lon="126.918914"/></trkseg>
<trkseg><trkpt lat="37.453787" lon="126.917433"/><trkpt lat="37.453671" lon="126.916928"/><trkpt lat="37.453783" lon="126.916417"/><trkpt lat="37.453517" lon="126.916"/><trkpt lat="37.453588" lon="126.91532"/><trkpt lat="37.453936" lon="126.914993"/><trkpt lat="37.454" lon="126.914883"/></trkseg>
<trkseg><trkpt lat="37.444215" lon="126.908917"/><trkpt lat="37.4443" lon="126.908633"/><trkpt lat="37.4452" lon="126.90745"/><trkpt lat="37.445983" lon="126.907567"/><trkpt lat="37.446817" lon="126.907567"/></trkseg>
<trkseg><trkpt lat="37.4408" lon="126.90775"/><trkpt lat="37.440689" lon="126.908133"/></trkseg>
<trkseg><trkpt lat="37.462169" lon="126.914093"/><trkpt lat="37.462117" lon="126.91445"/></trkseg>
<trkseg><trkpt lat="37.444102" lon="126.917269"/><trkpt lat="37.444386" lon="126.917058"/><trkpt lat="37.444461" lon="126.916931"/></trkseg>
<trkseg><trkpt lat="37.473702" lon="126.905926"/><trkpt lat="37.473473" lon="126.906097"/><trkpt lat="37.473476" lon="126.906186"/></trkseg>
<trkseg><trkpt lat="37.455983" lon="126.9088"/><trkpt lat="37.456055" lon="126.909182"/><trkpt lat="37.456381" lon="126.909443"/><trkpt lat="37.456674" lon="126.909656"/><trkpt lat="37.45686" lon="126.91028"/><trkpt lat="37.456757" lon="126.910584"/><trkpt lat="37.456729" lon="126.910897"/><trkpt lat="37.456517" lon="126.911167"/><trkpt lat="37.456317" lon="126.911533"/><trkpt lat="37.456512" lon="126.911715"/><trkpt lat="37.45685" lon="126.9119"/><trkpt lat="37.4573" lon="126.9126"/><trkpt lat="37.457767" lon="126.913583"/><trkpt lat="37.458028" lon="126.914394"/><trkpt lat="37.458223" lon="126.914497"/></trkseg>
<trkseg><trkpt lat="37.442955" lon="126.908631"/><trkpt lat="37.442691" lon="126.908628"/><trkpt lat="37.442445" lon="126.908739"/><trkpt lat="37.442283" lon="126.908883"/><trkpt lat="37.442102" lon="126.908798"/><trkpt lat="37.442034" lon="126.908733"/></trkseg>
<trkseg><trkpt lat="37.443566" lon="126.90902"/><trkpt lat="37.443123" lon="126.908878"/></trkseg>
<trkseg><trkpt lat="37.473476" lon="126.906186"/><trkpt lat="37.473133" lon="126.906233"/><trkpt lat="37.472233" lon="126.906467"/><trkpt lat="37.471467" lon="126.906733"/><trkpt lat="37.471281" lon="126.906794"/><trkpt lat="37.47138" lon="126.906911"/><trkpt lat="37.471537" lon="126.907221"/><trkpt lat="37.471629" lon="126.90733"/><trkpt lat="37.471795" lon="126.907337"/><trkpt lat="37.471944" lon="126.907289"/><trkpt lat="37.471977" lon="126.907496"/><trkpt lat="37.472037" lon="126.907646"/><trkpt lat="37.472285" lon="126.907726"/><trkpt lat="37.472533" lon="126.907981"/><trkpt lat="37.472687" lon="126.908193"/><trkpt lat="37.472707" lon="126.908262"/></trkseg>
<trkseg><trkpt lat="37.467404" lon="126.911339"/><trkpt lat="37.467361" lon="126.91095"/><trkpt lat="37.467364" lon="126.910526"/><trkpt lat="37.467458" lon="126.91033"/><trkpt lat="37.467487" lon="126.910071"/><trkpt lat="37.467601" lon="126.909731"/><trkpt lat="37.467633" lon="126.909627"/></trkseg>
<trkseg><trkpt lat="37.45369" lon="126.913839"/><trkpt lat="37.453803" lon="126.914573"/><trkpt lat="37.454" lon="126.914883"/></trkseg>
<trkseg><trkpt lat="37.450015" lon="126.922308"/><trkpt lat="37.450683" lon="126.921583"/><trkpt lat="37.450833" lon="126.9215"/></trkseg>
<trkseg><trkpt lat="37.439183" lon="126.908867"/><trkpt lat="37.438981" lon="126.908903"/><trkpt lat="37.438704" lon="126.908923"/><trkpt lat="37.438309" lon="126.908972"/><trkpt lat="37.437902" lon="126.908984"/><trkpt lat="37.43755" lon="126.909067"/><trkpt lat="37.4371" lon="126.909153"/><trkpt lat="37.43625" lon="126.909733"/><trkpt lat="37.435396" lon="126.910017"/><trkpt lat="37.435038" lon="126.909457"/></trkseg>
<trkseg><trkpt lat="37.458973" lon="126.914274"/><trkpt lat="37.458982" lon="126.913617"/><trkpt lat="37.459167" lon="126.913033"/><trkpt lat="37.45945" lon="126.912367"/><trkpt lat="37.459892" lon="126.911666"/><trkpt lat="37.460207" lon="126.911056"/><trkpt lat="37.460317" lon="126.910467"/><trkpt lat="37.460404" lon="126.909977"/><trkpt lat="37.460217" lon="126.909183"/><trkpt lat="37.46" lon="126.908733"/></trkseg>
<trkseg><trkpt lat="37.473625" lon="126.907809"/><trkpt lat="37.473839" lon="126.908218"/><trkpt lat="37.474055" lon="126.908612"/><trkpt lat="37.474216" lon="126.908879"/><trkpt lat="37.474526" lon="126.909051"/><trkpt lat="37.474722" lon="126.909155"/><trkpt lat="37.474938" lon="126.909183"/><trkpt lat="37.4749" lon="126.909584"/><trkpt lat="37.475005" lon="126.909927"/><trkpt lat="37.475221" lon="126.910145"/><trkpt lat="37.475758" lon="126.910163"/><trkpt lat="37.476228" lon="126.910157"/><trkpt lat="37.476324" lon="126.910078"/></trkseg>
<trkseg><trkpt lat="37.44625" lon="126.90965"/><trkpt lat="37.4461" lon="126.9104"/><trkpt lat="37.4455" lon="126.911067"/><trkpt lat="37.444717" lon="126.912167"/><trkpt lat="37.4441" lon="126.912767"/><trkpt lat="37.443517" lon="126.913333"/><trkpt lat="37.442683" lon="126.913717"/><trkpt lat="37.442183" lon="126.91405"/><trkpt lat="37.44211" lon="126.914325"/><trkpt lat="37.441997" lon="126.914857"/><trkpt lat="37.441967" lon="126.915248"/><trkpt lat="37.44195" lon="126.916133"/><trkpt lat="37.441933" lon="126.916567"/><trkpt lat="37.442018" lon="126.916772"/><trkpt lat="37.441933" lon="126.917083"/><trkpt lat="37.441333" lon="126.917233"/><trkpt lat="37.441067" lon="126.917649"/><trkpt lat="37.440729" lon="126.918067"/><trkpt lat="37.440255" lon="126.918397"/></trkseg>
<trkseg><trkpt lat="37.462733" lon="126.9074"/><trkpt lat="37.4638" lon="126.9084"/><trkpt lat="37.464312" lon="126.909314"/><trkpt lat="37.464551" lon="126.909536"/><trkpt lat="37.464848" lon="126.909686"/><trkpt lat="37.465013" lon="126.909756"/><trkpt lat="37.465242" lon="126.909957"/><trkpt lat="37.4654" lon="126.910333"/><trkpt lat="37.46509" lon="126.911063"/><trkpt lat="37.465105" lon="126.911216"/></trkseg>
<trkseg><trkpt lat="37.461483" lon="126.9133"/><trkpt lat="37.461433" lon="126.914117"/><trkpt lat="37.46141" lon="126.914471"/></trkseg>
<trkseg><trkpt lat="37.465105" lon="126.911216"/><trkpt lat="37.46524" lon="126.910926"/><trkpt lat="37.465406" lon="126.910734"/><trkpt lat="37.465561" lon="126.910481"/><trkpt lat="37.465657" lon="126.910089"/><trkpt lat="37.465618" lon="126.90958"/><trkpt lat="37.465393" lon="126.909539"/><trkpt lat="37.465277" lon="126.90942"/><trkpt lat="37.465075" lon="126.908953"/><trkpt lat="37.465046" lon="126.908613"/><trkpt lat="37.465031" lon="126.908432"/><trkpt lat="37.465095" lon="126.908233"/><trkpt lat="37.464956" lon="126.908106"/><trkpt lat="37.464785" lon="126.907882"/><trkpt lat="37.464747" lon="126.907706"/><trkpt lat="37.464836" lon="126.907526"/><trkpt lat="37.464875" lon="126.907453"/></trkseg>
<trkseg><trkpt lat="37.470117" lon="126.907833"/><trkpt lat="37.470717" lon="126.9085"/><trkpt lat="37.471046" lon="126.909052"/><trkpt lat="37.471161" lon="126.90911"/></trkseg>
<trkseg><trkpt lat="37.46141" lon="126.914471"/><trkpt lat="37.460973" lon="126.914356"/><trkpt lat="37.460469" lon="126.914277"/><trkpt lat="37.459683" lon="126.914367"/><trkpt lat="37.459393" lon="126.914273"/><trkpt lat="37.4591" lon="126.914276"/><trkpt lat="37.458973" lon="126.914274"/></trkseg>
<trkseg><trkpt lat="37.448745" lon="126.909797"/><trkpt lat="37.448477" lon="126.910691"/><trkpt lat="37.448296" lon="126.911389"/><trkpt lat="37.44816" lon="126.91189"/><trkpt lat="37.448348" lon="126.912277"/><trkpt lat="37.44825" lon="126.91285"/><trkpt lat="37.448151" lon="126.913604"/><trkpt lat="37.4481" lon="126.913984"/><trkpt lat="37.447866" lon="126.91433"/><trkpt lat="37.447532" lon="126.914854"/><trkpt lat="37.447118" lon="126.915874"/><trkpt lat="37.446864" lon="126.916228"/><trkpt lat="37.446283" lon="126.916567"/><trkpt lat="37.44585" lon="126.917317"/><trkpt lat="37.445467" lon="126.918367"/></trkseg>
<trkseg><trkpt lat="37.441465" lon="126.912873"/><trkpt lat="37.441809" lon="126.913035"/><trkpt lat="37.441902" lon="126.913119"/></trkseg>
<trkseg><trkpt lat="37.441893" lon="126.909069"/><trkpt lat="37.441776" lon="126.909678"/></trkseg>
<trkseg><trkpt lat="37.441641" lon="126.913259"/><trkpt lat="37.441274" lon="126.913357"/><trkpt lat="37.440944" lon="126.913474"/><trkpt lat="37.440741" lon="126.913629"/><trkpt lat="37.440557" lon="126.913795"/><trkpt lat="37.440147" lon="126.913934"/><trkpt lat="37.439791" lon="126.91401"/></trkseg>
<trkseg><trkpt lat="37.441465" lon="126.912873"/><trkpt lat="37.441641" lon="126.913259"/></trkseg>
<trkseg><trkpt lat="37.440691" lon="126.908885"/><trkpt lat="37.44065" lon="126.910117"/><trkpt lat="37.440233" lon="126.9107"/></trkseg>
<trkseg><trkpt lat="37.440689" lon="126.908133"/><trkpt lat="37.440655" lon="126.908559"/><trkpt lat="37.440691" lon="126.908885"/></trkseg>
<trkseg><trkpt lat="37.439183" lon="126.908867"/><trkpt lat="37.439683" lon="126.908817"/></trkseg>
<trkseg><trkpt lat="37.439995" lon="126.907002"/><trkpt lat="37.439757" lon="126.907417"/><trkpt lat="37.439675" lon="126.907741"/><trkpt lat="37.439685" lon="126.908072"/><trkpt lat="37.439317" lon="126.908333"/><trkpt lat="37.439183" lon="126.908867"/></trkseg>
<trkseg><trkpt lat="37.444633" lon="126.919183"/><trkpt lat="37.444133" lon="126.918983"/><trkpt lat="37.443738" lon="126.918413"/><trkpt lat="37.443649" lon="126.917987"/><trkpt lat="37.443686" lon="126.917442"/><trkpt lat="37.444102" lon="126.917269"/></trkseg>
<trkseg><trkpt lat="37.462067" lon="126.9135"/><trkpt lat="37.462169" lon="126.914093"/></trkseg>
<trkseg><trkpt lat="37.453138" lon="126.917314"/><trkpt lat="37.453721" lon="126.917698"/><trkpt lat="37.453787" lon="126.917433"/></trkseg>
<trkseg><trkpt lat="37.453996" lon="126.918249"/><trkpt lat="37.453787" lon="126.917433"/></trkseg>
<trkseg><trkpt lat="37.457842" lon="126.915167"/><trkpt lat="37.457829" lon="126.91557"/><trkpt lat="37.457645" lon="126.915953"/><trkpt lat="37.457597" lon="126.916602"/><trkpt lat="37.45739" lon="126.917244"/><trkpt lat="37.457264" lon="126.917757"/><trkpt lat="37.457191" lon="126.918186"/><trkpt lat="37.457141" lon="126.918914"/></trkseg>
<trkseg><trkpt lat="37.458223" lon="126.914497"/><trkpt lat="37.457842" lon="126.915167"/></trkseg>
<trkseg><trkpt lat="37.458973" lon="126.914274"/><trkpt lat="37.458776" lon="126.914234"/><trkpt lat="37.458537" lon="126.914336"/><trkpt lat="37.458314" lon="126.914483"/><trkpt lat="37.458223" lon="126.914497"/></trkseg>
<trkseg><trkpt lat="37.462169" lon="126.914093"/><trkpt lat="37.46169" lon="126.914428"/><trkpt lat="37.46141" lon="126.914471"/></trkseg>
<trkseg><trkpt lat="37.464587" lon="126.913302"/><trkpt lat="37.464371" lon="126.913044"/><trkpt lat="37.46395" lon="126.913117"/><trkpt lat="37.463315" lon="126.913338"/><trkpt lat="37.462909" lon="126.913695"/><trkpt lat="37.462536" lon="126.913937"/><trkpt lat="37.462169" lon="126.914093"/></trkseg>
<trkseg><trkpt lat="37.467404" lon="126.911339"/><trkpt lat="37.467014" lon="126.911505"/><trkpt lat="37.466598" lon="126.911786"/><trkpt lat="37.466387" lon="126.911997"/><trkpt lat="37.466258" lon="126.912249"/><trkpt lat="37.466077" lon="126.91244"/><trkpt lat="37.465692" lon="126.912517"/><trkpt lat="37.465545" lon="126.9129"/><trkpt lat="37.465366" lon="126.913118"/><trkpt lat="37.465171" lon="126.913279"/><trkpt lat="37.464972" lon="126.913387"/><trkpt lat="37.464779" lon="126.913481"/><trkpt lat="37.464587" lon="126.913302"/></trkseg>
<trkseg><trkpt lat="37.47106" lon="126.909248"/><trkpt lat="37.470793" lon="126.909327"/><trkpt lat="37.470578" lon="126.909494"/><trkpt lat="37.470345" lon="126.909576"/><trkpt lat="37.470176" lon="126.909656"/><trkpt lat="37.470025" lon="126.909763"/><trkpt lat="37.469794" lon="126.909813"/><trkpt lat="37.469628" lon="126.910005"/><trkpt lat="37.469335" lon="126.910109"/><trkpt lat="37.469127" lon="126.910011"/><trkpt lat="37.468952" lon="126.910005"/><trkpt lat="37.468845" lon="126.910211"/><trkpt lat="37.468724" lon="126.910361"/><trkpt lat="37.468577" lon="126.910447"/><trkpt lat="37.468367" lon="126.910472"/><trkpt lat="37.468191" lon="126.910729"/><trkpt lat="37.46806" lon="126.911014"/><trkpt lat="37.46781" lon="126.911064"/><trkpt lat="37.467541" lon="126.911212"/><trkpt lat="37.467404" lon="126.911339"/></trkseg>
<trkseg><trkpt lat="37.472707" lon="126.908262"/><trkpt lat="37.472376" lon="126.908488"/><trkpt lat="37.471989" lon="126.908688"/><trkpt lat="37.471656" lon="126.908877"/><trkpt lat="37.471334" lon="126.909035"/><trkpt lat="37.471161" lon="126.90911"/></trkseg>
<trkseg><trkpt lat="37.477213" lon="126.911909"/><trkpt lat="37.476755" lon="126.911968"/><trkpt lat="37.476262" lon="126.911754"/><trkpt lat="37.476039" lon="126.911563"/><trkpt lat="37.475955" lon="126.911372"/><trkpt lat="37.475618" lon="126.911337"/><trkpt lat="37.475348" lon="126.911259"/><trkpt lat="37.475001" lon="126.911184"/><trkpt lat="37.474773" lon="126.911256"/><trkpt lat="37.474481" lon="126.911286"/><trkpt lat="37.474165" lon="126.911051"/><trkpt lat="37.473867" lon="126.911"/></trkseg>
<trkseg><trkpt lat="37.441902" lon="126.913119"/><trkpt lat="37.441641" lon="126.913259"/></trkseg>
<trkseg><trkpt lat="37.444215" lon="126.908917"/><trkpt lat="37.443834" lon="126.909315"/><trkpt lat="37.443571" lon="126.909644"/><trkpt lat="37.44337" lon="126.910163"/><trkpt lat="37.443316" lon="126.910766"/><trkpt lat="37.443092" lon="126.911314"/><trkpt lat="37.442767" lon="126.911831"/><trkpt lat="37.442433" lon="126.912517"/><trkpt lat="37.441902" lon="126.913119"/></trkseg>
<trkseg><trkpt lat="37.443566" lon="126.90902"/><trkpt lat="37.444215" lon="126.908917"/></trkseg>
<trkseg><trkpt lat="37.443123" lon="126.908878"/><trkpt lat="37.443566" lon="126.90902"/></trkseg>
<trkseg><trkpt lat="37.442955" lon="126.908631"/><trkpt lat="37.443123" lon="126.908878"/></trkseg>
<trkseg><trkpt lat="37.442034" lon="126.908733"/><trkpt lat="37.442256" lon="126.908537"/><trkpt lat="37.442511" lon="126.908614"/><trkpt lat="37.442722" lon="126.90848"/><trkpt lat="37.442945" lon="126.908567"/><trkpt lat="37.442955" lon="126.908631"/></trkseg>
<trkseg><trkpt lat="37.441893" lon="126.909069"/><trkpt lat="37.441961" lon="126.908929"/><trkpt lat="37.442034" lon="126.908733"/></trkseg>
<trkseg><trkpt lat="37.441776" lon="126.909678"/><trkpt lat="37.4418" lon="126.909167"/><trkpt lat="37.441893" lon="126.909069"/></trkseg>
<trkseg><trkpt lat="37.445467" lon="126.918367"/><trkpt lat="37.444583" lon="126.917733"/><trkpt lat="37.444461" lon="126.916931"/></trkseg>
<trkseg><trkpt lat="37.449451" lon="126.92215"/><trkpt lat="37.4487" lon="126.9217"/><trkpt lat="37.447767" lon="126.921067"/><trkpt lat="37.447012" lon="126.920163"/><trkpt lat="37.446767" lon="126.9199"/><trkpt lat="37.446062" lon="126.919006"/><trkpt lat="37.445783" lon="126.918733"/><trkpt lat="37.445467" lon="126.918367"/></trkseg>
<trkseg><trkpt lat="37.450015" lon="126.922308"/><trkpt lat="37.449451" lon="126.92215"/></trkseg>
<trkseg><trkpt lat="37.444461" lon="126.916931"/><trkpt lat="37.444304" lon="126.917026"/><trkpt lat="37.444102" lon="126.917269"/></trkseg>
<trkseg><trkpt lat="37.444461" lon="126.916931"/><trkpt lat="37.444505" lon="126.916097"/><trkpt lat="37.444881" lon="126.914767"/><trkpt lat="37.445412" lon="126.913748"/><trkpt lat="37.445751" lon="126.912757"/><trkpt lat="37.445985" lon="126.912049"/><trkpt lat="37.446338" lon="126.911349"/><trkpt lat="37.446667" lon="126.910183"/></trkseg>
<trkseg><trkpt lat="37.471161" lon="126.90911"/><trkpt lat="37.471397" lon="126.90916"/><trkpt lat="37.471699" lon="126.909084"/><trkpt lat="37.471996" lon="126.909013"/><trkpt lat="37.472239" lon="126.909102"/><trkpt lat="37.472418" lon="126.909484"/><trkpt lat="37.472558" lon="126.909834"/><trkpt lat="37.472917" lon="126.9104"/><trkpt lat="37.4733" lon="126.910783"/><trkpt lat="37.473867" lon="126.911"/></trkseg>
<trkseg><trkpt lat="37.475651" lon="126.913125"/><trkpt lat="37.474812" lon="126.913096"/><trkpt lat="37.474269" lon="126.912367"/><trkpt lat="37.473984" lon="126.911995"/><trkpt lat="37.474097" lon="126.911775"/><trkpt lat="37.474241" lon="126.911501"/><trkpt lat="37.47422" lon="126.911373"/></trkseg>
<trkseg><trkpt lat="37.448804" lon="126.926747"/><trkpt lat="37.448783" lon="126.926217"/><trkpt lat="37.448917" lon="126.925417"/><trkpt lat="37.449217" lon="126.924933"/><trkpt lat="37.44964" lon="126.92482"/><trkpt lat="37.449921" lon="126.924581"/><trkpt lat="37.449983" lon="126.924305"/></trkseg>
<trkseg><trkpt lat="37.451271" lon="126.924111"/><trkpt lat="37.450067" lon="126.924317"/><trkpt lat="37.449983" lon="126.924305"/></trkseg>
<trkseg><trkpt lat="37.451271" lon="126.924111"/><trkpt lat="37.45125" lon="126.924482"/><trkpt lat="37.451617" lon="126.924969"/><trkpt lat="37.452017" lon="126.925383"/><trkpt lat="37.45233" lon="126.92613"/><trkpt lat="37.452517" lon="126.926167"/></trkseg>
<trkseg><trkpt lat="37.435038" lon="126.909457"/><trkpt lat="37.43425" lon="126.9096"/><trkpt lat="37.4339" lon="126.908967"/><trkpt lat="37.433983" lon="126.907683"/><trkpt lat="37.4339" lon="126.907"/></trkseg>
<trkseg><trkpt lat="37.441632" lon="126.911152"/><trkpt lat="37.441468" lon="126.911341"/><trkpt lat="37.441371" lon="126.911625"/><trkpt lat="37.441235" lon="126.911934"/><trkpt lat="37.441233" lon="126.912083"/></trkseg>
<trkseg><trkpt lat="37.441233" lon="126.912083"/><trkpt lat="37.441465" lon="126.912873"/></trkseg>
<trkseg><trkpt lat="37.440317" lon="126.911133"/><trkpt lat="37.440717" lon="126.911517"/><trkpt lat="37.441133" lon="126.911983"/><trkpt lat="37.441233" lon="126.912083"/></trkseg>
<trkseg><trkpt lat="37.440233" lon="126.9107"/><trkpt lat="37.440317" lon="126.911133"/></trkseg>
<trkseg><trkpt lat="37.439683" lon="126.908817"/><trkpt lat="37.44015" lon="126.90855"/><trkpt lat="37.440689" lon="126.908133"/></trkseg>
<trkseg><trkpt lat="37.441776" lon="126.909678"/><trkpt lat="37.441792" lon="126.909991"/><trkpt lat="37.441786" lon="126.910343"/><trkpt lat="37.44165" lon="126.910933"/><trkpt lat="37.441632" lon="126.911152"/></trkseg>
<trkseg><trkpt lat="37.453769" lon="126.924175"/><trkpt lat="37.45315" lon="126.9232"/><trkpt lat="37.452783" lon="126.922833"/><trkpt lat="37.452467" lon="126.922283"/><trkpt lat="37.452467" lon="126.92125"/><trkpt lat="37.45175" lon="126.922283"/><trkpt lat="37.451533" lon="126.92325"/><trkpt lat="37.451271" lon="126.924111"/></trkseg>
<trkseg><trkpt lat="37.454" lon="126.914883"/><trkpt lat="37.454441" lon="126.914774"/><trkpt lat="37.454826" lon="126.914635"/><trkpt lat="37.455061" lon="126.914916"/><trkpt lat="37.455355" lon="126.915159"/><trkpt lat="37.455783" lon="126.9151"/><trkpt lat="37.456133" lon="126.91475"/><trkpt lat="37.456529" lon="126.914789"/><trkpt lat="37.456838" lon="126.915064"/><trkpt lat="37.457362" lon="126.915266"/><trkpt lat="37.457842" lon="126.915167"/></trkseg>
<trkseg><trkpt lat="37.465105" lon="126.911216"/><trkpt lat="37.465201" lon="126.911579"/><trkpt lat="37.465161" lon="126.911913"/><trkpt lat="37.465043" lon="126.912197"/><trkpt lat="37.464883" lon="126.912755"/><trkpt lat="37.464799" lon="126.913121"/><trkpt lat="37.464587" lon="126.913302"/></trkseg>
<trkseg><trkpt lat="37.467633" lon="126.909627"/><trkpt lat="37.467778" lon="126.909438"/></trkseg>
<trkseg><trkpt lat="37.471161" lon="126.90911"/><trkpt lat="37.47106" lon="126.909248"/></trkseg>
<trkseg><trkpt lat="37.47422" lon="126.911373"/><trkpt lat="37.474439" lon="126.911346"/><trkpt lat="37.474705" lon="126.91145"/><trkpt lat="37.474773" lon="126.91176"/><trkpt lat="37.474712" lon="126.91217"/><trkpt lat="37.474662" lon="126.912453"/></trkseg>
<trkseg><trkpt lat="37.473867" lon="126.911"/><trkpt lat="37.47422" lon="126.911373"/></trkseg>
<trkseg><trkpt lat="37.473867" lon="126.911"/><trkpt lat="37.473492" lon="126.910427"/><trkpt lat="37.473301" lon="126.909959"/><trkpt lat="37.473145" lon="126.909515"/><trkpt lat="37.473146" lon="126.90926"/><trkpt lat="37.472908" lon="126.908573"/><trkpt lat="37.472707" lon="126.908262"/></trkseg>
<trkseg><trkpt lat="37.473476" lon="126.906186"/><trkpt lat="37.473601" lon="126.906371"/><trkpt lat="37.473602" lon="126.906661"/><trkpt lat="37.473648" lon="126.906986"/><trkpt lat="37.473634" lon="126.907189"/><trkpt lat="37.473736" lon="126.907385"/><trkpt lat="37.473683" lon="126.907738"/><trkpt lat="37.473625" lon="126.907809"/></trkseg>
<trkseg><trkpt lat="37.473625" lon="126.907809"/><trkpt lat="37.473474" lon="126.90788"/><trkpt lat="37.473145" lon="126.908002"/><trkpt lat="37.472894" lon="126.908086"/><trkpt lat="37.472707" lon="126.908262"/></trkseg>
<trkseg><trkpt lat="37.464875" lon="126.907453"/><trkpt lat="37.464898" lon="126.90737"/></trkseg>
<trkseg><trkpt lat="37.435038" lon="126.909457"/><trkpt lat="37.435067" lon="126.910084"/><trkpt lat="37.434954" lon="126.910655"/><trkpt lat="37.435361" lon="126.910898"/><trkpt lat="37.435933" lon="126.911083"/><trkpt lat="37.436347" lon="126.911156"/><trkpt lat="37.436518" lon="126.911125"/><trkpt lat="37.436848" lon="126.911126"/><trkpt lat="37.437221" lon="126.911177"/><trkpt lat="37.437408" lon="126.911188"/><trkpt lat="37.437511" lon="126.911245"/><trkpt lat="37.437589" lon="126.911413"/><trkpt lat="37.437656" lon="126.911579"/><trkpt lat="37.43777" lon="126.911813"/><trkpt lat="37.437882" lon="126.911903"/><trkpt lat="37.437999" lon="126.911932"/><trkpt lat="37.438159" lon="126.911914"/><trkpt lat="37.438271" lon="126.91198"/><trkpt lat="37.438464" lon="126.912225"/><trkpt lat="37.438523" lon="126.912302"/><trkpt lat="37.438572" lon="126.912467"/><trkpt lat="37.438771" lon="126.912823"/><trkpt lat="37.438845" lon="126.912906"/><trkpt lat="37.438989" lon="126.91301"/><trkpt lat="37.439167" lon="126.913243"/><trkpt lat="37.439387" lon="126.91356"/><trkpt lat="37.439471" lon="126.913661"/><trkpt lat="37.439625" lon="126.913799"/><trkpt lat="37.439723" lon="126.913913"/><trkpt lat="37.439791" lon="126.91401"/></trkseg>
<trkseg><trkpt lat="37.439791" lon="126.91401"/><trkpt lat="37.439883" lon="126.914172"/><trkpt lat="37.439982" lon="126.914408"/><trkpt lat="37.440052" lon="126.914668"/><trkpt lat="37.440033" lon="126.91482"/><trkpt lat="37.43994" lon="126.915046"/><trkpt lat="37.439945" lon="126.915169"/><trkpt lat="37.439952" lon="126.915269"/><trkpt lat="37.43999" lon="126.915373"/><trkpt lat="37.440062" lon="126.91562"/><trkpt lat="37.440206" lon="126.916273"/><trkpt lat="37.440361" lon="126.916565"/><trkpt lat="37.440416" lon="126.916735"/><trkpt lat="37.440414" lon="126.916884"/><trkpt lat="37.440298" lon="126.917022"/><trkpt lat="37.440241" lon="126.917112"/><trkpt lat="37.440204" lon="126.917235"/><trkpt lat="37.440132" lon="126.917539"/><trkpt lat="37.44009" lon="126.917709"/><trkpt lat="37.440083" lon="126.917949"/><trkpt lat="37.440113" lon="126.91816"/><trkpt lat="37.440207" lon="126.918342"/><trkpt lat="37.440255" lon="126.918397"/></trkseg>
<trkseg><trkpt lat="37.440255" lon="126.918397"/><trkpt lat="37.440405" lon="126.918723"/><trkpt lat="37.440472" lon="126.918824"/><trkpt lat="37.440599" lon="126.919096"/><trkpt lat="37.440788" lon="126.919437"/><trkpt lat="37.440873" lon="126.919558"/><trkpt lat="37.440973" lon="126.919636"/><trkpt lat="37.441189" lon="126.919699"/><trkpt lat="37.441338" lon="126.919726"/><trkpt lat="37.441469" lon="126.919753"/><trkpt lat="37.441584" lon="126.919838"/><trkpt lat="37.441793" lon="126.920021"/><trkpt lat="37.441947" lon="126.920101"/><trkpt lat="37.442051" lon="126.920055"/><trkpt lat="37.442153" lon="126.920037"/><trkpt lat="37.442369" lon="126.920083"/><trkpt lat="37.442512" lon="126.920144"/><trkpt lat="37.442763" lon="126.920309"/><trkpt lat="37.442961" lon="126.920551"/><trkpt lat="37.443176" lon="126.920693"/><trkpt lat="37.443378" lon="126.920812"/><trkpt lat="37.443648" lon="126.921001"/><trkpt lat="37.444023" lon="126.921187"/><trkpt lat="37.444305" lon="126.921374"/><trkpt lat="37.444416" lon="126.921453"/><trkpt lat="37.444504" lon="126.921545"/><trkpt lat="37.444759" lon="126.921867"/><trkpt lat="37.444904" lon="126.922164"/><trkpt lat="37.445067" lon="126.922317"/><trkpt lat="37.445158" lon="126.922382"/><trkpt lat="37.445241" lon="126.922387"/><trkpt lat="37.445381" lon="126.922355"/><trkpt lat="37.445912" lon="126.922742"/><trkpt lat="37.44603" lon="126.922798"/><trkpt lat="37.446143" lon="126.922862"/><trkpt lat="37.446238" lon="126.922954"/><trkpt lat="37.446303" lon="126.923055"/><trkpt lat="37.446326" lon="126.923134"/></trkseg>
<trkseg><trkpt lat="37.446326" lon="126.923134"/><trkpt lat="37.446377" lon="126.923269"/><trkpt lat="37.446462" lon="126.92338"/><trkpt lat="37.446584" lon="126.92349"/><trkpt lat="37.446668" lon="126.923546"/><trkpt lat="37.446671" lon="126.923795"/><trkpt lat="37.446741" lon="126.923997"/><trkpt lat="37.44692" lon="126.924282"/><trkpt lat="37.44729" lon="126.924748"/><trkpt lat="37.447432" lon="126.925051"/><trkpt lat="37.447437" lon="126.925228"/><trkpt lat="37.447599" lon="126.925355"/><trkpt lat="37.448148" lon="126.925816"/><trkpt lat="37.44846" lon="126.92599"/><trkpt lat="37.448534" lon="126.926079"/><trkpt lat="37.448581" lon="126.926361"/><trkpt lat="37.448618" lon="126.926465"/><trkpt lat="37.448804" lon="126.926747"/></trkseg>
<trkseg><trkpt lat="37.444633" lon="126.919183"/><trkpt lat="37.444624" lon="126.919408"/><trkpt lat="37.44485" lon="126.919567"/><trkpt lat="37.445117" lon="126.920017"/><trkpt lat="37.445333" lon="126.920368"/><trkpt lat="37.445778" lon="126.920725"/><trkpt lat="37.44551" lon="126.920884"/><trkpt lat="37.444812" lon="126.92078"/><trkpt lat="37.445475" lon="126.921288"/><trkpt lat="37.44604" lon="126.921633"/><trkpt lat="37.446283" lon="126.922045"/><trkpt lat="37.44645" lon="126.922633"/><trkpt lat="37.446326" lon="126.923134"/></trkseg>
<trkseg><trkpt lat="37.448804" lon="126.926747"/><trkpt lat="37.448875" lon="126.926925"/><trkpt lat="37.448961" lon="126.927019"/><trkpt lat="37.449042" lon="126.927181"/><trkpt lat="37.449206" lon="126.927332"/><trkpt lat="37.44955" lon="126.927517"/><trkpt lat="37.449962" lon="126.92768"/><trkpt lat="37.450296" lon="126.927204"/><trkpt lat="37.450567" lon="126.926733"/><trkpt lat="37.451417" lon="126.927"/><trkpt lat="37.451967" lon="126.92675"/><trkpt lat="37.452517" lon="126.926167"/></trkseg>
<trkseg><trkpt lat="37.445467" lon="126.918367"/><trkpt lat="37.444633" lon="126.919183"/></trkseg>
<trkseg><trkpt lat="37.452517" lon="126.926167"/><trkpt lat="37.452883" lon="126.9257"/><trkpt lat="37.453033" lon="126.92495"/><trkpt lat="37.4536" lon="126.9244"/><trkpt lat="37.453754" lon="126.924217"/><trkpt lat="37.453769" lon="126.924175"/></trkseg>
</trk>
</gpx>
