<?xml version="1.0" encoding="UTF-8"?>
<gpx version="1.1" creator="letnaturechoose" xmlns="http://www.topografix.com/GPX/1/1">
<metadata><name>아홉산 등산로</name></metadata>
<trk><name>아홉산</name>
<trkseg><trkpt lat="35.239336" lon="129.130438"/><trkpt lat="35.2397" lon="129.130816"/><trkpt lat="35.239509" lon="129.131295"/><trkpt lat="35.239504" lon="129.131478"/><trkpt lat="35.239788" lon="129.131681"/><trkpt lat="35.240267" lon="129.13193"/><trkpt lat="35.240319" lon="129.13212"/><trkpt lat="35.240343" lon="129.132159"/><trkpt lat="35.240369" lon="129.132287"/><trkpt lat="35.24077" lon="129.133199"/><trkpt lat="35.240906" lon="129.133091"/><trkpt lat="35.240952" lon="129.13306"/><trkpt lat="35.240987" lon="129.133046"/><trkpt lat="35.241023" lon="129.133049"/><trkpt lat="35.241073" lon="129.133063"/><trkpt lat="35.241287" lon="129.13314"/><trkpt lat="35.241338" lon="129.133155"/><trkpt lat="35.241376" lon="129.133159"/><trkpt lat="35.241413" lon="129.133156"/><trkpt lat="35.241487" lon="129.133141"/><trkpt lat="35.241537" lon="129.133126"/><trkpt lat="35.241586" lon="129.133104"/><trkpt lat="35.241634" lon="129.133077"/><trkpt lat="35.241666" lon="129.133052"/><trkpt lat="35.241704" lon="129.133011"/><trkpt lat="35.241768" lon="129.132937"/><trkpt lat="35.241798" lon="129.13291"/><trkpt lat="35.241833" lon="129.132892"/><trkpt lat="35.241921" lon="129.132863"/><trkpt lat="35.241971" lon="129.132846"/><trkpt lat="35.242006" lon="129.132828"/><trkpt lat="35.242039" lon="129.132801"/><trkpt lat="35.242088" lon="129.132747"/><trkpt lat="35.242411" lon="129.132374"/><trkpt lat="35.242457" lon="129.132315"/><trkpt lat="35.242616" lon="129.132078"/><trkpt lat="35.242667" lon="129.132004"/><trkpt lat="35.242695" lon="129.131969"/><trkpt lat="35.242734" lon="129.131927"/><trkpt lat="35.242929" lon="129.131732"/><trkpt lat="35.242967" lon="129.131689"/><trkpt lat="35.242991" lon="129.131651"/><trkpt lat="35.243031" lon="129.131567"/><trkpt lat="35.243143" lon="129.131309"/><trkpt lat="35.243164" lon="129.131268"/><trkpt lat="35.243187" lon="129.131228"/><trkpt lat="35.243249" lon="129.131142"/><trkpt lat="35.243375" lon="129.130971"/><trkpt lat="35.243408" lon="129.13092"/><trkpt lat="35.243435" lon="129.130864"/><trkpt lat="35.243639" lon="129.13037"/></trkseg>
<trkseg><trkpt lat="35.24073" lon="129.127897"/><trkpt lat="35.240716" lon="129.127905"/><trkpt lat="35.240683" lon="129.127906"/><trkpt lat="35.240645" lon="129.127882"/><trkpt lat="35.240606" lon="129.127835"/><trkpt lat="35.240374" lon="129.127521"/><trkpt lat="35.240341" lon="129.127471"/><trkpt lat="35.240313" lon="129.127417"/><trkpt lat="35.240236" lon="129.127247"/><trkpt lat="35.240212" lon="129.12719"/><trkpt lat="35.240198" lon="129.127144"/><trkpt lat="35.240148" lon="129.126923"/><trkpt lat="35.240129" lon="129.126846"/><trkpt lat="35.240112" lon="129.126802"/><trkpt lat="35.240091" lon="129.126761"/><trkpt lat="35.240001" lon="129.126619"/><trkpt lat="35.239959" lon="129.126556"/><trkpt lat="35.239931" lon="129.126521"/><trkpt lat="35.2399" lon="129.126491"/><trkpt lat="35.239855" lon="129.126456"/><trkpt lat="35.239765" lon="129.126386"/><trkpt lat="35.239734" lon="129.126356"/><trkpt lat="35.239709" lon="129.126321"/><trkpt lat="35.23969" lon="129.12628"/><trkpt lat="35.239637" lon="129.12615"/><trkpt lat="35.239607" lon="129.126079"/><trkpt lat="35.239586" lon="129.126041"/><trkpt lat="35.239557" lon="129.126014"/><trkpt lat="35.239521" lon="129.125995"/><trkpt lat="35.239393" lon="129.125943"/><trkpt lat="35.239356" lon="129.125925"/><trkpt lat="35.239321" lon="129.125902"/><trkpt lat="35.239278" lon="129.125866"/><trkpt lat="35.239098" lon="129.125705"/><trkpt lat="35.239066" lon="129.12568"/><trkpt lat="35.239031" lon="129.125661"/><trkpt lat="35.238985" lon="129.125651"/><trkpt lat="35.238913" lon="129.125643"/><trkpt lat="35.238911" lon="129.125643"/></trkseg>
<trkseg><trkpt lat="35.240761" lon="129.128035"/><trkpt lat="35.240671" lon="129.128168"/><trkpt lat="35.240641" lon="129.128219"/><trkpt lat="35.240623" lon="129.128259"/><trkpt lat="35.240611" lon="129.128302"/><trkpt lat="35.24059" lon="129.128406"/><trkpt lat="35.240552" lon="129.128639"/><trkpt lat="35.240547" lon="129.128685"/><trkpt lat="35.240547" lon="129.12873"/><trkpt lat="35.240558" lon="129.128773"/><trkpt lat="35.240591" lon="129.128855"/><trkpt lat="35.240606" lon="129.128897"/><trkpt lat="35.240614" lon="129.128941"/><trkpt lat="35.240611" lon="129.128987"/><trkpt lat="35.240599" lon="129.129065"/><trkpt lat="35.240589" lon="129.129109"/><trkpt lat="35.240574" lon="129.129148"/><trkpt lat="35.240548" lon="129.129173"/><trkpt lat="35.240514" lon="129.129187"/><trkpt lat="35.240438" lon="129.129206"/><trkpt lat="35.240401" lon="129.129217"/><trkpt lat="35.240366" lon="129.129234"/><trkpt lat="35.240337" lon="129.129263"/><trkpt lat="35.240311" lon="129.129297"/><trkpt lat="35.240188" lon="129.129483"/><trkpt lat="35.240153" lon="129.12953"/><trkpt lat="35.240124" lon="129.129561"/><trkpt lat="35.240048" lon="129.129626"/><trkpt lat="35.239916" lon="129.129735"/><trkpt lat="35.239887" lon="129.129765"/><trkpt lat="35.239864" lon="129.129801"/><trkpt lat="35.23985" lon="129.129844"/><trkpt lat="35.239826" lon="129.129951"/><trkpt lat="35.239816" lon="129.129993"/><trkpt lat="35.239801" lon="129.130025"/><trkpt lat="35.239777" lon="129.13003"/><trkpt lat="35.239746" lon="129.130015"/><trkpt lat="35.239701" lon="129.129991"/><trkpt lat="35.239672" lon="129.129987"/><trkpt lat="35.239652" lon="129.130009"/><trkpt lat="35.239636" lon="129.130045"/><trkpt lat="35.239609" lon="129.130113"/><trkpt lat="35.239587" lon="129.13015"/><trkpt lat="35.239558" lon="129.130182"/><trkpt lat="35.239527" lon="129.130207"/><trkpt lat="35.239493" lon="129.13022"/><trkpt lat="35.239458" lon="129.130217"/><trkpt lat="35.239426" lon="129.130203"/><trkpt lat="35.2394" lon="129.130175"/><trkpt lat="35.23937" lon="129.130138"/><trkpt lat="35.239344" lon="129.130137"/><trkpt lat="35.239307" lon="129.130169"/><trkpt lat="35.23926" lon="129.130225"/><trkpt lat="35.239258" lon="129.130227"/></trkseg>
<trkseg><trkpt lat="35.262262" lon="129.141776"/><trkpt lat="35.262304" lon="129.1418"/><trkpt lat="35.262346" lon="129.141828"/><trkpt lat="35.262379" lon="129.14186"/><trkpt lat="35.262397" lon="129.1419"/><trkpt lat="35.262411" lon="129.141945"/><trkpt lat="35.262512" lon="129.142337"/><trkpt lat="35.262533" lon="129.142415"/><trkpt lat="35.26255" lon="129.142459"/><trkpt lat="35.262585" lon="129.14253"/><trkpt lat="35.262644" lon="129.142639"/><trkpt lat="35.262669" lon="129.142675"/><trkpt lat="35.262699" lon="129.142701"/><trkpt lat="35.262734" lon="129.142715"/><trkpt lat="35.262808" lon="129.142735"/><trkpt lat="35.262845" lon="129.142754"/><trkpt lat="35.262915" lon="129.142799"/><trkpt lat="35.263275" lon="129.143048"/><trkpt lat="35.26331" lon="129.143069"/><trkpt lat="35.263348" lon="129.143086"/><trkpt lat="35.263399" lon="129.143101"/><trkpt lat="35.263556" lon="129.143145"/><trkpt lat="35.263594" lon="129.14316"/><trkpt lat="35.263767" lon="129.143252"/><trkpt lat="35.263952" lon="129.143351"/><trkpt lat="35.26399" lon="129.143365"/><trkpt lat="35.264028" lon="129.143368"/><trkpt lat="35.264067" lon="129.143361"/><trkpt lat="35.264103" lon="129.143349"/><trkpt lat="35.264132" lon="129.14333"/><trkpt lat="35.264159" lon="129.143308"/><trkpt lat="35.26418" lon="129.143314"/><trkpt lat="35.26421" lon="129.143324"/><trkpt lat="35.264322" lon="129.143348"/><trkpt lat="35.264412" lon="129.143363"/><trkpt lat="35.264451" lon="129.143365"/><trkpt lat="35.264504" lon="129.143362"/><trkpt lat="35.264821" lon="129.14333"/><trkpt lat="35.26486" lon="129.143328"/><trkpt lat="35.264899" lon="129.143333"/><trkpt lat="35.264938" lon="129.143346"/><trkpt lat="35.265065" lon="129.143401"/><trkpt lat="35.265141" lon="129.143431"/><trkpt lat="35.265179" lon="129.143438"/><trkpt lat="35.265212" lon="129.143433"/><trkpt lat="35.265259" lon="129.143419"/><trkpt lat="35.265283" lon="129.143432"/><trkpt lat="35.265304" lon="129.143465"/><trkpt lat="35.265372" lon="129.14362"/><trkpt lat="35.265397" lon="129.143676"/><trkpt lat="35.265419" lon="129.143716"/><trkpt lat="35.265445" lon="129.143752"/><trkpt lat="35.265522" lon="129.143844"/><trkpt lat="35.265601" lon="129.143932"/><trkpt lat="35.265633" lon="129.14396"/><trkpt lat="35.265687" lon="129.143993"/><trkpt lat="35.265716" lon="129.144014"/><trkpt lat="35.265739" lon="129.144042"/><trkpt lat="35.265763" lon="129.144108"/><trkpt lat="35.265782" lon="129.144148"/><trkpt lat="35.265806" lon="129.144186"/><trkpt lat="35.265866" lon="129.144272"/><trkpt lat="35.265887" lon="129.144311"/><trkpt lat="35.265913" lon="129.144378"/><trkpt lat="35.26593" lon="129.144418"/><trkpt lat="35.265951" lon="129.144455"/><trkpt lat="35.265977" lon="129.144488"/><trkpt lat="35.266043" lon="129.144525"/><trkpt lat="35.266083" lon="129.144523"/><trkpt lat="35.26611" lon="129.144481"/><trkpt lat="35.266124" lon="129.14444"/><trkpt lat="35.266144" lon="129.144407"/><trkpt lat="35.266168" lon="129.144386"/><trkpt lat="35.266195" lon="129.144389"/><trkpt lat="35.266224" lon="129.144413"/><trkpt lat="35.266314" lon="129.144513"/><trkpt lat="35.266354" lon="129.144558"/><trkpt lat="35.266386" lon="129.144587"/><trkpt lat="35.266454" lon="129.144638"/><trkpt lat="35.266626" lon="129.144757"/><trkpt lat="35.266662" lon="129.144776"/><trkpt lat="35.266699" lon="129.144787"/><trkpt lat="35.266752" lon="129.144792"/><trkpt lat="35.266831" lon="129.144794"/><trkpt lat="35.266898" lon="129.144792"/><trkpt lat="35.266937" lon="129.144786"/><trkpt lat="35.267039" lon="129.14476"/><trkpt lat="35.267295" lon="129.14469"/><trkpt lat="35.267334" lon="129.144684"/><trkpt lat="35.267374" lon="129.144684"/><trkpt lat="35.267453" lon="129.144693"/><trkpt lat="35.267652" lon="129.14472"/></trkseg>
<trkseg><trkpt lat="35.238911" lon="129.125643"/><trkpt lat="35.239469" lon="129.12466"/><trkpt lat="35.239508" lon="129.124595"/><trkpt lat="35.239535" lon="129.124559"/><trkpt lat="35.239564" lon="129.124531"/><trkpt lat="35.239641" lon="129.124476"/><trkpt lat="35.239685" lon="129.124444"/><trkpt lat="35.239715" lon="129.124416"/><trkpt lat="35.239742" lon="129.124381"/><trkpt lat="35.239781" lon="129.124315"/><trkpt lat="35.240012" lon="129.123914"/><trkpt lat="35.240038" lon="129.123879"/><trkpt lat="35.240069" lon="129.123853"/><trkpt lat="35.240118" lon="129.123829"/><trkpt lat="35.240371" lon="129.123727"/><trkpt lat="35.24042" lon="129.123704"/><trkpt lat="35.240453" lon="129.12368"/><trkpt lat="35.240481" lon="129.123648"/><trkpt lat="35.240559" lon="129.123541"/><trkpt lat="35.240609" lon="129.123468"/><trkpt lat="35.240631" lon="129.123429"/><trkpt lat="35.240647" lon="129.123386"/><trkpt lat="35.240669" lon="129.12331"/><trkpt lat="35.24073" lon="129.123081"/><trkpt lat="35.240739" lon="129.123035"/><trkpt lat="35.240743" lon="129.122988"/><trkpt lat="35.240744" lon="129.122908"/><trkpt lat="35.240743" lon="129.122554"/><trkpt lat="35.24074" lon="129.12249"/><trkpt lat="35.240734" lon="129.122442"/><trkpt lat="35.240759" lon="129.122359"/><trkpt lat="35.240834" lon="129.122398"/><trkpt lat="35.240886" lon="129.122483"/><trkpt lat="35.24091" lon="129.122519"/><trkpt lat="35.240926" lon="129.122559"/><trkpt lat="35.240932" lon="129.122604"/><trkpt lat="35.240933" lon="129.122683"/><trkpt lat="35.240932" lon="129.122939"/><trkpt lat="35.240934" lon="129.122986"/><trkpt lat="35.240939" lon="129.123034"/><trkpt lat="35.240951" lon="129.123096"/><trkpt lat="35.240978" lon="129.123236"/><trkpt lat="35.240984" lon="129.123283"/><trkpt lat="35.240986" lon="129.123379"/><trkpt lat="35.240985" lon="129.123862"/><trkpt lat="35.240981" lon="129.123942"/><trkpt lat="35.240928" lon="129.124575"/><trkpt lat="35.24091" lon="129.124786"/><trkpt lat="35.240902" lon="129.124832"/><trkpt lat="35.240885" lon="129.124873"/><trkpt lat="35.240862" lon="129.124911"/><trkpt lat="35.240794" lon="129.125008"/><trkpt lat="35.240763" lon="129.125059"/><trkpt lat="35.240746" lon="129.1251"/><trkpt lat="35.240737" lon="129.125147"/><trkpt lat="35.240729" lon="129.125211"/><trkpt lat="35.240646" lon="129.12606"/><trkpt lat="35.240612" lon="129.126402"/><trkpt lat="35.240611" lon="129.12645"/><trkpt lat="35.240615" lon="129.126562"/><trkpt lat="35.240636" lon="129.126913"/><trkpt lat="35.240643" lon="129.126961"/><trkpt lat="35.240692" lon="129.127182"/><trkpt lat="35.240708" lon="129.127261"/><trkpt lat="35.240715" lon="129.127309"/><trkpt lat="35.240719" lon="129.127407"/><trkpt lat="35.24073" lon="129.127897"/></trkseg>
<trkseg><trkpt lat="35.244866" lon="129.136086"/><trkpt lat="35.245261" lon="129.136139"/><trkpt lat="35.245313" lon="129.136145"/><trkpt lat="35.24535" lon="129.136144"/><trkpt lat="35.245384" lon="129.136131"/><trkpt lat="35.245412" lon="129.136102"/><trkpt lat="35.245437" lon="129.136066"/><trkpt lat="35.245653" lon="129.135737"/><trkpt lat="35.245704" lon="129.135663"/><trkpt lat="35.245732" lon="129.135629"/><trkpt lat="35.245764" lon="129.135601"/><trkpt lat="35.245821" lon="129.135559"/><trkpt lat="35.246101" lon="129.135367"/><trkpt lat="35.246149" lon="129.135337"/><trkpt lat="35.246198" lon="129.135311"/><trkpt lat="35.246504" lon="129.13518"/><trkpt lat="35.246579" lon="129.135145"/><trkpt lat="35.246615" lon="129.135123"/><trkpt lat="35.246645" lon="129.135094"/><trkpt lat="35.246683" lon="129.13505"/><trkpt lat="35.246831" lon="129.134867"/><trkpt lat="35.24687" lon="129.134824"/><trkpt lat="35.246902" lon="129.134799"/><trkpt lat="35.246939" lon="129.13478"/><trkpt lat="35.247067" lon="129.134732"/><trkpt lat="35.247144" lon="129.134707"/><trkpt lat="35.247184" lon="129.134699"/><trkpt lat="35.247265" lon="129.13469"/><trkpt lat="35.247453" lon="129.134672"/><trkpt lat="35.247493" lon="129.134664"/><trkpt lat="35.247529" lon="129.134648"/><trkpt lat="35.247598" lon="129.134603"/><trkpt lat="35.247632" lon="129.134582"/><trkpt lat="35.247668" lon="129.134567"/><trkpt lat="35.247768" lon="129.134546"/><trkpt lat="35.247804" lon="129.134536"/><trkpt lat="35.247839" lon="129.134519"/><trkpt lat="35.247871" lon="129.134493"/><trkpt lat="35.247942" lon="129.134422"/><trkpt lat="35.247973" lon="129.134395"/><trkpt lat="35.248008" lon="129.134378"/><trkpt lat="35.248046" lon="129.134374"/><trkpt lat="35.248113" lon="129.134378"/><trkpt lat="35.248476" lon="129.134407"/><trkpt lat="35.248529" lon="129.134409"/><trkpt lat="35.248568" lon="129.134403"/><trkpt lat="35.248604" lon="129.134388"/><trkpt lat="35.24865" lon="129.134358"/><trkpt lat="35.2488" lon="129.134254"/><trkpt lat="35.248832" lon="129.134228"/><trkpt lat="35.248861" lon="129.134198"/><trkpt lat="35.248898" lon="129.134142"/><trkpt lat="35.248924" lon="129.134108"/><trkpt lat="35.248963" lon="129.134074"/><trkpt lat="35.249" lon="129.13405"/><trkpt lat="35.249016" lon="129.13404"/></trkseg>
<trkseg><trkpt lat="35.262262" lon="129.141776"/><trkpt lat="35.262267" lon="129.141737"/><trkpt lat="35.262281" lon="129.141681"/><trkpt lat="35.262303" lon="129.141631"/><trkpt lat="35.26237" lon="129.141532"/><trkpt lat="35.26241" lon="129.141471"/><trkpt lat="35.262429" lon="129.141432"/><trkpt lat="35.262445" lon="129.141388"/><trkpt lat="35.262466" lon="129.141357"/><trkpt lat="35.262495" lon="129.141329"/><trkpt lat="35.262559" lon="129.141275"/><trkpt lat="35.262588" lon="129.141243"/><trkpt lat="35.262614" lon="129.141206"/><trkpt lat="35.262777" lon="129.140945"/><trkpt lat="35.262827" lon="129.140869"/><trkpt lat="35.262856" lon="129.140835"/><trkpt lat="35.262887" lon="129.140805"/><trkpt lat="35.263045" lon="129.140676"/><trkpt lat="35.263213" lon="129.140539"/><trkpt lat="35.263248" lon="129.140515"/><trkpt lat="35.263284" lon="129.140494"/><trkpt lat="35.263903" lon="129.140197"/><trkpt lat="35.263976" lon="129.140159"/><trkpt lat="35.264011" lon="129.140137"/><trkpt lat="35.264055" lon="129.140102"/><trkpt lat="35.264217" lon="129.139963"/><trkpt lat="35.264262" lon="129.139931"/><trkpt lat="35.264296" lon="129.139914"/><trkpt lat="35.264356" lon="129.139895"/><trkpt lat="35.264404" lon="129.139878"/><trkpt lat="35.26444" lon="129.139858"/><trkpt lat="35.264543" lon="129.139785"/><trkpt lat="35.26459" lon="129.139756"/><trkpt lat="35.264656" lon="129.139704"/><trkpt lat="35.264791" lon="129.139547"/><trkpt lat="35.264836" lon="129.139461"/><trkpt lat="35.264857" lon="129.139422"/><trkpt lat="35.2649" lon="129.139361"/><trkpt lat="35.265104" lon="129.139083"/><trkpt lat="35.265141" lon="129.139038"/><trkpt lat="35.265173" lon="129.139013"/><trkpt lat="35.265209" lon="129.138997"/><trkpt lat="35.265261" lon="129.138982"/><trkpt lat="35.265509" lon="129.138916"/><trkpt lat="35.26556" lon="129.138898"/><trkpt lat="35.265597" lon="129.138879"/><trkpt lat="35.265951" lon="129.138663"/><trkpt lat="35.266021" lon="129.138617"/><trkpt lat="35.266403" lon="129.138317"/><trkpt lat="35.266594" lon="129.138167"/><trkpt lat="35.266629" lon="129.138146"/><trkpt lat="35.266667" lon="129.138134"/><trkpt lat="35.26672" lon="129.13813"/><trkpt lat="35.266963" lon="129.138131"/><trkpt lat="35.267798" lon="129.138132"/><trkpt lat="35.267852" lon="129.138129"/><trkpt lat="35.267916" lon="129.138119"/><trkpt lat="35.268045" lon="129.138093"/><trkpt lat="35.268095" lon="129.13808"/><trkpt lat="35.268132" lon="129.138066"/><trkpt lat="35.268192" lon="129.138034"/><trkpt lat="35.268344" lon="129.13794"/><trkpt lat="35.268392" lon="129.137915"/><trkpt lat="35.26843" lon="129.137901"/><trkpt lat="35.268521" lon="129.137875"/><trkpt lat="35.268756" lon="129.137811"/><trkpt lat="35.268794" lon="129.137797"/><trkpt lat="35.26883" lon="129.137779"/><trkpt lat="35.268983" lon="129.137686"/><trkpt lat="35.269054" lon="129.137646"/><trkpt lat="35.269091" lon="129.13763"/><trkpt lat="35.269334" lon="129.137554"/><trkpt lat="35.269437" lon="129.137525"/><trkpt lat="35.269634" lon="129.137489"/><trkpt lat="35.269712" lon="129.137477"/><trkpt lat="35.269752" lon="129.137476"/><trkpt lat="35.269791" lon="129.137478"/><trkpt lat="35.270025" lon="129.137511"/><trkpt lat="35.270103" lon="129.13752"/><trkpt lat="35.270142" lon="129.137518"/><trkpt lat="35.27018" lon="129.137507"/><trkpt lat="35.270292" lon="129.137453"/><trkpt lat="35.270343" lon="129.13743"/><trkpt lat="35.270381" lon="129.137418"/><trkpt lat="35.270421" lon="129.13741"/><trkpt lat="35.270728" lon="129.137377"/><trkpt lat="35.270806" lon="129.137365"/><trkpt lat="35.27084" lon="129.137353"/><trkpt lat="35.270867" lon="129.137329"/><trkpt lat="35.270893" lon="129.137316"/><trkpt lat="35.270928" lon="129.137315"/><trkpt lat="35.271139" lon="129.137341"/><trkpt lat="35.271231" lon="129.137351"/><trkpt lat="35.271268" lon="129.137352"/><trkpt lat="35.271298" lon="129.137344"/><trkpt lat="35.271323" lon="129.137324"/><trkpt lat="35.271353" lon="129.137317"/><trkpt lat="35.27139" lon="129.13732"/><trkpt lat="35.27152" lon="129.137341"/><trkpt lat="35.271571" lon="129.137353"/><trkpt lat="35.271603" lon="129.137368"/><trkpt lat="35.271636" lon="129.137409"/><trkpt lat="35.271663" lon="129.137437"/><trkpt lat="35.271706" lon="129.137471"/><trkpt lat="35.271925" lon="129.137622"/><trkpt lat="35.271983" lon="129.13766"/><trkpt lat="35.272019" lon="129.137679"/><trkpt lat="35.272056" lon="129.137689"/><trkpt lat="35.272096" lon="129.137692"/><trkpt lat="35.272456" lon="129.137692"/><trkpt lat="35.272816" lon="129.137692"/><trkpt lat="35.272855" lon="129.137689"/><trkpt lat="35.272893" lon="129.137678"/><trkpt lat="35.272928" lon="129.137659"/><trkpt lat="35.273101" lon="129.137536"/><trkpt lat="35.273376" lon="129.137339"/><trkpt lat="35.273411" lon="129.137317"/><trkpt lat="35.273448" lon="129.1373"/><trkpt lat="35.273498" lon="129.137282"/><trkpt lat="35.273884" lon="129.137165"/><trkpt lat="35.273947" lon="129.137143"/><trkpt lat="35.273984" lon="129.137126"/><trkpt lat="35.274043" lon="129.137091"/><trkpt lat="35.274171" lon="129.137011"/><trkpt lat="35.274207" lon="129.136994"/><trkpt lat="35.274244" lon="129.136988"/><trkpt lat="35.274281" lon="129.136994"/><trkpt lat="35.274345" lon="129.137014"/><trkpt lat="35.274756" lon="129.137155"/><trkpt lat="35.275" lon="129.137239"/><trkpt lat="35.275037" lon="129.137255"/><trkpt lat="35.275073" lon="129.137276"/><trkpt lat="35.275375" lon="129.137483"/><trkpt lat="35.275734" lon="129.137731"/><trkpt lat="35.275766" lon="129.137759"/><trkpt lat="35.275808" lon="129.137799"/><trkpt lat="35.276232" lon="129.138239"/><trkpt lat="35.276274" lon="129.138277"/><trkpt lat="35.276319" lon="129.138309"/><trkpt lat="35.276519" lon="129.138433"/><trkpt lat="35.276567" lon="129.138459"/><trkpt lat="35.27663" lon="129.138485"/><trkpt lat="35.277297" lon="129.138723"/><trkpt lat="35.277579" lon="129.138824"/><trkpt lat="35.277618" lon="129.138836"/><trkpt lat="35.277657" lon="129.138841"/><trkpt lat="35.277697" lon="129.138839"/><trkpt lat="35.277883" lon="129.13881"/><trkpt lat="35.277976" lon="129.138797"/><trkpt lat="35.278016" lon="129.138795"/><trkpt lat="35.278096" lon="129.1388"/><trkpt lat="35.278783" lon="129.138958"/></trkseg>
<trkseg><trkpt lat="35.24954" lon="129.139137"/><trkpt lat="35.24966" lon="129.139115"/><trkpt lat="35.249713" lon="129.139103"/><trkpt lat="35.249747" lon="129.139089"/><trkpt lat="35.249769" lon="129.139062"/><trkpt lat="35.249778" lon="129.139023"/><trkpt lat="35.24979" lon="129.138955"/><trkpt lat="35.249807" lon="129.13893"/><trkpt lat="35.249835" lon="129.138921"/><trkpt lat="35.249877" lon="129.138913"/><trkpt lat="35.249906" lon="129.138893"/><trkpt lat="35.249942" lon="129.138855"/><trkpt lat="35.249971" lon="129.138832"/><trkpt lat="35.250008" lon="129.138808"/><trkpt lat="35.250022" lon="129.138785"/><trkpt lat="35.250024" lon="129.138743"/><trkpt lat="35.250036" lon="129.138711"/><trkpt lat="35.250062" lon="129.138681"/><trkpt lat="35.250109" lon="129.138632"/><trkpt lat="35.250129" lon="129.138599"/><trkpt lat="35.250152" lon="129.138557"/><trkpt lat="35.250183" lon="129.138534"/><trkpt lat="35.25023" lon="129.13851"/><trkpt lat="35.250343" lon="129.138459"/><trkpt lat="35.250377" lon="129.13844"/><trkpt lat="35.2504" lon="129.138413"/><trkpt lat="35.250407" lon="129.138377"/><trkpt lat="35.250408" lon="129.138321"/><trkpt lat="35.250416" lon="129.13828"/><trkpt lat="35.250436" lon="129.138241"/><trkpt lat="35.250487" lon="129.138169"/><trkpt lat="35.250511" lon="129.138133"/><trkpt lat="35.250528" lon="129.138093"/><trkpt lat="35.250529" lon="129.138049"/><trkpt lat="35.250521" lon="129.137972"/><trkpt lat="35.250526" lon="129.137932"/><trkpt lat="35.250547" lon="129.137904"/><trkpt lat="35.250578" lon="129.137883"/><trkpt lat="35.250613" lon="129.137869"/><trkpt lat="35.25065" lon="129.137867"/><trkpt lat="35.25071" lon="129.137877"/><trkpt lat="35.250743" lon="129.137879"/><trkpt lat="35.250767" lon="129.137866"/><trkpt lat="35.250781" lon="129.137834"/><trkpt lat="35.250803" lon="129.137773"/><trkpt lat="35.250828" lon="129.137745"/><trkpt lat="35.250861" lon="129.137725"/><trkpt lat="35.250919" lon="129.137694"/><trkpt lat="35.250946" lon="129.137667"/><trkpt lat="35.25098" lon="129.137611"/><trkpt lat="35.251005" lon="129.137582"/><trkpt lat="35.251035" lon="129.137557"/><trkpt lat="35.251067" lon="129.137537"/><trkpt lat="35.251103" lon="129.137523"/><trkpt lat="35.251142" lon="129.137516"/><trkpt lat="35.251181" lon="129.137512"/><trkpt lat="35.251218" lon="129.137512"/><trkpt lat="35.251248" lon="129.137524"/><trkpt lat="35.251266" lon="129.13755"/><trkpt lat="35.251288" lon="129.137592"/><trkpt lat="35.251325" lon="129.137626"/><trkpt lat="35.251354" lon="129.137655"/><trkpt lat="35.25138" lon="129.137691"/><trkpt lat="35.251479" lon="129.137846"/><trkpt lat="35.251513" lon="129.137897"/><trkpt lat="35.251541" lon="129.137931"/><trkpt lat="35.251574" lon="129.137957"/><trkpt lat="35.251609" lon="129.137977"/><trkpt lat="35.251646" lon="129.137992"/><trkpt lat="35.251684" lon="129.137992"/><trkpt lat="35.251721" lon="129.137981"/><trkpt lat="35.251754" lon="129.137959"/><trkpt lat="35.251801" lon="129.137907"/><trkpt lat="35.25183" lon="129.137878"/><trkpt lat="35.25188" lon="129.137842"/><trkpt lat="35.251904" lon="129.137814"/><trkpt lat="35.25192" lon="129.137774"/><trkpt lat="35.251939" lon="129.137698"/><trkpt lat="35.251954" lon="129.137654"/><trkpt lat="35.251982" lon="129.137599"/><trkpt lat="35.252075" lon="129.137439"/><trkpt lat="35.252116" lon="129.137374"/><trkpt lat="35.252152" lon="129.137326"/><trkpt lat="35.252518" lon="129.136871"/></trkseg>
<trkseg><trkpt lat="35.256128" lon="129.121831"/><trkpt lat="35.25595" lon="129.121884"/><trkpt lat="35.255914" lon="129.121901"/><trkpt lat="35.255854" lon="129.121937"/><trkpt lat="35.255561" lon="129.122128"/><trkpt lat="35.255532" lon="129.122151"/><trkpt lat="35.255518" lon="129.122176"/><trkpt lat="35.255529" lon="129.122204"/><trkpt lat="35.25556" lon="129.122254"/><trkpt lat="35.255557" lon="129.122283"/><trkpt lat="35.255535" lon="129.122312"/><trkpt lat="35.255496" lon="129.122351"/><trkpt lat="35.255402" lon="129.122439"/><trkpt lat="35.255373" lon="129.12247"/><trkpt lat="35.255348" lon="129.122507"/><trkpt lat="35.255326" lon="129.122548"/><trkpt lat="35.255141" lon="129.122929"/><trkpt lat="35.255115" lon="129.122986"/><trkpt lat="35.2551" lon="129.123031"/><trkpt lat="35.255086" lon="129.123094"/><trkpt lat="35.255048" lon="129.12332"/><trkpt lat="35.25504" lon="129.123384"/><trkpt lat="35.255041" lon="129.123433"/><trkpt lat="35.255053" lon="129.123529"/><trkpt lat="35.255078" lon="129.12369"/><trkpt lat="35.255096" lon="129.123769"/><trkpt lat="35.255119" lon="129.123845"/><trkpt lat="35.255136" lon="129.123889"/><trkpt lat="35.255159" lon="129.123927"/><trkpt lat="35.255264" lon="129.12407"/><trkpt lat="35.255298" lon="129.124119"/><trkpt lat="35.255318" lon="129.124158"/><trkpt lat="35.255329" lon="129.124204"/><trkpt lat="35.255342" lon="129.1243"/><trkpt lat="35.255359" lon="129.12448"/><trkpt lat="35.255361" lon="129.124529"/><trkpt lat="35.255358" lon="129.124575"/><trkpt lat="35.255341" lon="129.124698"/><trkpt lat="35.255329" lon="129.124758"/><trkpt lat="35.255315" lon="129.124802"/><trkpt lat="35.255292" lon="129.12486"/><trkpt lat="35.255156" lon="129.125174"/><trkpt lat="35.255136" lon="129.125215"/><trkpt lat="35.255112" lon="129.125252"/><trkpt lat="35.255083" lon="129.125278"/><trkpt lat="35.254993" lon="129.125336"/><trkpt lat="35.254961" lon="129.125359"/><trkpt lat="35.254933" lon="129.125388"/><trkpt lat="35.254909" lon="129.125423"/><trkpt lat="35.254845" lon="129.125541"/><trkpt lat="35.254814" lon="129.125591"/><trkpt lat="35.254787" lon="129.125624"/><trkpt lat="35.254737" lon="129.125674"/><trkpt lat="35.254708" lon="129.125704"/><trkpt lat="35.254686" lon="129.125738"/><trkpt lat="35.254676" lon="129.125781"/><trkpt lat="35.254671" lon="129.125844"/><trkpt lat="35.254668" lon="129.125924"/><trkpt lat="35.254661" lon="129.125971"/><trkpt lat="35.254648" lon="129.126015"/><trkpt lat="35.254614" lon="129.126101"/><trkpt lat="35.254592" lon="129.126157"/><trkpt lat="35.254581" lon="129.126198"/><trkpt lat="35.254519" lon="129.126333"/><trkpt lat="35.254497" lon="129.12637"/><trkpt lat="35.254478" lon="129.126412"/><trkpt lat="35.254407" lon="129.126607"/><trkpt lat="35.254378" lon="129.12668"/><trkpt lat="35.254357" lon="129.126721"/><trkpt lat="35.254329" lon="129.126755"/><trkpt lat="35.254257" lon="129.126867"/><trkpt lat="35.254221" lon="129.126893"/><trkpt lat="35.2542" lon="129.126932"/><trkpt lat="35.25418" lon="129.126968"/><trkpt lat="35.254157" lon="129.127004"/><trkpt lat="35.254127" lon="129.127038"/><trkpt lat="35.253989" lon="129.127171"/><trkpt lat="35.253851" lon="129.127303"/><trkpt lat="35.253818" lon="129.127329"/><trkpt lat="35.253783" lon="129.127346"/><trkpt lat="35.253744" lon="129.127351"/><trkpt lat="35.25369" lon="129.127351"/><trkpt lat="35.253447" lon="129.127343"/><trkpt lat="35.253406" lon="129.127346"/><trkpt lat="35.253369" lon="129.127354"/><trkpt lat="35.25332" lon="129.127371"/><trkpt lat="35.253287" lon="129.127387"/><trkpt lat="35.253261" lon="129.12741"/><trkpt lat="35.25325" lon="129.127441"/><trkpt lat="35.253251" lon="129.127477"/><trkpt lat="35.253267" lon="129.12753"/><trkpt lat="35.253277" lon="129.12757"/><trkpt lat="35.253275" lon="129.127614"/><trkpt lat="35.253267" lon="129.127674"/><trkpt lat="35.253265" lon="129.12772"/><trkpt lat="35.253268" lon="129.127767"/><trkpt lat="35.253285" lon="129.127909"/><trkpt lat="35.253289" lon="129.12797"/><trkpt lat="35.253284" lon="129.128013"/><trkpt lat="35.253266" lon="129.128051"/><trkpt lat="35.253239" lon="129.128086"/><trkpt lat="35.253113" lon="129.128232"/><trkpt lat="35.252997" lon="129.128367"/><trkpt lat="35.252969" lon="129.128402"/><trkpt lat="35.252946" lon="129.12844"/><trkpt lat="35.252926" lon="129.128482"/><trkpt lat="35.252874" lon="129.128614"/><trkpt lat="35.252856" lon="129.128656"/><trkpt lat="35.252834" lon="129.128696"/><trkpt lat="35.252801" lon="129.128745"/><trkpt lat="35.252657" lon="129.128951"/><trkpt lat="35.252626" lon="129.129001"/><trkpt lat="35.252606" lon="129.129043"/><trkpt lat="35.252585" lon="129.129103"/><trkpt lat="35.252437" lon="129.129561"/><trkpt lat="35.25242" lon="129.129605"/><trkpt lat="35.252398" lon="129.129645"/><trkpt lat="35.252371" lon="129.12968"/><trkpt lat="35.252313" lon="129.129746"/><trkpt lat="35.252287" lon="129.129781"/><trkpt lat="35.252266" lon="129.12982"/><trkpt lat="35.252244" lon="129.129878"/><trkpt lat="35.252146" lon="129.130193"/><trkpt lat="35.252126" lon="129.130252"/><trkpt lat="35.252108" lon="129.130291"/><trkpt lat="35.252086" lon="129.130321"/><trkpt lat="35.252053" lon="129.130352"/><trkpt lat="35.252041" lon="129.130388"/><trkpt lat="35.252026" lon="129.130461"/><trkpt lat="35.25201" lon="129.130505"/><trkpt lat="35.251971" lon="129.130592"/><trkpt lat="35.251902" lon="129.130732"/><trkpt lat="35.251878" lon="129.130771"/><trkpt lat="35.25185" lon="129.130805"/><trkpt lat="35.251801" lon="129.130861"/><trkpt lat="35.251779" lon="129.130899"/><trkpt lat="35.251762" lon="129.130943"/><trkpt lat="35.251721" lon="129.131064"/><trkpt lat="35.251698" lon="129.131141"/><trkpt lat="35.251684" lon="129.131204"/><trkpt lat="35.25164" lon="129.131478"/><trkpt lat="35.251593" lon="129.131768"/><trkpt lat="35.251588" lon="129.131816"/><trkpt lat="35.251587" lon="129.131864"/><trkpt lat="35.251595" lon="129.132042"/><trkpt lat="35.251604" lon="129.132252"/><trkpt lat="35.251603" lon="129.132299"/><trkpt lat="35.251594" lon="129.132344"/><trkpt lat="35.251576" lon="129.132385"/><trkpt lat="35.251546" lon="129.132439"/><trkpt lat="35.25136" lon="129.132759"/><trkpt lat="35.25133" lon="129.132814"/><trkpt lat="35.251306" lon="129.132871"/><trkpt lat="35.251212" lon="129.133139"/><trkpt lat="35.251188" lon="129.133214"/><trkpt lat="35.251177" lon="129.13326"/><trkpt lat="35.251148" lon="129.133447"/><trkpt lat="35.251137" lon="129.133508"/><trkpt lat="35.251125" lon="129.133553"/><trkpt lat="35.251107" lon="129.133596"/><trkpt lat="35.251064" lon="129.133678"/><trkpt lat="35.250931" lon="129.133922"/><trkpt lat="35.250913" lon="129.133964"/><trkpt lat="35.250902" lon="129.13401"/><trkpt lat="35.250897" lon="129.134057"/><trkpt lat="35.250889" lon="129.134257"/><trkpt lat="35.250884" lon="129.134381"/></trkseg>
<trkseg><trkpt lat="35.238641" lon="129.127457"/><trkpt lat="35.238665" lon="129.126812"/><trkpt lat="35.238668" lon="129.126764"/><trkpt lat="35.238677" lon="129.126718"/><trkpt lat="35.238691" lon="129.126674"/><trkpt lat="35.238762" lon="129.126502"/><trkpt lat="35.238795" lon="129.126415"/><trkpt lat="35.238806" lon="129.126369"/><trkpt lat="35.238819" lon="129.126289"/><trkpt lat="35.238911" lon="129.125643"/></trkseg>
<trkseg><trkpt lat="35.267652" lon="129.14472"/><trkpt lat="35.268066" lon="129.144235"/><trkpt lat="35.268101" lon="129.144188"/><trkpt lat="35.268122" lon="129.144148"/><trkpt lat="35.268135" lon="129.144104"/><trkpt lat="35.268153" lon="129.144027"/><trkpt lat="35.268169" lon="129.143984"/><trkpt lat="35.268195" lon="129.143929"/><trkpt lat="35.268323" lon="129.143687"/><trkpt lat="35.268346" lon="129.143649"/><trkpt lat="35.268372" lon="129.143614"/><trkpt lat="35.268402" lon="129.143585"/><trkpt lat="35.268435" lon="129.143562"/><trkpt lat="35.268472" lon="129.143548"/><trkpt lat="35.268511" lon="129.143541"/><trkpt lat="35.26859" lon="129.143528"/><trkpt lat="35.268627" lon="129.143516"/><trkpt lat="35.268661" lon="129.143494"/><trkpt lat="35.268715" lon="129.143451"/><trkpt lat="35.268751" lon="129.143434"/><trkpt lat="35.26879" lon="129.143424"/><trkpt lat="35.268949" lon="129.143396"/><trkpt lat="35.269002" lon="129.143386"/><trkpt lat="35.269039" lon="129.143373"/><trkpt lat="35.269071" lon="129.143349"/><trkpt lat="35.269098" lon="129.143316"/><trkpt lat="35.269211" lon="129.143156"/><trkpt lat="35.269254" lon="129.143096"/><trkpt lat="35.269283" lon="129.143064"/><trkpt lat="35.269316" lon="129.143041"/><trkpt lat="35.269353" lon="129.143026"/><trkpt lat="35.269509" lon="129.142977"/><trkpt lat="35.269585" lon="129.142951"/><trkpt lat="35.269622" lon="129.142933"/><trkpt lat="35.269652" lon="129.142908"/><trkpt lat="35.269698" lon="129.142857"/><trkpt lat="35.269727" lon="129.142832"/><trkpt lat="35.269763" lon="129.142818"/><trkpt lat="35.269803" lon="129.142811"/><trkpt lat="35.270032" lon="129.142786"/><trkpt lat="35.27022" lon="129.142763"/><trkpt lat="35.270259" lon="129.142763"/><trkpt lat="35.270294" lon="129.142772"/><trkpt lat="35.270319" lon="129.1428"/><trkpt lat="35.27034" lon="129.142838"/><trkpt lat="35.270381" lon="129.142921"/><trkpt lat="35.270404" lon="129.142958"/><trkpt lat="35.270434" lon="129.142986"/><trkpt lat="35.27047" lon="129.143006"/><trkpt lat="35.270608" lon="129.143069"/><trkpt lat="35.270735" lon="129.143124"/><trkpt lat="35.270773" lon="129.143136"/><trkpt lat="35.27088" lon="129.143139"/><trkpt lat="35.271031" lon="129.143212"/><trkpt lat="35.27107" lon="129.143253"/><trkpt lat="35.271396" lon="129.143444"/></trkseg>
<trkseg><trkpt lat="35.237828" lon="129.13118"/><trkpt lat="35.238011" lon="129.131343"/><trkpt lat="35.238044" lon="129.131367"/><trkpt lat="35.238077" lon="129.131379"/><trkpt lat="35.238111" lon="129.13137"/><trkpt lat="35.238146" lon="129.13135"/><trkpt lat="35.238358" lon="129.131205"/><trkpt lat="35.238841" lon="129.130878"/><trkpt lat="35.238886" lon="129.130843"/><trkpt lat="35.238917" lon="129.130813"/><trkpt lat="35.239026" lon="129.130693"/><trkpt lat="35.239086" lon="129.130629"/><trkpt lat="35.239119" lon="129.130602"/><trkpt lat="35.239153" lon="129.130583"/><trkpt lat="35.239214" lon="129.130558"/><trkpt lat="35.239249" lon="129.130539"/><trkpt lat="35.239285" lon="129.130504"/><trkpt lat="35.239316" lon="129.130465"/><trkpt lat="35.239336" lon="129.130438"/></trkseg>
<trkseg><trkpt lat="35.237716" lon="129.130003"/><trkpt lat="35.237835" lon="129.129422"/><trkpt lat="35.237878" lon="129.129384"/><trkpt lat="35.237913" lon="129.129362"/><trkpt lat="35.237976" lon="129.129334"/><trkpt lat="35.238103" lon="129.129281"/><trkpt lat="35.23814" lon="129.129262"/><trkpt lat="35.238548" lon="129.128975"/><trkpt lat="35.238618" lon="129.128927"/><trkpt lat="35.238655" lon="129.128907"/><trkpt lat="35.238754" lon="129.12887"/><trkpt lat="35.238803" lon="129.128849"/><trkpt lat="35.238838" lon="129.128829"/><trkpt lat="35.23887" lon="129.128801"/><trkpt lat="35.238941" lon="129.12873"/><trkpt lat="35.238972" lon="129.128702"/><trkpt lat="35.239006" lon="129.128682"/><trkpt lat="35.239043" lon="129.128671"/><trkpt lat="35.239093" lon="129.128664"/><trkpt lat="35.239261" lon="129.128645"/></trkseg>
<trkseg><trkpt lat="35.238641" lon="129.127457"/><trkpt lat="35.238396" lon="129.127375"/><trkpt lat="35.238357" lon="129.127365"/><trkpt lat="35.238317" lon="129.127359"/><trkpt lat="35.238237" lon="129.127358"/><trkpt lat="35.238183" lon="129.127361"/><trkpt lat="35.238119" lon="129.127375"/><trkpt lat="35.238004" lon="129.127406"/><trkpt lat="35.237941" lon="129.127427"/><trkpt lat="35.237904" lon="129.127445"/><trkpt lat="35.237723" lon="129.127545"/><trkpt lat="35.23765" lon="129.127583"/><trkpt lat="35.237612" lon="129.127598"/><trkpt lat="35.237533" lon="129.127617"/><trkpt lat="35.237387" lon="129.127648"/><trkpt lat="35.237349" lon="129.12766"/><trkpt lat="35.237312" lon="129.127678"/><trkpt lat="35.237132" lon="129.127787"/><trkpt lat="35.236964" lon="129.12789"/><trkpt lat="35.236931" lon="129.127916"/><trkpt lat="35.236904" lon="129.127948"/><trkpt lat="35.236873" lon="129.127999"/><trkpt lat="35.236753" lon="129.12823"/><trkpt lat="35.236723" lon="129.128282"/><trkpt lat="35.236698" lon="129.128318"/><trkpt lat="35.236668" lon="129.128349"/><trkpt lat="35.236625" lon="129.128385"/><trkpt lat="35.235735" lon="129.12871"/></trkseg>
<trkseg><trkpt lat="35.262707" lon="129.123705"/><trkpt lat="35.262587" lon="129.124105"/><trkpt lat="35.262576" lon="129.124151"/><trkpt lat="35.26257" lon="129.124197"/><trkpt lat="35.262575" lon="129.124244"/><trkpt lat="35.262589" lon="129.124307"/><trkpt lat="35.262628" lon="129.124449"/><trkpt lat="35.262641" lon="129.124511"/><trkpt lat="35.262644" lon="129.124557"/><trkpt lat="35.262633" lon="129.1246"/><trkpt lat="35.262615" lon="129.124642"/><trkpt lat="35.262498" lon="129.124878"/><trkpt lat="35.262474" lon="129.124934"/><trkpt lat="35.262461" lon="129.124978"/><trkpt lat="35.262459" lon="129.125024"/><trkpt lat="35.262467" lon="129.125118"/><trkpt lat="35.262468" lon="129.125162"/><trkpt lat="35.26246" lon="129.125195"/><trkpt lat="35.262435" lon="129.125212"/><trkpt lat="35.262399" lon="129.125218"/><trkpt lat="35.262281" lon="129.125227"/><trkpt lat="35.262243" lon="129.125234"/><trkpt lat="35.262206" lon="129.12525"/><trkpt lat="35.26217" lon="129.125273"/><trkpt lat="35.26209" lon="129.125328"/><trkpt lat="35.26206" lon="129.12534"/><trkpt lat="35.262038" lon="129.125332"/><trkpt lat="35.262008" lon="129.125311"/><trkpt lat="35.261964" lon="129.125305"/><trkpt lat="35.261934" lon="129.125298"/><trkpt lat="35.261915" lon="129.125273"/><trkpt lat="35.261908" lon="129.125231"/><trkpt lat="35.261904" lon="129.125166"/><trkpt lat="35.261896" lon="129.124984"/><trkpt lat="35.261889" lon="129.124938"/><trkpt lat="35.261872" lon="129.124901"/><trkpt lat="35.261845" lon="129.124874"/><trkpt lat="35.26178" lon="129.124828"/><trkpt lat="35.26175" lon="129.124801"/><trkpt lat="35.261722" lon="129.124766"/><trkpt lat="35.261695" lon="129.124741"/><trkpt lat="35.26166" lon="129.124721"/><trkpt lat="35.261562" lon="129.124678"/><trkpt lat="35.261514" lon="129.124654"/><trkpt lat="35.26148" lon="129.124632"/><trkpt lat="35.261448" lon="129.124605"/><trkpt lat="35.261368" lon="129.124523"/><trkpt lat="35.26132" lon="129.124468"/><trkpt lat="35.261174" lon="129.12428"/><trkpt lat="35.261121" lon="129.124208"/><trkpt lat="35.261097" lon="129.12417"/><trkpt lat="35.261078" lon="129.124128"/><trkpt lat="35.261041" lon="129.124023"/><trkpt lat="35.260955" lon="129.123766"/><trkpt lat="35.260936" lon="129.123724"/><trkpt lat="35.260914" lon="129.123687"/><trkpt lat="35.260887" lon="129.123655"/><trkpt lat="35.260858" lon="129.123625"/><trkpt lat="35.260827" lon="129.123599"/><trkpt lat="35.260791" lon="129.123577"/><trkpt lat="35.26064" lon="129.123506"/><trkpt lat="35.260565" lon="129.123473"/><trkpt lat="35.260527" lon="129.123464"/><trkpt lat="35.26049" lon="129.123467"/><trkpt lat="35.260428" lon="129.123491"/><trkpt lat="35.26039" lon="129.123503"/><trkpt lat="35.260352" lon="129.123507"/><trkpt lat="35.260299" lon="129.1235"/><trkpt lat="35.260233" lon="129.123486"/><trkpt lat="35.260195" lon="129.123474"/><trkpt lat="35.260158" lon="129.123458"/><trkpt lat="35.260087" lon="129.123416"/><trkpt lat="35.259946" lon="129.123329"/><trkpt lat="35.25991" lon="129.123313"/><trkpt lat="35.259871" lon="129.123304"/><trkpt lat="35.25979" lon="129.123296"/><trkpt lat="35.259561" lon="129.123279"/><trkpt lat="35.259523" lon="129.12327"/><trkpt lat="35.259487" lon="129.123252"/><trkpt lat="35.259444" lon="129.123216"/><trkpt lat="35.25939" lon="129.123169"/><trkpt lat="35.259356" lon="129.123146"/><trkpt lat="35.25932" lon="129.123131"/><trkpt lat="35.25927" lon="129.123118"/><trkpt lat="35.259144" lon="129.12309"/><trkpt lat="35.259106" lon="129.123076"/><trkpt lat="35.258943" lon="129.123002"/><trkpt lat="35.258767" lon="129.122921"/><trkpt lat="35.258729" lon="129.122908"/><trkpt lat="35.258692" lon="129.122905"/><trkpt lat="35.258657" lon="129.12291"/><trkpt lat="35.258623" lon="129.122922"/><trkpt lat="35.258589" lon="129.122945"/><trkpt lat="35.258523" lon="129.123"/><trkpt lat="35.258491" lon="129.123022"/><trkpt lat="35.258457" lon="129.123029"/><trkpt lat="35.258421" lon="129.123018"/><trkpt lat="35.25836" lon="129.122987"/><trkpt lat="35.258322" lon="129.122972"/><trkpt lat="35.258283" lon="129.122965"/><trkpt lat="35.258203" lon="129.122964"/><trkpt lat="35.25815" lon="129.122968"/><trkpt lat="35.258113" lon="129.122977"/><trkpt lat="35.258082" lon="129.122999"/><trkpt lat="35.258057" lon="129.123034"/><trkpt lat="35.258034" lon="129.123073"/><trkpt lat="35.258016" lon="129.123116"/><trkpt lat="35.258005" lon="129.123161"/><trkpt lat="35.257993" lon="129.123221"/><trkpt lat="35.257977" lon="129.123258"/><trkpt lat="35.257949" lon="129.123283"/><trkpt lat="35.257913" lon="129.123298"/><trkpt lat="35.257875" lon="129.123306"/><trkpt lat="35.257836" lon="129.123305"/><trkpt lat="35.257797" lon="129.123296"/><trkpt lat="35.257602" lon="129.123238"/><trkpt lat="35.257382" lon="129.123172"/><trkpt lat="35.257331" lon="129.123153"/><trkpt lat="35.257297" lon="129.123134"/><trkpt lat="35.257244" lon="129.123102"/><trkpt lat="35.257208" lon="129.12309"/><trkpt lat="35.257131" lon="129.12308"/><trkpt lat="35.257093" lon="129.123072"/><trkpt lat="35.257054" lon="129.123059"/><trkpt lat="35.256992" lon="129.123032"/><trkpt lat="35.256956" lon="129.123012"/><trkpt lat="35.256924" lon="129.122986"/><trkpt lat="35.256879" lon="129.122931"/><trkpt lat="35.256849" lon="129.122901"/><trkpt lat="35.256816" lon="129.122875"/><trkpt lat="35.256685" lon="129.122794"/><trkpt lat="35.256639" lon="129.122763"/><trkpt lat="35.25661" lon="129.122735"/><trkpt lat="35.256592" lon="129.122699"/><trkpt lat="35.256578" lon="129.122641"/><trkpt lat="35.256566" lon="129.122599"/><trkpt lat="35.256544" lon="129.122568"/><trkpt lat="35.256513" lon="129.122544"/><trkpt lat="35.256446" lon="129.122502"/><trkpt lat="35.256416" lon="129.122477"/><trkpt lat="35.256389" lon="129.122443"/><trkpt lat="35.256366" lon="129.122404"/><trkpt lat="35.256346" lon="129.122364"/><trkpt lat="35.25633" lon="129.122321"/><trkpt lat="35.25632" lon="129.122276"/><trkpt lat="35.256313" lon="129.122214"/><trkpt lat="35.2563" lon="129.122074"/><trkpt lat="35.256292" lon="129.122028"/><trkpt lat="35.256278" lon="129.121986"/><trkpt lat="35.256258" lon="129.121946"/><trkpt lat="35.256221" lon="129.121882"/><trkpt lat="35.25619" lon="129.121845"/><trkpt lat="35.256156" lon="129.121825"/><trkpt lat="35.256131" lon="129.121829"/><trkpt lat="35.256128" lon="129.121831"/></trkseg>
<trkseg><trkpt lat="35.267652" lon="129.14472"/><trkpt lat="35.267668" lon="129.14473"/><trkpt lat="35.267702" lon="129.144761"/><trkpt lat="35.267735" lon="129.144806"/><trkpt lat="35.267769" lon="129.144878"/><trkpt lat="35.267832" lon="129.145021"/><trkpt lat="35.267854" lon="129.145061"/><trkpt lat="35.26788" lon="129.145095"/><trkpt lat="35.267921" lon="129.145136"/><trkpt lat="35.268083" lon="129.145278"/><trkpt lat="35.268113" lon="129.145308"/><trkpt lat="35.268138" lon="129.145343"/><trkpt lat="35.268153" lon="129.145383"/><trkpt lat="35.268175" lon="129.145472"/><trkpt lat="35.268188" lon="129.145515"/><trkpt lat="35.268209" lon="129.145562"/><trkpt lat="35.268219" lon="129.145603"/><trkpt lat="35.26822" lon="129.145648"/><trkpt lat="35.268214" lon="129.145758"/><trkpt lat="35.268206" lon="129.145852"/><trkpt lat="35.268199" lon="129.145897"/><trkpt lat="35.268183" lon="129.145948"/><trkpt lat="35.268174" lon="129.14599"/><trkpt lat="35.268171" lon="129.146037"/><trkpt lat="35.268177" lon="129.146382"/><trkpt lat="35.268177" lon="129.146496"/><trkpt lat="35.268174" lon="129.146545"/><trkpt lat="35.268159" lon="129.14664"/><trkpt lat="35.268125" lon="129.146829"/><trkpt lat="35.26812" lon="129.146876"/><trkpt lat="35.268121" lon="129.146921"/><trkpt lat="35.268129" lon="129.146978"/><trkpt lat="35.268129" lon="129.14702"/><trkpt lat="35.268118" lon="129.147062"/><trkpt lat="35.268097" lon="129.147133"/><trkpt lat="35.268093" lon="129.14718"/><trkpt lat="35.268093" lon="129.147261"/><trkpt lat="35.268102" lon="129.147522"/><trkpt lat="35.268106" lon="129.14757"/><trkpt lat="35.268115" lon="129.147617"/><trkpt lat="35.268135" lon="129.147695"/><trkpt lat="35.268157" lon="129.147773"/></trkseg>
<trkseg><trkpt lat="35.255979" lon="129.118044"/><trkpt lat="35.255807" lon="129.118225"/><trkpt lat="35.255779" lon="129.118259"/><trkpt lat="35.255756" lon="129.118297"/><trkpt lat="35.255736" lon="129.118338"/><trkpt lat="35.25572" lon="129.11838"/><trkpt lat="35.255709" lon="129.118421"/><trkpt lat="35.255711" lon="129.118458"/><trkpt lat="35.255728" lon="129.118492"/><trkpt lat="35.255764" lon="129.118548"/><trkpt lat="35.255782" lon="129.11859"/><trkpt lat="35.255798" lon="129.118634"/><trkpt lat="35.25585" lon="129.118799"/><trkpt lat="35.255879" lon="129.118888"/><trkpt lat="35.255898" lon="129.11893"/><trkpt lat="35.255928" lon="129.118981"/><trkpt lat="35.256" lon="129.119093"/><trkpt lat="35.256021" lon="129.119132"/><trkpt lat="35.256036" lon="129.119174"/><trkpt lat="35.256061" lon="129.119258"/><trkpt lat="35.256082" lon="129.119295"/><trkpt lat="35.256109" lon="129.119328"/><trkpt lat="35.25615" lon="129.119368"/><trkpt lat="35.256181" lon="129.119395"/><trkpt lat="35.256214" lon="129.119415"/><trkpt lat="35.256252" lon="129.119434"/><trkpt lat="35.256265" lon="129.119457"/><trkpt lat="35.256257" lon="129.119492"/><trkpt lat="35.25624" lon="129.119533"/><trkpt lat="35.256098" lon="129.119835"/><trkpt lat="35.256019" lon="129.120008"/><trkpt lat="35.256004" lon="129.120051"/><trkpt lat="35.255999" lon="129.120095"/><trkpt lat="35.256006" lon="129.12014"/><trkpt lat="35.256025" lon="129.120215"/><trkpt lat="35.256033" lon="129.120261"/><trkpt lat="35.256032" lon="129.120308"/><trkpt lat="35.256016" lon="129.120419"/><trkpt lat="35.256008" lon="129.120482"/><trkpt lat="35.256007" lon="129.120528"/><trkpt lat="35.256015" lon="129.120574"/><trkpt lat="35.256038" lon="129.120649"/><trkpt lat="35.256183" lon="129.121083"/><trkpt lat="35.256211" lon="129.121173"/><trkpt lat="35.256219" lon="129.121219"/><trkpt lat="35.256218" lon="129.121267"/><trkpt lat="35.256205" lon="129.121363"/><trkpt lat="35.256128" lon="129.121831"/></trkseg>
<trkseg><trkpt lat="35.239258" lon="129.130227"/><trkpt lat="35.23921" lon="129.129304"/><trkpt lat="35.23921" lon="129.129256"/><trkpt lat="35.239215" lon="129.129208"/><trkpt lat="35.239226" lon="129.129146"/><trkpt lat="35.239253" lon="129.129006"/><trkpt lat="35.239259" lon="129.128959"/><trkpt lat="35.239261" lon="129.128912"/><trkpt lat="35.239261" lon="129.128645"/></trkseg>
<trkseg><trkpt lat="35.239336" lon="129.130438"/><trkpt lat="35.239258" lon="129.130227"/></trkseg>
<trkseg><trkpt lat="35.239261" lon="129.128645"/><trkpt lat="35.23911" lon="129.128302"/><trkpt lat="35.239084" lon="129.128246"/><trkpt lat="35.239061" lon="129.128206"/><trkpt lat="35.239034" lon="129.12817"/><trkpt lat="35.238874" lon="129.127974"/><trkpt lat="35.238733" lon="129.127801"/><trkpt lat="35.238708" lon="129.127763"/><trkpt lat="35.238691" lon="129.127722"/><trkpt lat="35.23868" lon="129.127677"/><trkpt lat="35.238643" lon="129.127468"/><trkpt lat="35.238641" lon="129.127457"/></trkseg>
<trkseg><trkpt lat="35.243639" lon="129.13037"/><trkpt lat="35.243686" lon="129.13038"/><trkpt lat="35.243734" lon="129.130396"/><trkpt lat="35.243775" lon="129.130419"/><trkpt lat="35.243843" lon="129.130472"/><trkpt lat="35.24391" lon="129.130527"/><trkpt lat="35.243941" lon="129.130557"/><trkpt lat="35.243968" lon="129.130592"/><trkpt lat="35.244015" lon="129.130673"/><trkpt lat="35.24426" lon="129.131127"/><trkpt lat="35.244285" lon="129.131165"/><trkpt lat="35.244314" lon="129.131197"/><trkpt lat="35.244358" lon="129.131234"/><trkpt lat="35.244677" lon="129.131476"/><trkpt lat="35.244733" lon="129.131522"/><trkpt lat="35.244764" lon="129.131552"/><trkpt lat="35.244813" lon="129.131609"/><trkpt lat="35.245185" lon="129.132059"/><trkpt lat="35.245225" lon="129.132101"/><trkpt lat="35.245258" lon="129.132126"/><trkpt lat="35.245294" lon="129.132142"/><trkpt lat="35.245423" lon="129.132179"/><trkpt lat="35.245474" lon="129.132192"/><trkpt lat="35.245512" lon="129.132197"/><trkpt lat="35.245549" lon="129.132192"/><trkpt lat="35.245584" lon="129.132179"/><trkpt lat="35.245667" lon="129.132144"/><trkpt lat="35.245705" lon="129.132135"/><trkpt lat="35.245769" lon="129.132127"/><trkpt lat="35.245821" lon="129.132126"/><trkpt lat="35.245858" lon="129.132132"/><trkpt lat="35.245895" lon="129.132147"/><trkpt lat="35.245955" lon="129.132184"/><trkpt lat="35.246321" lon="129.132427"/><trkpt lat="35.246369" lon="129.132455"/><trkpt lat="35.246407" lon="129.132471"/><trkpt lat="35.246484" lon="129.132495"/><trkpt lat="35.246589" lon="129.132523"/><trkpt lat="35.246628" lon="129.132529"/><trkpt lat="35.246667" lon="129.132528"/><trkpt lat="35.246821" lon="129.132507"/><trkpt lat="35.246912" lon="129.132496"/><trkpt lat="35.24695" lon="129.132495"/><trkpt lat="35.246988" lon="129.132499"/><trkpt lat="35.247075" lon="129.132515"/><trkpt lat="35.247112" lon="129.132525"/><trkpt lat="35.247163" lon="129.132544"/><trkpt lat="35.247523" lon="129.132701"/><trkpt lat="35.247574" lon="129.13272"/><trkpt lat="35.247612" lon="129.132729"/><trkpt lat="35.247664" lon="129.132733"/><trkpt lat="35.247889" lon="129.13273"/><trkpt lat="35.247954" lon="129.132732"/><trkpt lat="35.247991" lon="129.13274"/><trkpt lat="35.248026" lon="129.132759"/><trkpt lat="35.248091" lon="129.13281"/><trkpt lat="35.24825" lon="129.132948"/><trkpt lat="35.248279" lon="129.132979"/><trkpt lat="35.248303" lon="129.133017"/><trkpt lat="35.248338" lon="129.133084"/><trkpt lat="35.248419" lon="129.13325"/><trkpt lat="35.248441" lon="129.133288"/><trkpt lat="35.248468" lon="129.133319"/><trkpt lat="35.2485" lon="129.133342"/><trkpt lat="35.248555" lon="129.133377"/><trkpt lat="35.248586" lon="129.133404"/><trkpt lat="35.248615" lon="129.133436"/><trkpt lat="35.248697" lon="129.133538"/><trkpt lat="35.24876" lon="129.13362"/><trkpt lat="35.248802" lon="129.133683"/><trkpt lat="35.249016" lon="129.13404"/></trkseg>
<trkseg><trkpt lat="35.240761" lon="129.128035"/><trkpt lat="35.240779" lon="129.128038"/><trkpt lat="35.240816" lon="129.128056"/><trkpt lat="35.240856" lon="129.128091"/><trkpt lat="35.240893" lon="129.128139"/><trkpt lat="35.240982" lon="129.128257"/><trkpt lat="35.241011" lon="129.128288"/><trkpt lat="35.241045" lon="129.128311"/><trkpt lat="35.241095" lon="129.128332"/><trkpt lat="35.241393" lon="129.128433"/><trkpt lat="35.241444" lon="129.128453"/><trkpt lat="35.24148" lon="129.128472"/><trkpt lat="35.241512" lon="129.128498"/><trkpt lat="35.241589" lon="129.128581"/><trkpt lat="35.241628" lon="129.128619"/><trkpt lat="35.24166" lon="129.128639"/><trkpt lat="35.241693" lon="129.128643"/><trkpt lat="35.24174" lon="129.128642"/><trkpt lat="35.241773" lon="129.128647"/><trkpt lat="35.241805" lon="129.128667"/><trkpt lat="35.241834" lon="129.128695"/><trkpt lat="35.241892" lon="129.128758"/><trkpt lat="35.241923" lon="129.128785"/><trkpt lat="35.241965" lon="129.128809"/><trkpt lat="35.241995" lon="129.12883"/><trkpt lat="35.242031" lon="129.128869"/><trkpt lat="35.242061" lon="129.12889"/><trkpt lat="35.242096" lon="129.128895"/><trkpt lat="35.242129" lon="129.128884"/><trkpt lat="35.242172" lon="129.128865"/><trkpt lat="35.242201" lon="129.128868"/><trkpt lat="35.242226" lon="129.128893"/><trkpt lat="35.242273" lon="129.128964"/><trkpt lat="35.242298" lon="129.129"/><trkpt lat="35.242328" lon="129.12903"/><trkpt lat="35.242394" lon="129.129084"/><trkpt lat="35.242421" lon="129.129115"/><trkpt lat="35.242438" lon="129.129156"/><trkpt lat="35.242448" lon="129.129202"/><trkpt lat="35.24249" lon="129.129443"/><trkpt lat="35.242503" lon="129.129507"/><trkpt lat="35.242516" lon="129.129552"/><trkpt lat="35.242535" lon="129.129593"/><trkpt lat="35.242558" lon="129.129631"/><trkpt lat="35.242591" lon="129.129679"/><trkpt lat="35.242618" lon="129.129711"/><trkpt lat="35.24265" lon="129.129736"/><trkpt lat="35.242706" lon="129.12977"/><trkpt lat="35.242736" lon="129.129798"/><trkpt lat="35.242771" lon="129.129844"/><trkpt lat="35.242857" lon="129.129962"/><trkpt lat="35.242885" lon="129.129994"/><trkpt lat="35.242917" lon="129.130019"/><trkpt lat="35.242966" lon="129.130046"/><trkpt lat="35.243191" lon="129.130154"/><trkpt lat="35.243639" lon="129.13037"/></trkseg>
<trkseg><trkpt lat="35.24073" lon="129.127897"/><trkpt lat="35.240761" lon="129.128035"/></trkseg>
<trkseg><trkpt lat="35.252518" lon="129.136871"/><trkpt lat="35.252801" lon="129.137227"/><trkpt lat="35.252831" lon="129.137258"/><trkpt lat="35.252897" lon="129.137314"/><trkpt lat="35.253008" lon="129.137403"/><trkpt lat="35.25304" lon="129.137432"/><trkpt lat="35.253066" lon="129.137466"/><trkpt lat="35.253085" lon="129.137504"/><trkpt lat="35.253123" lon="129.137601"/><trkpt lat="35.253148" lon="129.137655"/><trkpt lat="35.253171" lon="129.137692"/><trkpt lat="35.253207" lon="129.137738"/><trkpt lat="35.253353" lon="129.137901"/><trkpt lat="35.253381" lon="129.137935"/><trkpt lat="35.253403" lon="129.137971"/><trkpt lat="35.253415" lon="129.138013"/><trkpt lat="35.253417" lon="129.13806"/><trkpt lat="35.253418" lon="129.138141"/><trkpt lat="35.253424" lon="129.138189"/><trkpt lat="35.253437" lon="129.138235"/><trkpt lat="35.253507" lon="129.138431"/><trkpt lat="35.253536" lon="129.138505"/><trkpt lat="35.253557" lon="129.138546"/><trkpt lat="35.253605" lon="129.138625"/><trkpt lat="35.253815" lon="129.138962"/><trkpt lat="35.253836" lon="129.139003"/><trkpt lat="35.253852" lon="129.139045"/><trkpt lat="35.253877" lon="129.139117"/><trkpt lat="35.253896" lon="129.139155"/><trkpt lat="35.253923" lon="129.139186"/><trkpt lat="35.253955" lon="129.139213"/><trkpt lat="35.254283" lon="129.139455"/><trkpt lat="35.254351" lon="129.139503"/><trkpt lat="35.254424" lon="129.139542"/><trkpt lat="35.25462" lon="129.139639"/><trkpt lat="35.254657" lon="129.139654"/><trkpt lat="35.254735" lon="129.139675"/><trkpt lat="35.254892" lon="129.13971"/><trkpt lat="35.254931" lon="129.139715"/><trkpt lat="35.25497" lon="129.139712"/><trkpt lat="35.255022" lon="129.139701"/><trkpt lat="35.255191" lon="129.139654"/><trkpt lat="35.25523" lon="129.139646"/><trkpt lat="35.255268" lon="129.139646"/><trkpt lat="35.255307" lon="129.139654"/><trkpt lat="35.255371" lon="129.139675"/><trkpt lat="35.255589" lon="129.13975"/><trkpt lat="35.255627" lon="129.139758"/><trkpt lat="35.255666" lon="129.139757"/><trkpt lat="35.255705" lon="129.139748"/><trkpt lat="35.256186" lon="129.139597"/><trkpt lat="35.256524" lon="129.139492"/><trkpt lat="35.25665" lon="129.139513"/><trkpt lat="35.256718" lon="129.139555"/><trkpt lat="35.256743" lon="129.139584"/><trkpt lat="35.256774" lon="129.139609"/><trkpt lat="35.256861" lon="129.139675"/><trkpt lat="35.256892" lon="129.139704"/><trkpt lat="35.256941" lon="129.13976"/><trkpt lat="35.257263" lon="129.140155"/><trkpt lat="35.257311" lon="129.140211"/><trkpt lat="35.257342" lon="129.140239"/><trkpt lat="35.257377" lon="129.140255"/><trkpt lat="35.25744" lon="129.140267"/><trkpt lat="35.257476" lon="129.140279"/><trkpt lat="35.257529" lon="129.140311"/><trkpt lat="35.257562" lon="129.140327"/><trkpt lat="35.257599" lon="129.140332"/><trkpt lat="35.257664" lon="129.140328"/><trkpt lat="35.257704" lon="129.140327"/><trkpt lat="35.257742" lon="129.140334"/><trkpt lat="35.25778" lon="129.140347"/><trkpt lat="35.257904" lon="129.140399"/><trkpt lat="35.257953" lon="129.140423"/><trkpt lat="35.257987" lon="129.140445"/><trkpt lat="35.258017" lon="129.140474"/><trkpt lat="35.25808" lon="129.140554"/><trkpt lat="35.258109" lon="129.140586"/><trkpt lat="35.25814" lon="129.14061"/><trkpt lat="35.258177" lon="129.140626"/><trkpt lat="35.258395" lon="129.140684"/><trkpt lat="35.258523" lon="129.14072"/><trkpt lat="35.258561" lon="129.140735"/><trkpt lat="35.258621" lon="129.140768"/><trkpt lat="35.259147" lon="129.141078"/><trkpt lat="35.259183" lon="129.141096"/><trkpt lat="35.25922" lon="129.141108"/><trkpt lat="35.259293" lon="129.141116"/><trkpt lat="35.259329" lon="129.141122"/><trkpt lat="35.259367" lon="129.141136"/><trkpt lat="35.259454" lon="129.14118"/><trkpt lat="35.259505" lon="129.141203"/><trkpt lat="35.259543" lon="129.141215"/><trkpt lat="35.259596" lon="129.141223"/><trkpt lat="35.259636" lon="129.141226"/><trkpt lat="35.259675" lon="129.141223"/><trkpt lat="35.259713" lon="129.141214"/><trkpt lat="35.259812" lon="129.14118"/><trkpt lat="35.25986" lon="129.141161"/><trkpt lat="35.259895" lon="129.141141"/><trkpt lat="35.259928" lon="129.141115"/><trkpt lat="35.260118" lon="129.140936"/><trkpt lat="35.260161" lon="129.140899"/><trkpt lat="35.260193" lon="129.140881"/><trkpt lat="35.260226" lon="129.140882"/><trkpt lat="35.260259" lon="129.140898"/><trkpt lat="35.260326" lon="129.140943"/><trkpt lat="35.260371" lon="129.140971"/><trkpt lat="35.260407" lon="129.140986"/><trkpt lat="35.260459" lon="129.140994"/><trkpt lat="35.260525" lon="129.141"/><trkpt lat="35.260563" lon="129.141009"/><trkpt lat="35.260601" lon="129.141024"/><trkpt lat="35.26076" lon="129.141103"/><trkpt lat="35.260859" lon="129.141149"/><trkpt lat="35.260896" lon="129.141162"/><trkpt lat="35.260941" lon="129.141168"/><trkpt lat="35.260971" lon="129.141174"/><trkpt lat="35.261" lon="129.141194"/><trkpt lat="35.261036" lon="129.141231"/><trkpt lat="35.261068" lon="129.141257"/><trkpt lat="35.261114" lon="129.141285"/><trkpt lat="35.261269" lon="129.141368"/><trkpt lat="35.261317" lon="129.141392"/><trkpt lat="35.261354" lon="129.141405"/><trkpt lat="35.261393" lon="129.141412"/><trkpt lat="35.261473" lon="129.141416"/><trkpt lat="35.261712" lon="129.141421"/><trkpt lat="35.261751" lon="129.141426"/><trkpt lat="35.261787" lon="129.14144"/><trkpt lat="35.26182" lon="129.141464"/><trkpt lat="35.261923" lon="129.141564"/><trkpt lat="35.261986" lon="129.141622"/><trkpt lat="35.26202" lon="129.141647"/><trkpt lat="35.262056" lon="129.141668"/><trkpt lat="35.262093" lon="129.141682"/><trkpt lat="35.262134" lon="129.141685"/><trkpt lat="35.262166" lon="129.141692"/><trkpt lat="35.262204" lon="129.141719"/><trkpt lat="35.26224" lon="129.141753"/><trkpt lat="35.262262" lon="129.141776"/></trkseg>
<trkseg><trkpt lat="35.250884" lon="129.134381"/><trkpt lat="35.250914" lon="129.134444"/><trkpt lat="35.250942" lon="129.134488"/><trkpt lat="35.250971" lon="129.134513"/><trkpt lat="35.251012" lon="129.134528"/><trkpt lat="35.251031" lon="129.134549"/><trkpt lat="35.251039" lon="129.134615"/><trkpt lat="35.251047" lon="129.13466"/><trkpt lat="35.251066" lon="129.134721"/><trkpt lat="35.251207" lon="129.135096"/><trkpt lat="35.251297" lon="129.135336"/><trkpt lat="35.251322" lon="129.135393"/><trkpt lat="35.251346" lon="129.135429"/><trkpt lat="35.251375" lon="129.135456"/><trkpt lat="35.251407" lon="129.135481"/><trkpt lat="35.251463" lon="129.135517"/><trkpt lat="35.251499" lon="129.135534"/><trkpt lat="35.251538" lon="129.135546"/><trkpt lat="35.251658" lon="129.135573"/><trkpt lat="35.25171" lon="129.135586"/><trkpt lat="35.251751" lon="129.135605"/><trkpt lat="35.251793" lon="129.13564"/><trkpt lat="35.251829" lon="129.13568"/></trkseg>
<trkseg><trkpt lat="35.249016" lon="129.13404"/><trkpt lat="35.249253" lon="129.134195"/><trkpt lat="35.249287" lon="129.134221"/><trkpt lat="35.249318" lon="129.134252"/><trkpt lat="35.249364" lon="129.13431"/><trkpt lat="35.249507" lon="129.134503"/><trkpt lat="35.249536" lon="129.134535"/><trkpt lat="35.249566" lon="129.134558"/><trkpt lat="35.249602" lon="129.134564"/><trkpt lat="35.249652" lon="129.134559"/><trkpt lat="35.249874" lon="129.134521"/><trkpt lat="35.249925" lon="129.13451"/><trkpt lat="35.249963" lon="129.134498"/><trkpt lat="35.250023" lon="129.134473"/><trkpt lat="35.250083" lon="129.134445"/><trkpt lat="35.250117" lon="129.134425"/><trkpt lat="35.250158" lon="129.134391"/><trkpt lat="35.250188" lon="129.134369"/><trkpt lat="35.250225" lon="129.134359"/><trkpt lat="35.250264" lon="129.134358"/><trkpt lat="35.250884" lon="129.134381"/></trkseg>
<trkseg><trkpt lat="35.251829" lon="129.13568"/><trkpt lat="35.251892" lon="129.135749"/><trkpt lat="35.251931" lon="129.135784"/><trkpt lat="35.251967" lon="129.135806"/><trkpt lat="35.252041" lon="129.135844"/><trkpt lat="35.25219" lon="129.135918"/><trkpt lat="35.252226" lon="129.13594"/><trkpt lat="35.252256" lon="129.135969"/><trkpt lat="35.252284" lon="129.136005"/><trkpt lat="35.252352" lon="129.136105"/><trkpt lat="35.252375" lon="129.136144"/><trkpt lat="35.252393" lon="129.136187"/><trkpt lat="35.252405" lon="129.136233"/><trkpt lat="35.252453" lon="129.136504"/><trkpt lat="35.252518" lon="129.136871"/></trkseg>
</trk>
</gpx>
