<?xml version="1.0" encoding="UTF-8"?>
<gpx version="1.1" creator="letnaturechoose" xmlns="http://www.topografix.com/GPX/1/1">
<metadata><name>함지산 등산로</name></metadata>
<trk><name>함지산</name>
<trkseg><trkpt lat="35.899805" lon="128.55034"/><trkpt lat="35.900842" lon="128.551188"/><trkpt lat="35.902141" lon="128.550023"/><trkpt lat="35.903746" lon="128.549751"/><trkpt lat="35.905297" lon="128.549726"/><trkpt lat="35.906363" lon="128.550592"/><trkpt lat="35.907989" lon="128.551383"/><trkpt lat="35.908798" lon="128.552539"/><trkpt lat="35.909654" lon="128.55276"/><trkpt lat="35.910613" lon="128.552487"/><trkpt lat="35.911036" lon="128.55239"/><trkpt lat="35.911171" lon="128.552436"/></trkseg>
<trkseg><trkpt lat="35.932664" lon="128.568079"/><trkpt lat="35.933481" lon="128.569199"/><trkpt lat="35.933747" lon="128.569478"/><trkpt lat="35.933976" lon="128.570444"/><trkpt lat="35.934097" lon="128.57153"/><trkpt lat="35.934554" lon="128.572172"/><trkpt lat="35.936317" lon="128.573051"/><trkpt lat="35.937252" lon="128.574011"/><trkpt lat="35.93791" lon="128.574693"/><trkpt lat="35.937993" lon="128.574929"/><trkpt lat="35.938084" lon="128.575237"/><trkpt lat="35.938101" lon="128.575553"/><trkpt lat="35.938104" lon="128.575751"/><trkpt lat="35.937622" lon="128.576685"/><trkpt lat="35.937612" lon="128.57677"/></trkseg>
<trkseg><trkpt lat="35.937612" lon="128.57677"/><trkpt lat="35.938962" lon="128.577057"/><trkpt lat="35.940567" lon="128.577022"/><trkpt lat="35.941021" lon="128.576954"/><trkpt lat="35.941203" lon="128.577057"/><trkpt lat="35.941995" lon="128.576647"/><trkpt lat="35.942376" lon="128.576552"/></trkseg>
<trkseg><trkpt lat="35.937612" lon="128.57677"/><trkpt lat="35.934304" lon="128.576395"/><trkpt lat="35.933815" lon="128.576295"/><trkpt lat="35.933603" lon="128.576153"/><trkpt lat="35.933331" lon="128.576036"/><trkpt lat="35.933183" lon="128.575813"/><trkpt lat="35.933002" lon="128.575774"/></trkseg>
<trkseg><trkpt lat="35.933002" lon="128.575774"/><trkpt lat="35.933008" lon="128.576519"/><trkpt lat="35.933002" lon="128.57731"/><trkpt lat="35.932829" lon="128.577782"/><trkpt lat="35.932536" lon="128.578377"/><trkpt lat="35.93216" lon="128.578622"/><trkpt lat="35.931791" lon="128.578893"/><trkpt lat="35.931447" lon="128.579185"/><trkpt lat="35.930934" lon="128.579421"/><trkpt lat="35.930154" lon="128.579479"/><trkpt lat="35.929663" lon="128.57931"/></trkseg>
<trkseg><trkpt lat="35.929663" lon="128.57931"/><trkpt lat="35.929288" lon="128.579188"/><trkpt lat="35.929043" lon="128.579107"/><trkpt lat="35.928922" lon="128.578954"/><trkpt lat="35.928779" lon="128.579016"/><trkpt lat="35.928617" lon="128.578872"/><trkpt lat="35.928454" lon="128.5787"/><trkpt lat="35.92808" lon="128.578452"/><trkpt lat="35.927825" lon="128.578233"/><trkpt lat="35.927728" lon="128.578195"/><trkpt lat="35.927627" lon="128.578254"/><trkpt lat="35.927512" lon="128.578211"/><trkpt lat="35.927382" lon="128.578159"/><trkpt lat="35.927307" lon="128.578231"/><trkpt lat="35.927243" lon="128.578267"/><trkpt lat="35.927091" lon="128.578233"/><trkpt lat="35.926945" lon="128.578235"/><trkpt lat="35.926429" lon="128.578027"/><trkpt lat="35.926232" lon="128.577946"/><trkpt lat="35.92611" lon="128.577857"/><trkpt lat="35.925784" lon="128.57805"/><trkpt lat="35.925142" lon="128.578174"/><trkpt lat="35.924978" lon="128.578131"/><trkpt lat="35.924555" lon="128.578345"/><trkpt lat="35.923242" lon="128.578034"/><trkpt lat="35.921914" lon="128.577764"/><trkpt lat="35.921262" lon="128.577718"/><trkpt lat="35.920686" lon="128.577962"/><trkpt lat="35.920312" lon="128.578163"/><trkpt lat="35.920167" lon="128.578088"/><trkpt lat="35.920051" lon="128.578073"/><trkpt lat="35.919943" lon="128.578076"/><trkpt lat="35.919283" lon="128.578159"/><trkpt lat="35.918504" lon="128.578102"/><trkpt lat="35.917758" lon="128.578239"/><trkpt lat="35.916872" lon="128.578525"/><trkpt lat="35.916174" lon="128.578579"/><trkpt lat="35.914884" lon="128.578305"/><trkpt lat="35.914187" lon="128.57786"/></trkseg>
<trkseg><trkpt lat="35.92995" lon="128.581507"/><trkpt lat="35.929635" lon="128.581602"/><trkpt lat="35.929487" lon="128.581664"/><trkpt lat="35.929015" lon="128.581733"/><trkpt lat="35.928605" lon="128.581996"/><trkpt lat="35.928413" lon="128.582491"/><trkpt lat="35.927934" lon="128.582969"/><trkpt lat="35.927796" lon="128.583111"/><trkpt lat="35.927666" lon="128.583272"/><trkpt lat="35.927481" lon="128.58342"/><trkpt lat="35.927273" lon="128.583629"/><trkpt lat="35.927066" lon="128.583926"/><trkpt lat="35.926483" lon="128.584217"/><trkpt lat="35.926286" lon="128.584682"/><trkpt lat="35.926151" lon="128.585286"/></trkseg>
<trkseg><trkpt lat="35.926151" lon="128.585286"/><trkpt lat="35.926113" lon="128.58663"/><trkpt lat="35.926067" lon="128.586702"/></trkseg>
<trkseg><trkpt lat="35.926067" lon="128.586702"/><trkpt lat="35.92733" lon="128.587269"/><trkpt lat="35.927832" lon="128.588633"/><trkpt lat="35.928534" lon="128.58893"/><trkpt lat="35.929011" lon="128.5903"/><trkpt lat="35.929494" lon="128.591402"/><trkpt lat="35.929483" lon="128.591572"/><trkpt lat="35.929409" lon="128.591894"/><trkpt lat="35.92966" lon="128.592663"/><trkpt lat="35.929714" lon="128.593075"/><trkpt lat="35.929689" lon="128.593361"/><trkpt lat="35.929675" lon="128.593564"/><trkpt lat="35.929651" lon="128.593711"/><trkpt lat="35.929656" lon="128.593871"/><trkpt lat="35.929409" lon="128.594332"/><trkpt lat="35.929255" lon="128.594482"/><trkpt lat="35.929133" lon="128.594682"/><trkpt lat="35.928741" lon="128.59487"/><trkpt lat="35.928349" lon="128.595074"/><trkpt lat="35.928281" lon="128.595347"/><trkpt lat="35.928213" lon="128.595664"/></trkseg>
<trkseg><trkpt lat="35.933002" lon="128.575774"/><trkpt lat="35.932717" lon="128.575374"/><trkpt lat="35.93249" lon="128.57482"/><trkpt lat="35.932212" lon="128.574256"/><trkpt lat="35.931926" lon="128.573338"/><trkpt lat="35.931822" lon="128.57303"/><trkpt lat="35.931743" lon="128.572663"/><trkpt lat="35.931874" lon="128.572256"/><trkpt lat="35.931917" lon="128.572014"/><trkpt lat="35.931943" lon="128.571483"/><trkpt lat="35.931952" lon="128.571279"/><trkpt lat="35.931962" lon="128.571076"/><trkpt lat="35.932081" lon="128.570505"/><trkpt lat="35.932198" lon="128.570131"/><trkpt lat="35.932183" lon="128.569739"/><trkpt lat="35.932043" lon="128.569362"/><trkpt lat="35.931769" lon="128.568666"/><trkpt lat="35.931749" lon="128.568276"/></trkseg>
<trkseg><trkpt lat="35.925087" lon="128.571206"/><trkpt lat="35.924696" lon="128.57093"/><trkpt lat="35.923267" lon="128.569797"/><trkpt lat="35.922667" lon="128.569469"/><trkpt lat="35.922216" lon="128.569453"/><trkpt lat="35.921582" lon="128.569486"/><trkpt lat="35.921283" lon="128.569564"/><trkpt lat="35.920189" lon="128.569765"/><trkpt lat="35.919484" lon="128.569792"/><trkpt lat="35.918089" lon="128.569531"/><trkpt lat="35.915757" lon="128.56856"/><trkpt lat="35.91364" lon="128.568568"/><trkpt lat="35.910975" lon="128.566448"/><trkpt lat="35.90875" lon="128.565231"/><trkpt lat="35.907032" lon="128.56475"/><trkpt lat="35.905814" lon="128.564688"/></trkseg>
<trkseg><trkpt lat="35.925994" lon="128.567406"/><trkpt lat="35.926125" lon="128.566841"/><trkpt lat="35.926266" lon="128.566359"/><trkpt lat="35.926497" lon="128.565998"/><trkpt lat="35.926797" lon="128.565816"/><trkpt lat="35.927036" lon="128.565447"/><trkpt lat="35.927172" lon="128.565099"/><trkpt lat="35.927361" lon="128.564762"/><trkpt lat="35.927426" lon="128.564514"/><trkpt lat="35.927544" lon="128.564088"/><trkpt lat="35.927643" lon="128.56392"/><trkpt lat="35.927785" lon="128.563484"/><trkpt lat="35.928432" lon="128.562846"/><trkpt lat="35.928814" lon="128.563021"/><trkpt lat="35.928925" lon="128.563067"/><trkpt lat="35.928937" lon="128.562967"/><trkpt lat="35.929103" lon="128.562919"/><trkpt lat="35.929344" lon="128.562968"/><trkpt lat="35.929541" lon="128.563035"/><trkpt lat="35.929699" lon="128.563079"/><trkpt lat="35.929838" lon="128.563086"/><trkpt lat="35.929991" lon="128.563005"/><trkpt lat="35.930127" lon="128.563007"/><trkpt lat="35.930169" lon="128.562966"/></trkseg>
<trkseg><trkpt lat="35.917953" lon="128.557767"/><trkpt lat="35.918608" lon="128.556871"/><trkpt lat="35.91912" lon="128.555388"/><trkpt lat="35.919578" lon="128.553772"/><trkpt lat="35.919631" lon="128.553148"/><trkpt lat="35.920167" lon="128.552431"/><trkpt lat="35.920322" lon="128.551844"/><trkpt lat="35.920463" lon="128.551599"/><trkpt lat="35.920672" lon="128.551458"/></trkseg>
<trkseg><trkpt lat="35.912088" lon="128.553581"/><trkpt lat="35.911854" lon="128.553514"/><trkpt lat="35.911558" lon="128.553771"/><trkpt lat="35.911324" lon="128.554144"/><trkpt lat="35.911036" lon="128.554864"/><trkpt lat="35.910571" lon="128.555324"/><trkpt lat="35.910348" lon="128.556092"/><trkpt lat="35.910085" lon="128.556414"/><trkpt lat="35.909983" lon="128.556859"/><trkpt lat="35.909751" lon="128.557231"/><trkpt lat="35.909609" lon="128.557575"/><trkpt lat="35.909375" lon="128.558202"/><trkpt lat="35.909146" lon="128.55897"/><trkpt lat="35.908659" lon="128.559283"/><trkpt lat="35.908223" lon="128.559512"/><trkpt lat="35.907474" lon="128.560323"/><trkpt lat="35.906782" lon="128.560578"/><trkpt lat="35.905839" lon="128.560982"/><trkpt lat="35.905565" lon="128.560978"/></trkseg>
<trkseg><trkpt lat="35.911171" lon="128.552436"/><trkpt lat="35.911616" lon="128.552373"/><trkpt lat="35.911771" lon="128.552334"/><trkpt lat="35.911812" lon="128.552273"/><trkpt lat="35.912062" lon="128.552115"/><trkpt lat="35.912319" lon="128.551899"/><trkpt lat="35.913056" lon="128.551923"/><trkpt lat="35.913483" lon="128.551941"/><trkpt lat="35.913614" lon="128.551975"/><trkpt lat="35.913748" lon="128.551906"/><trkpt lat="35.91385" lon="128.551934"/><trkpt lat="35.914248" lon="128.551948"/><trkpt lat="35.915296" lon="128.551903"/><trkpt lat="35.915742" lon="128.551842"/><trkpt lat="35.915934" lon="128.55178"/><trkpt lat="35.915998" lon="128.551751"/></trkseg>
<trkseg><trkpt lat="35.911171" lon="128.552436"/><trkpt lat="35.911695" lon="128.55288"/><trkpt lat="35.912088" lon="128.553581"/></trkseg>
<trkseg><trkpt lat="35.917953" lon="128.557767"/><trkpt lat="35.918749" lon="128.558591"/><trkpt lat="35.919345" lon="128.559488"/><trkpt lat="35.919359" lon="128.56122"/><trkpt lat="35.92061" lon="128.562235"/><trkpt lat="35.921291" lon="128.563592"/><trkpt lat="35.921801" lon="128.564148"/><trkpt lat="35.922304" lon="128.564522"/><trkpt lat="35.922549" lon="128.565542"/><trkpt lat="35.923074" lon="128.56598"/><trkpt lat="35.924048" lon="128.566296"/><trkpt lat="35.924921" lon="128.566976"/><trkpt lat="35.925564" lon="128.567617"/><trkpt lat="35.925994" lon="128.567406"/></trkseg>
<trkseg><trkpt lat="35.925994" lon="128.567406"/><trkpt lat="35.926055" lon="128.567473"/><trkpt lat="35.92606" lon="128.567712"/><trkpt lat="35.92608" lon="128.567946"/><trkpt lat="35.926251" lon="128.568314"/><trkpt lat="35.926448" lon="128.568772"/><trkpt lat="35.926505" lon="128.568931"/><trkpt lat="35.926349" lon="128.569103"/><trkpt lat="35.926059" lon="128.569561"/><trkpt lat="35.925876" lon="128.570179"/><trkpt lat="35.925555" lon="128.570383"/><trkpt lat="35.925199" lon="128.570608"/><trkpt lat="35.92515" lon="128.57079"/><trkpt lat="35.925117" lon="128.571011"/><trkpt lat="35.925087" lon="128.571206"/></trkseg>
<trkseg><trkpt lat="35.925087" lon="128.571206"/><trkpt lat="35.925123" lon="128.571518"/><trkpt lat="35.925127" lon="128.572003"/><trkpt lat="35.925217" lon="128.572268"/><trkpt lat="35.925179" lon="128.572489"/><trkpt lat="35.925092" lon="128.572648"/><trkpt lat="35.924953" lon="128.57282"/><trkpt lat="35.925018" lon="128.573138"/><trkpt lat="35.925279" lon="128.573492"/><trkpt lat="35.925333" lon="128.573712"/><trkpt lat="35.925424" lon="128.574078"/><trkpt lat="35.925556" lon="128.57431"/><trkpt lat="35.926039" lon="128.574454"/><trkpt lat="35.926225" lon="128.574512"/><trkpt lat="35.926382" lon="128.574595"/><trkpt lat="35.926505" lon="128.574652"/><trkpt lat="35.926774" lon="128.574781"/><trkpt lat="35.927063" lon="128.575107"/><trkpt lat="35.927377" lon="128.575434"/><trkpt lat="35.927658" lon="128.575792"/><trkpt lat="35.927989" lon="128.576052"/><trkpt lat="35.928078" lon="128.576223"/><trkpt lat="35.928213" lon="128.57647"/><trkpt lat="35.928443" lon="128.576793"/><trkpt lat="35.92889" lon="128.576966"/><trkpt lat="35.929064" lon="128.576895"/><trkpt lat="35.929369" lon="128.577177"/><trkpt lat="35.929814" lon="128.577967"/><trkpt lat="35.929756" lon="128.578205"/><trkpt lat="35.929686" lon="128.57846"/><trkpt lat="35.929709" lon="128.578735"/><trkpt lat="35.929663" lon="128.57931"/></trkseg>
<trkseg><trkpt lat="35.929663" lon="128.57931"/><trkpt lat="35.929877" lon="128.580507"/><trkpt lat="35.92995" lon="128.581507"/></trkseg>
<trkseg><trkpt lat="35.92995" lon="128.581507"/><trkpt lat="35.930377" lon="128.581625"/><trkpt lat="35.930673" lon="128.581766"/><trkpt lat="35.930977" lon="128.581854"/><trkpt lat="35.931169" lon="128.582059"/><trkpt lat="35.931409" lon="128.582189"/><trkpt lat="35.931664" lon="128.582217"/><trkpt lat="35.93202" lon="128.582037"/><trkpt lat="35.932295" lon="128.582001"/><trkpt lat="35.93264" lon="128.581791"/><trkpt lat="35.932829" lon="128.581789"/><trkpt lat="35.933085" lon="128.581684"/><trkpt lat="35.933135" lon="128.581651"/></trkseg>
<trkseg><trkpt lat="35.933135" lon="128.581651"/><trkpt lat="35.933227" lon="128.581568"/><trkpt lat="35.933374" lon="128.58154"/><trkpt lat="35.933423" lon="128.581417"/><trkpt lat="35.933519" lon="128.581423"/><trkpt lat="35.93375" lon="128.581443"/><trkpt lat="35.933926" lon="128.581492"/><trkpt lat="35.93414" lon="128.581583"/><trkpt lat="35.934376" lon="128.581652"/><trkpt lat="35.934564" lon="128.581809"/><trkpt lat="35.934781" lon="128.581978"/><trkpt lat="35.935353" lon="128.582442"/><trkpt lat="35.935669" lon="128.58279"/><trkpt lat="35.935802" lon="128.583117"/><trkpt lat="35.936139" lon="128.58336"/><trkpt lat="35.936407" lon="128.583684"/><trkpt lat="35.936651" lon="128.58388"/><trkpt lat="35.936803" lon="128.584141"/><trkpt lat="35.936986" lon="128.584388"/><trkpt lat="35.937166" lon="128.584689"/><trkpt lat="35.937291" lon="128.584776"/><trkpt lat="35.937369" lon="128.58498"/><trkpt lat="35.937249" lon="128.585148"/><trkpt lat="35.937267" lon="128.585915"/><trkpt lat="35.9374" lon="128.586246"/><trkpt lat="35.937593" lon="128.586497"/><trkpt lat="35.937712" lon="128.586833"/><trkpt lat="35.938035" lon="128.587592"/><trkpt lat="35.938295" lon="128.588532"/><trkpt lat="35.938781" lon="128.589225"/><trkpt lat="35.939721" lon="128.58988"/><trkpt lat="35.939937" lon="128.590306"/><trkpt lat="35.939881" lon="128.591295"/><trkpt lat="35.939829" lon="128.591972"/><trkpt lat="35.940225" lon="128.593453"/><trkpt lat="35.941335" lon="128.593999"/><trkpt lat="35.942015" lon="128.594981"/><trkpt lat="35.9433" lon="128.596337"/><trkpt lat="35.943774" lon="128.59748"/><trkpt lat="35.94497" lon="128.598117"/><trkpt lat="35.945054" lon="128.598435"/><trkpt lat="35.945241" lon="128.599196"/><trkpt lat="35.945423" lon="128.599596"/><trkpt lat="35.945461" lon="128.599881"/><trkpt lat="35.945229" lon="128.600225"/><trkpt lat="35.945056" lon="128.600468"/><trkpt lat="35.945101" lon="128.601054"/><trkpt lat="35.945174" lon="128.601967"/><trkpt lat="35.945813" lon="128.603596"/><trkpt lat="35.945878" lon="128.603777"/><trkpt lat="35.946146" lon="128.603848"/><trkpt lat="35.946775" lon="128.604188"/><trkpt lat="35.947064" lon="128.604248"/><trkpt lat="35.947344" lon="128.604695"/><trkpt lat="35.948211" lon="128.605389"/><trkpt lat="35.949008" lon="128.606271"/><trkpt lat="35.950002" lon="128.606563"/><trkpt lat="35.950366" lon="128.606518"/><trkpt lat="35.9506" lon="128.606578"/><trkpt lat="35.951512" lon="128.607122"/><trkpt lat="35.952095" lon="128.606956"/><trkpt lat="35.952343" lon="128.606881"/><trkpt lat="35.952821" lon="128.606735"/><trkpt lat="35.953163" lon="128.606591"/><trkpt lat="35.953401" lon="128.606485"/><trkpt lat="35.953629" lon="128.606329"/><trkpt lat="35.953849" lon="128.605899"/><trkpt lat="35.953972" lon="128.605405"/><trkpt lat="35.953992" lon="128.605023"/><trkpt lat="35.954093" lon="128.604713"/><trkpt lat="35.954222" lon="128.604335"/><trkpt lat="35.95456" lon="128.60402"/><trkpt lat="35.954921" lon="128.603782"/><trkpt lat="35.955019" lon="128.603597"/><trkpt lat="35.955223" lon="128.603022"/><trkpt lat="35.955429" lon="128.602463"/><trkpt lat="35.95539" lon="128.602115"/><trkpt lat="35.95503" lon="128.60156"/><trkpt lat="35.954728" lon="128.601311"/><trkpt lat="35.954983" lon="128.600835"/><trkpt lat="35.955485" lon="128.600582"/><trkpt lat="35.95576" lon="128.600556"/><trkpt lat="35.956214" lon="128.600608"/><trkpt lat="35.956859" lon="128.600443"/><trkpt lat="35.957186" lon="128.600203"/><trkpt lat="35.95706" lon="128.598949"/><trkpt lat="35.956979" lon="128.597883"/><trkpt lat="35.956443" lon="128.597014"/><trkpt lat="35.955992" lon="128.596586"/><trkpt lat="35.955479" lon="128.595635"/><trkpt lat="35.955015" lon="128.595014"/><trkpt lat="35.954931" lon="128.594839"/><trkpt lat="35.954459" lon="128.594584"/><trkpt lat="35.953928" lon="128.593934"/><trkpt lat="35.953223" lon="128.593911"/><trkpt lat="35.953375" lon="128.593668"/><trkpt lat="35.95355" lon="128.593001"/><trkpt lat="35.953323" lon="128.592543"/><trkpt lat="35.952503" lon="128.591725"/><trkpt lat="35.951853" lon="128.591129"/><trkpt lat="35.951131" lon="128.590633"/><trkpt lat="35.949517" lon="128.59029"/><trkpt lat="35.949204" lon="128.590155"/><trkpt lat="35.949229" lon="128.589897"/><trkpt lat="35.949213" lon="128.588792"/><trkpt lat="35.948502" lon="128.588232"/><trkpt lat="35.948569" lon="128.587472"/><trkpt lat="35.948132" lon="128.586461"/><trkpt lat="35.948072" lon="128.585512"/><trkpt lat="35.947658" lon="128.585158"/></trkseg>
<trkseg><trkpt lat="35.937612" lon="128.57677"/><trkpt lat="35.93733" lon="128.578179"/><trkpt lat="35.935183" lon="128.578966"/><trkpt lat="35.934004" lon="128.579509"/><trkpt lat="35.933809" lon="128.580102"/><trkpt lat="35.933628" lon="128.580596"/><trkpt lat="35.933264" lon="128.581048"/><trkpt lat="35.933135" lon="128.581651"/></trkseg>
<trkseg><trkpt lat="35.926067" lon="128.586702"/><trkpt lat="35.925953" lon="128.587"/><trkpt lat="35.925763" lon="128.587372"/><trkpt lat="35.925571" lon="128.587681"/><trkpt lat="35.925482" lon="128.588216"/><trkpt lat="35.925201" lon="128.588607"/><trkpt lat="35.925108" lon="128.589011"/><trkpt lat="35.924878" lon="128.589294"/><trkpt lat="35.924545" lon="128.589618"/><trkpt lat="35.923748" lon="128.589842"/><trkpt lat="35.922832" lon="128.59169"/><trkpt lat="35.922647" lon="128.592002"/><trkpt lat="35.922551" lon="128.592112"/><trkpt lat="35.92247" lon="128.592382"/><trkpt lat="35.922435" lon="128.592505"/></trkseg>
<trkseg><trkpt lat="35.926151" lon="128.585286"/><trkpt lat="35.925472" lon="128.58506"/><trkpt lat="35.925246" lon="128.584887"/><trkpt lat="35.925072" lon="128.58478"/><trkpt lat="35.924692" lon="128.584869"/><trkpt lat="35.924431" lon="128.58482"/><trkpt lat="35.924149" lon="128.584909"/><trkpt lat="35.923835" lon="128.584987"/><trkpt lat="35.923387" lon="128.585299"/><trkpt lat="35.923344" lon="128.585805"/><trkpt lat="35.923311" lon="128.586161"/><trkpt lat="35.923167" lon="128.586604"/><trkpt lat="35.922646" lon="128.587389"/><trkpt lat="35.922514" lon="128.587682"/><trkpt lat="35.922366" lon="128.587964"/><trkpt lat="35.921971" lon="128.588436"/><trkpt lat="35.921596" lon="128.588651"/><trkpt lat="35.921435" lon="128.588867"/><trkpt lat="35.921226" lon="128.589121"/><trkpt lat="35.920848" lon="128.589509"/><trkpt lat="35.920595" lon="128.589649"/><trkpt lat="35.920186" lon="128.58964"/><trkpt lat="35.919738" lon="128.589661"/><trkpt lat="35.91946" lon="128.589964"/><trkpt lat="35.919357" lon="128.590174"/><trkpt lat="35.919293" lon="128.590516"/><trkpt lat="35.918955" lon="128.592278"/><trkpt lat="35.918399" lon="128.593657"/><trkpt lat="35.917054" lon="128.59464"/><trkpt lat="35.916713" lon="128.596262"/><trkpt lat="35.916115" lon="128.597034"/><trkpt lat="35.915986" lon="128.597277"/><trkpt lat="35.915912" lon="128.597403"/></trkseg>
<trkseg><trkpt lat="35.912088" lon="128.553581"/><trkpt lat="35.912847" lon="128.554196"/><trkpt lat="35.91353" lon="128.555323"/><trkpt lat="35.913854" lon="128.555749"/><trkpt lat="35.914238" lon="128.556121"/><trkpt lat="35.914811" lon="128.556333"/><trkpt lat="35.914941" lon="128.556554"/><trkpt lat="35.915258" lon="128.557188"/><trkpt lat="35.915607" lon="128.557481"/><trkpt lat="35.91594" lon="128.557536"/><trkpt lat="35.917862" lon="128.557699"/><trkpt lat="35.917953" lon="128.557767"/></trkseg>
</trk>
</gpx>
