<?xml version="1.0" encoding="UTF-8"?>
<gpx version="1.1" creator="letnaturechoose" xmlns="http://www.topografix.com/GPX/1/1">
<metadata><name>원적산 등산로</name></metadata>
<trk><name>원적산</name>
<trkseg><trkpt lat="37.505389" lon="126.687977"/><trkpt lat="37.505331" lon="126.687862"/><trkpt lat="37.505283" lon="126.687814"/></trkseg>
<trkseg><trkpt lat="37.506702" lon="126.685928"/><trkpt lat="37.506681" lon="126.686091"/><trkpt lat="37.506706" lon="126.686477"/><trkpt lat="37.506705" lon="126.686684"/><trkpt lat="37.506726" lon="126.686954"/><trkpt lat="37.506544" lon="126.6871"/><trkpt lat="37.506358" lon="126.687393"/><trkpt lat="37.506293" lon="126.687529"/><trkpt lat="37.506219" lon="126.687683"/><trkpt lat="37.50612" lon="126.687834"/><trkpt lat="37.506028" lon="126.687975"/><trkpt lat="37.505909" lon="126.688172"/><trkpt lat="37.505885" lon="126.688409"/><trkpt lat="37.50583" lon="126.688599"/><trkpt lat="37.505816" lon="126.688661"/></trkseg>
<trkseg><trkpt lat="37.506656" lon="126.683763"/><trkpt lat="37.506651" lon="126.683916"/><trkpt lat="37.506739" lon="126.684217"/><trkpt lat="37.506688" lon="126.684519"/><trkpt lat="37.506701" lon="126.684927"/><trkpt lat="37.506686" lon="126.685292"/><trkpt lat="37.506723" lon="126.685587"/><trkpt lat="37.506712" lon="126.685791"/><trkpt lat="37.506702" lon="126.685928"/></trkseg>
<trkseg><trkpt lat="37.507299" lon="126.683444"/><trkpt lat="37.506752" lon="126.683638"/><trkpt lat="37.506656" lon="126.683763"/></trkseg>
<trkseg><trkpt lat="37.506702" lon="126.685928"/><trkpt lat="37.506819" lon="126.685921"/><trkpt lat="37.506969" lon="126.685907"/><trkpt lat="37.507084" lon="126.685774"/></trkseg>
<trkseg><trkpt lat="37.505282" lon="126.687238"/><trkpt lat="37.505368" lon="126.687454"/><trkpt lat="37.505628" lon="126.68761"/><trkpt lat="37.50559" lon="126.687694"/><trkpt lat="37.505546" lon="126.687784"/><trkpt lat="37.505502" lon="126.68786"/><trkpt lat="37.505414" lon="126.687934"/><trkpt lat="37.505389" lon="126.687977"/></trkseg>
<trkseg><trkpt lat="37.505131" lon="126.691673"/><trkpt lat="37.505168" lon="126.691816"/><trkpt lat="37.505114" lon="126.692013"/><trkpt lat="37.505029" lon="126.692269"/></trkseg>
<trkseg><trkpt lat="37.515402" lon="126.682204"/><trkpt lat="37.515326" lon="126.682185"/><trkpt lat="37.515306" lon="126.68212"/><trkpt lat="37.51525" lon="126.682017"/><trkpt lat="37.515106" lon="126.681909"/><trkpt lat="37.515014" lon="126.681871"/></trkseg>
<trkseg><trkpt lat="37.515284" lon="126.681878"/><trkpt lat="37.515335" lon="126.682068"/><trkpt lat="37.515399" lon="126.682152"/><trkpt lat="37.515449" lon="126.682209"/></trkseg>
<trkseg><trkpt lat="37.516258" lon="126.680896"/><trkpt lat="37.516205" lon="126.680835"/><trkpt lat="37.516191" lon="126.680822"/><trkpt lat="37.516171" lon="126.680799"/><trkpt lat="37.51615" lon="126.680857"/><trkpt lat="37.516094" lon="126.680878"/><trkpt lat="37.515986" lon="126.680933"/><trkpt lat="37.515805" lon="126.680983"/><trkpt lat="37.515786" lon="126.68109"/><trkpt lat="37.51565" lon="126.681205"/><trkpt lat="37.515585" lon="126.681358"/><trkpt lat="37.515479" lon="126.681573"/><trkpt lat="37.515317" lon="126.681756"/><trkpt lat="37.515284" lon="126.681878"/></trkseg>
<trkseg><trkpt lat="37.515982" lon="126.681985"/><trkpt lat="37.516039" lon="126.682054"/><trkpt lat="37.516093" lon="126.682098"/><trkpt lat="37.516061" lon="126.682245"/><trkpt lat="37.51603" lon="126.682439"/><trkpt lat="37.516015" lon="126.68267"/><trkpt lat="37.516038" lon="126.682855"/><trkpt lat="37.516035" lon="126.683024"/><trkpt lat="37.516011" lon="126.683209"/><trkpt lat="37.516012" lon="126.683253"/></trkseg>
<trkseg><trkpt lat="37.515982" lon="126.681985"/><trkpt lat="37.516068" lon="126.681852"/></trkseg>
<trkseg><trkpt lat="37.515557" lon="126.682155"/><trkpt lat="37.515644" lon="126.682151"/><trkpt lat="37.515782" lon="126.682167"/><trkpt lat="37.515986" lon="126.682172"/><trkpt lat="37.515982" lon="126.681985"/></trkseg>
<trkseg><trkpt lat="37.515449" lon="126.682209"/><trkpt lat="37.515557" lon="126.682155"/></trkseg>
<trkseg><trkpt lat="37.516117" lon="126.681732"/><trkpt lat="37.516164" lon="126.68148"/><trkpt lat="37.516197" lon="126.681358"/><trkpt lat="37.516207" lon="126.681329"/></trkseg>
<trkseg><trkpt lat="37.516333" lon="126.68175"/><trkpt lat="37.516404" lon="126.681701"/><trkpt lat="37.516569" lon="126.681664"/><trkpt lat="37.516585" lon="126.681654"/></trkseg>
<trkseg><trkpt lat="37.516068" lon="126.681852"/><trkpt lat="37.516292" lon="126.681783"/><trkpt lat="37.516333" lon="126.68175"/></trkseg>
<trkseg><trkpt lat="37.516117" lon="126.681732"/><trkpt lat="37.516068" lon="126.681852"/></trkseg>
<trkseg><trkpt lat="37.516212" lon="126.68113"/><trkpt lat="37.516068" lon="126.681378"/><trkpt lat="37.516096" lon="126.681605"/><trkpt lat="37.516117" lon="126.681732"/></trkseg>
<trkseg><trkpt lat="37.51694" lon="126.681117"/><trkpt lat="37.516908" lon="126.681137"/><trkpt lat="37.516658" lon="126.681201"/><trkpt lat="37.516484" lon="126.681114"/><trkpt lat="37.516338" lon="126.681092"/><trkpt lat="37.516212" lon="126.68113"/></trkseg>
<trkseg><trkpt lat="37.51694" lon="126.681117"/><trkpt lat="37.517202" lon="126.680744"/><trkpt lat="37.51753" lon="126.680496"/><trkpt lat="37.517689" lon="126.680589"/></trkseg>
<trkseg><trkpt lat="37.516207" lon="126.681329"/><trkpt lat="37.516239" lon="126.68145"/><trkpt lat="37.516278" lon="126.681608"/><trkpt lat="37.516333" lon="126.68175"/></trkseg>
<trkseg><trkpt lat="37.515982" lon="126.681985"/><trkpt lat="37.515889" lon="126.682034"/><trkpt lat="37.515735" lon="126.682071"/><trkpt lat="37.515622" lon="126.682111"/><trkpt lat="37.515557" lon="126.682155"/></trkseg>
<trkseg><trkpt lat="37.515014" lon="126.681871"/><trkpt lat="37.515053" lon="126.681856"/><trkpt lat="37.515149" lon="126.681849"/><trkpt lat="37.515284" lon="126.681878"/></trkseg>
<trkseg><trkpt lat="37.504102" lon="126.685273"/><trkpt lat="37.5041" lon="126.685369"/></trkseg>
<trkseg><trkpt lat="37.503838" lon="126.684577"/><trkpt lat="37.50389" lon="126.684663"/><trkpt lat="37.504" lon="126.684838"/><trkpt lat="37.504124" lon="126.685069"/><trkpt lat="37.504102" lon="126.68523"/><trkpt lat="37.504102" lon="126.685273"/></trkseg>
<trkseg><trkpt lat="37.501172" lon="126.681868"/><trkpt lat="37.501351" lon="126.682271"/><trkpt lat="37.501424" lon="126.682446"/><trkpt lat="37.501504" lon="126.682624"/><trkpt lat="37.501708" lon="126.683101"/><trkpt lat="37.501953" lon="126.683427"/><trkpt lat="37.502236" lon="126.6837"/><trkpt lat="37.503134" lon="126.684205"/><trkpt lat="37.503384" lon="126.684225"/><trkpt lat="37.503683" lon="126.684497"/><trkpt lat="37.503838" lon="126.684577"/></trkseg>
<trkseg><trkpt lat="37.500626" lon="126.680428"/><trkpt lat="37.50083" lon="126.680862"/><trkpt lat="37.501093" lon="126.681395"/><trkpt lat="37.501154" lon="126.681607"/><trkpt lat="37.501167" lon="126.681795"/></trkseg>
<trkseg><trkpt lat="37.500365" lon="126.679776"/><trkpt lat="37.500479" lon="126.679968"/><trkpt lat="37.500587" lon="126.680351"/><trkpt lat="37.500626" lon="126.680428"/></trkseg>
<trkseg><trkpt lat="37.500273" lon="126.678216"/><trkpt lat="37.500243" lon="126.678431"/><trkpt lat="37.500265" lon="126.678686"/><trkpt lat="37.500302" lon="126.679141"/><trkpt lat="37.500297" lon="126.679339"/><trkpt lat="37.500365" lon="126.679776"/></trkseg>
<trkseg><trkpt lat="37.503779" lon="126.68596"/><trkpt lat="37.503834" lon="126.685788"/><trkpt lat="37.503823" lon="126.685677"/></trkseg>
<trkseg><trkpt lat="37.507439" lon="126.682056"/><trkpt lat="37.507433" lon="126.682237"/><trkpt lat="37.507358" lon="126.683086"/><trkpt lat="37.507299" lon="126.683444"/></trkseg>
<trkseg><trkpt lat="37.511921" lon="126.68867"/><trkpt lat="37.512066" lon="126.688766"/><trkpt lat="37.512138" lon="126.688619"/><trkpt lat="37.512066" lon="126.688507"/><trkpt lat="37.512134" lon="126.688359"/><trkpt lat="37.512315" lon="126.688361"/><trkpt lat="37.512524" lon="126.688414"/><trkpt lat="37.512592" lon="126.688198"/><trkpt lat="37.512626" lon="126.687992"/><trkpt lat="37.512654" lon="126.687675"/><trkpt lat="37.512633" lon="126.687445"/><trkpt lat="37.512608" lon="126.687321"/><trkpt lat="37.512621" lon="126.687149"/><trkpt lat="37.51248" lon="126.686802"/></trkseg>
<trkseg><trkpt lat="37.511024" lon="126.686719"/><trkpt lat="37.511185" lon="126.686713"/><trkpt lat="37.511326" lon="126.686738"/><trkpt lat="37.511502" lon="126.686681"/><trkpt lat="37.511811" lon="126.686587"/><trkpt lat="37.512031" lon="126.686594"/><trkpt lat="37.51206" lon="126.686595"/></trkseg>
<trkseg><trkpt lat="37.510286" lon="126.68657"/><trkpt lat="37.510489" lon="126.686719"/><trkpt lat="37.510673" lon="126.686714"/><trkpt lat="37.5108" lon="126.686716"/><trkpt lat="37.510937" lon="126.686722"/><trkpt lat="37.510989" lon="126.686722"/><trkpt lat="37.511024" lon="126.686719"/></trkseg>
<trkseg><trkpt lat="37.509919" lon="126.686628"/><trkpt lat="37.51019" lon="126.686601"/><trkpt lat="37.510253" lon="126.686591"/><trkpt lat="37.510286" lon="126.68657"/></trkseg>
<trkseg><trkpt lat="37.509929" lon="126.686226"/><trkpt lat="37.509927" lon="126.686396"/><trkpt lat="37.509913" lon="126.68656"/><trkpt lat="37.509919" lon="126.686628"/></trkseg>
<trkseg><trkpt lat="37.509799" lon="126.685872"/><trkpt lat="37.50986" lon="126.686034"/><trkpt lat="37.509897" lon="126.686163"/><trkpt lat="37.509929" lon="126.686226"/></trkseg>
<trkseg><trkpt lat="37.507299" lon="126.683444"/><trkpt lat="37.507269" lon="126.683604"/><trkpt lat="37.507228" lon="126.683867"/><trkpt lat="37.507182" lon="126.684337"/><trkpt lat="37.507158" lon="126.684606"/><trkpt lat="37.507276" lon="126.68476"/><trkpt lat="37.507436" lon="126.684636"/><trkpt lat="37.50765" lon="126.68469"/><trkpt lat="37.507806" lon="126.684857"/><trkpt lat="37.50781" lon="126.684859"/><trkpt lat="37.507839" lon="126.684878"/><trkpt lat="37.507931" lon="126.685012"/><trkpt lat="37.508126" lon="126.685116"/><trkpt lat="37.508319" lon="126.685233"/><trkpt lat="37.508499" lon="126.685286"/><trkpt lat="37.508597" lon="126.685371"/><trkpt lat="37.508713" lon="126.685437"/><trkpt lat="37.508791" lon="126.68549"/><trkpt lat="37.508989" lon="126.685531"/><trkpt lat="37.509116" lon="126.685583"/><trkpt lat="37.509145" lon="126.685591"/><trkpt lat="37.509269" lon="126.685673"/><trkpt lat="37.509445" lon="126.685721"/><trkpt lat="37.509617" lon="126.685704"/><trkpt lat="37.509716" lon="126.685779"/><trkpt lat="37.509799" lon="126.685872"/></trkseg>
<trkseg><trkpt lat="37.50774" lon="126.681883"/><trkpt lat="37.507847" lon="126.681977"/><trkpt lat="37.507873" lon="126.682047"/><trkpt lat="37.507901" lon="126.682252"/></trkseg>
<trkseg><trkpt lat="37.507396" lon="126.681647"/><trkpt lat="37.507432" lon="126.681989"/><trkpt lat="37.507439" lon="126.682056"/></trkseg>
<trkseg><trkpt lat="37.50751" lon="126.678832"/><trkpt lat="37.507451" lon="126.678971"/><trkpt lat="37.507426" lon="126.67904"/><trkpt lat="37.507412" lon="126.679084"/><trkpt lat="37.507371" lon="126.679137"/><trkpt lat="37.507366" lon="126.679159"/><trkpt lat="37.507344" lon="126.679305"/><trkpt lat="37.50734" lon="126.679486"/><trkpt lat="37.507379" lon="126.679888"/><trkpt lat="37.507327" lon="126.680161"/><trkpt lat="37.507358" lon="126.680517"/><trkpt lat="37.507385" lon="126.680834"/><trkpt lat="37.507395" lon="126.681101"/><trkpt lat="37.507366" lon="126.681344"/><trkpt lat="37.507395" lon="126.681596"/><trkpt lat="37.507396" lon="126.681647"/></trkseg>
<trkseg><trkpt lat="37.507901" lon="126.682252"/><trkpt lat="37.50785" lon="126.682339"/><trkpt lat="37.507685" lon="126.68285"/><trkpt lat="37.507536" lon="126.683066"/><trkpt lat="37.507412" lon="126.683237"/><trkpt lat="37.507299" lon="126.683444"/></trkseg>
<trkseg><trkpt lat="37.503133" lon="126.681848"/><trkpt lat="37.503232" lon="126.682038"/><trkpt lat="37.503282" lon="126.682522"/><trkpt lat="37.503403" lon="126.682777"/><trkpt lat="37.503583" lon="126.683027"/><trkpt lat="37.503724" lon="126.683373"/><trkpt lat="37.503843" lon="126.683644"/><trkpt lat="37.504023" lon="126.683956"/><trkpt lat="37.504144" lon="126.684054"/></trkseg>
<trkseg><trkpt lat="37.503019" lon="126.681088"/><trkpt lat="37.502998" lon="126.681536"/><trkpt lat="37.503133" lon="126.681848"/></trkseg>
<trkseg><trkpt lat="37.500626" lon="126.680428"/><trkpt lat="37.500992" lon="126.680305"/><trkpt lat="37.501066" lon="126.680387"/><trkpt lat="37.501185" lon="126.680479"/><trkpt lat="37.501374" lon="126.680535"/><trkpt lat="37.50158" lon="126.680772"/><trkpt lat="37.501764" lon="126.680805"/><trkpt lat="37.501977" lon="126.680735"/><trkpt lat="37.502135" lon="126.680802"/><trkpt lat="37.502304" lon="126.680914"/><trkpt lat="37.502502" lon="126.680903"/><trkpt lat="37.502586" lon="126.680959"/><trkpt lat="37.502706" lon="126.681033"/><trkpt lat="37.502883" lon="126.68103"/><trkpt lat="37.503019" lon="126.681088"/></trkseg>
<trkseg><trkpt lat="37.498811" lon="126.682755"/><trkpt lat="37.498721" lon="126.682809"/><trkpt lat="37.498484" lon="126.682861"/><trkpt lat="37.498292" lon="126.682855"/><trkpt lat="37.498102" lon="126.682906"/><trkpt lat="37.49788" lon="126.682778"/><trkpt lat="37.497569" lon="126.682673"/><trkpt lat="37.49742" lon="126.68279"/><trkpt lat="37.497529" lon="126.682631"/><trkpt lat="37.497759" lon="126.682401"/><trkpt lat="37.497855" lon="126.682274"/><trkpt lat="37.497999" lon="126.68222"/><trkpt lat="37.498121" lon="126.682098"/><trkpt lat="37.498214" lon="126.681935"/><trkpt lat="37.498352" lon="126.68197"/><trkpt lat="37.498544" lon="126.681984"/><trkpt lat="37.498647" lon="126.681998"/><trkpt lat="37.498898" lon="126.682058"/></trkseg>
<trkseg><trkpt lat="37.498811" lon="126.682755"/><trkpt lat="37.498899" lon="126.682483"/><trkpt lat="37.498899" lon="126.682271"/><trkpt lat="37.498903" lon="126.682098"/><trkpt lat="37.498898" lon="126.682058"/></trkseg>
<trkseg><trkpt lat="37.499344" lon="126.682978"/><trkpt lat="37.499263" lon="126.683001"/><trkpt lat="37.499111" lon="126.682939"/><trkpt lat="37.498853" lon="126.682781"/><trkpt lat="37.498811" lon="126.682755"/></trkseg>
<trkseg><trkpt lat="37.499686" lon="126.682964"/><trkpt lat="37.499639" lon="126.682977"/><trkpt lat="37.499445" lon="126.683015"/><trkpt lat="37.499361" lon="126.68298"/><trkpt lat="37.499344" lon="126.682978"/></trkseg>
<trkseg><trkpt lat="37.499761" lon="126.68187"/><trkpt lat="37.499801" lon="126.682064"/><trkpt lat="37.499821" lon="126.6822"/><trkpt lat="37.499766" lon="126.682417"/><trkpt lat="37.499677" lon="126.682666"/><trkpt lat="37.499691" lon="126.682775"/><trkpt lat="37.499686" lon="126.682964"/></trkseg>
<trkseg><trkpt lat="37.497765" lon="126.681007"/><trkpt lat="37.49787" lon="126.680862"/><trkpt lat="37.497969" lon="126.680762"/><trkpt lat="37.498089" lon="126.680655"/><trkpt lat="37.498227" lon="126.680651"/><trkpt lat="37.498467" lon="126.680781"/><trkpt lat="37.498621" lon="126.680762"/><trkpt lat="37.498764" lon="126.680736"/><trkpt lat="37.498868" lon="126.680764"/><trkpt lat="37.498962" lon="126.680852"/><trkpt lat="37.499207" lon="126.681007"/><trkpt lat="37.499332" lon="126.681151"/><trkpt lat="37.499413" lon="126.681326"/><trkpt lat="37.499518" lon="126.681516"/><trkpt lat="37.499661" lon="126.681706"/><trkpt lat="37.499761" lon="126.68187"/></trkseg>
<trkseg><trkpt lat="37.499078" lon="126.681887"/><trkpt lat="37.498984" lon="126.681646"/><trkpt lat="37.498901" lon="126.681445"/><trkpt lat="37.498785" lon="126.681343"/><trkpt lat="37.498622" lon="126.681266"/><trkpt lat="37.498445" lon="126.681212"/><trkpt lat="37.498316" lon="126.681179"/><trkpt lat="37.498258" lon="126.681187"/><trkpt lat="37.498107" lon="126.681045"/><trkpt lat="37.497991" lon="126.681015"/><trkpt lat="37.497796" lon="126.681058"/><trkpt lat="37.497765" lon="126.681007"/></trkseg>
<trkseg><trkpt lat="37.498898" lon="126.682058"/><trkpt lat="37.498969" lon="126.681886"/><trkpt lat="37.498995" lon="126.68187"/><trkpt lat="37.499078" lon="126.681887"/></trkseg>
<trkseg><trkpt lat="37.512023" lon="126.681337"/><trkpt lat="37.512104" lon="126.681519"/><trkpt lat="37.512306" lon="126.68154"/><trkpt lat="37.5124" lon="126.681641"/><trkpt lat="37.512555" lon="126.681805"/><trkpt lat="37.512708" lon="126.681882"/><trkpt lat="37.512886" lon="126.681959"/><trkpt lat="37.513088" lon="126.681973"/><trkpt lat="37.513238" lon="126.681969"/><trkpt lat="37.513459" lon="126.682056"/><trkpt lat="37.513697" lon="126.682074"/><trkpt lat="37.513827" lon="126.682122"/><trkpt lat="37.513849" lon="126.682079"/></trkseg>
<trkseg><trkpt lat="37.504144" lon="126.684054"/><trkpt lat="37.504149" lon="126.683879"/><trkpt lat="37.504174" lon="126.683742"/><trkpt lat="37.50418" lon="126.683724"/></trkseg>
<trkseg><trkpt lat="37.501219" lon="126.687781"/><trkpt lat="37.501235" lon="126.687718"/><trkpt lat="37.501253" lon="126.687633"/><trkpt lat="37.501395" lon="126.687406"/><trkpt lat="37.501573" lon="126.687155"/><trkpt lat="37.501746" lon="126.687011"/><trkpt lat="37.501924" lon="126.68702"/><trkpt lat="37.50209" lon="126.686936"/><trkpt lat="37.502266" lon="126.68673"/><trkpt lat="37.502463" lon="126.686715"/><trkpt lat="37.502619" lon="126.686797"/><trkpt lat="37.502742" lon="126.68677"/><trkpt lat="37.502818" lon="126.68666"/><trkpt lat="37.502965" lon="126.686611"/><trkpt lat="37.503044" lon="126.686507"/><trkpt lat="37.503143" lon="126.686399"/><trkpt lat="37.503266" lon="126.686354"/><trkpt lat="37.503332" lon="126.686293"/><trkpt lat="37.503451" lon="126.686189"/><trkpt lat="37.50354" lon="126.686161"/></trkseg>
<trkseg><trkpt lat="37.501172" lon="126.681868"/><trkpt lat="37.500775" lon="126.681656"/><trkpt lat="37.500535" lon="126.681284"/><trkpt lat="37.50043" lon="126.681036"/><trkpt lat="37.500248" lon="126.680653"/><trkpt lat="37.500341" lon="126.680216"/><trkpt lat="37.500336" lon="126.679911"/><trkpt lat="37.500365" lon="126.679776"/></trkseg>
<trkseg><trkpt lat="37.50354" lon="126.686161"/><trkpt lat="37.50368" lon="126.686057"/><trkpt lat="37.503756" lon="126.686032"/><trkpt lat="37.503779" lon="126.68596"/></trkseg>
<trkseg><trkpt lat="37.499078" lon="126.681887"/><trkpt lat="37.499254" lon="126.681944"/><trkpt lat="37.499408" lon="126.681978"/><trkpt lat="37.499451" lon="126.681892"/><trkpt lat="37.499549" lon="126.681816"/><trkpt lat="37.4996" lon="126.681854"/></trkseg>
<trkseg><trkpt lat="37.50774" lon="126.681883"/><trkpt lat="37.507856" lon="126.681735"/><trkpt lat="37.507879" lon="126.681623"/><trkpt lat="37.507926" lon="126.681438"/><trkpt lat="37.507953" lon="126.681185"/><trkpt lat="37.50792" lon="126.681048"/><trkpt lat="37.507831" lon="126.681017"/><trkpt lat="37.507867" lon="126.680891"/><trkpt lat="37.507904" lon="126.680704"/><trkpt lat="37.507956" lon="126.680529"/><trkpt lat="37.507907" lon="126.680291"/><trkpt lat="37.50792" lon="126.68026"/></trkseg>
<trkseg><trkpt lat="37.507463" lon="126.68148"/><trkpt lat="37.507405" lon="126.681637"/><trkpt lat="37.507396" lon="126.681647"/></trkseg>
<trkseg><trkpt lat="37.506896" lon="126.682802"/><trkpt lat="37.506938" lon="126.682861"/><trkpt lat="37.506912" lon="126.683024"/><trkpt lat="37.506905" lon="126.683199"/><trkpt lat="37.506822" lon="126.683211"/><trkpt lat="37.506637" lon="126.683299"/><trkpt lat="37.506496" lon="126.683394"/><trkpt lat="37.506349" lon="126.683353"/><trkpt lat="37.506247" lon="126.683235"/><trkpt lat="37.506191" lon="126.683129"/><trkpt lat="37.506295" lon="126.682872"/></trkseg>
<trkseg><trkpt lat="37.507396" lon="126.681647"/><trkpt lat="37.5073" lon="126.681696"/><trkpt lat="37.507166" lon="126.682009"/><trkpt lat="37.507204" lon="126.682212"/><trkpt lat="37.507175" lon="126.682418"/><trkpt lat="37.507011" lon="126.682588"/><trkpt lat="37.506896" lon="126.682802"/></trkseg>
<trkseg><trkpt lat="37.503936" lon="126.679133"/><trkpt lat="37.503911" lon="126.679371"/><trkpt lat="37.503852" lon="126.679394"/><trkpt lat="37.503702" lon="126.679339"/><trkpt lat="37.503637" lon="126.679356"/><trkpt lat="37.503648" lon="126.679614"/><trkpt lat="37.503646" lon="126.679705"/></trkseg>
<trkseg><trkpt lat="37.503809" lon="126.687078"/><trkpt lat="37.503738" lon="126.686862"/><trkpt lat="37.503722" lon="126.68677"/></trkseg>
<trkseg><trkpt lat="37.503149" lon="126.687477"/><trkpt lat="37.50323" lon="126.687549"/><trkpt lat="37.503392" lon="126.68732"/><trkpt lat="37.503592" lon="126.687188"/><trkpt lat="37.50371" lon="126.687183"/><trkpt lat="37.503778" lon="126.687134"/><trkpt lat="37.503809" lon="126.687078"/></trkseg>
<trkseg><trkpt lat="37.502714" lon="126.688001"/><trkpt lat="37.502817" lon="126.687743"/><trkpt lat="37.502938" lon="126.687622"/><trkpt lat="37.50315" lon="126.687482"/><trkpt lat="37.503149" lon="126.687477"/></trkseg>
<trkseg><trkpt lat="37.501948" lon="126.688331"/><trkpt lat="37.502253" lon="126.688354"/><trkpt lat="37.502394" lon="126.688284"/><trkpt lat="37.502599" lon="126.688214"/><trkpt lat="37.502696" lon="126.68805"/><trkpt lat="37.502714" lon="126.688001"/></trkseg>
<trkseg><trkpt lat="37.501219" lon="126.687781"/><trkpt lat="37.501307" lon="126.687828"/><trkpt lat="37.501414" lon="126.687899"/><trkpt lat="37.501605" lon="126.687949"/><trkpt lat="37.501691" lon="126.688005"/><trkpt lat="37.501822" lon="126.688147"/><trkpt lat="37.501862" lon="126.688204"/><trkpt lat="37.501902" lon="126.688298"/><trkpt lat="37.501948" lon="126.688331"/></trkseg>
<trkseg><trkpt lat="37.50049" lon="126.687881"/><trkpt lat="37.500563" lon="126.687805"/><trkpt lat="37.500765" lon="126.687796"/><trkpt lat="37.500978" lon="126.6878"/><trkpt lat="37.501219" lon="126.687781"/></trkseg>
<trkseg><trkpt lat="37.505887" lon="126.683288"/><trkpt lat="37.505901" lon="126.683326"/><trkpt lat="37.505822" lon="126.683633"/><trkpt lat="37.50596" lon="126.683775"/><trkpt lat="37.506107" lon="126.68385"/></trkseg>
<trkseg><trkpt lat="37.506107" lon="126.68385"/><trkpt lat="37.506088" lon="126.683652"/><trkpt lat="37.506047" lon="126.683415"/><trkpt lat="37.505977" lon="126.683345"/><trkpt lat="37.505898" lon="126.68327"/></trkseg>
<trkseg><trkpt lat="37.506501" lon="126.683926"/><trkpt lat="37.506378" lon="126.68393"/><trkpt lat="37.506147" lon="126.683895"/><trkpt lat="37.506107" lon="126.68385"/></trkseg>
<trkseg><trkpt lat="37.506656" lon="126.683763"/><trkpt lat="37.506501" lon="126.683926"/></trkseg>
<trkseg><trkpt lat="37.520152" lon="126.684361"/><trkpt lat="37.520103" lon="126.684506"/><trkpt lat="37.520048" lon="126.684672"/><trkpt lat="37.520052" lon="126.684877"/><trkpt lat="37.520073" lon="126.684976"/><trkpt lat="37.519993" lon="126.685067"/><trkpt lat="37.519903" lon="126.685154"/><trkpt lat="37.519856" lon="126.685218"/></trkseg>
<trkseg><trkpt lat="37.520356" lon="126.68422"/><trkpt lat="37.520183" lon="126.68427"/><trkpt lat="37.520152" lon="126.684361"/></trkseg>
<trkseg><trkpt lat="37.519494" lon="126.685886"/><trkpt lat="37.519688" lon="126.685872"/><trkpt lat="37.51995" lon="126.685863"/><trkpt lat="37.520125" lon="126.685922"/></trkseg>
<trkseg><trkpt lat="37.503722" lon="126.68677"/><trkpt lat="37.503833" lon="126.686615"/><trkpt lat="37.503854" lon="126.686446"/><trkpt lat="37.503927" lon="126.686303"/><trkpt lat="37.503984" lon="126.686176"/></trkseg>
<trkseg><trkpt lat="37.503646" lon="126.679705"/><trkpt lat="37.503667" lon="126.679803"/><trkpt lat="37.503694" lon="126.679929"/><trkpt lat="37.503727" lon="126.680069"/><trkpt lat="37.503735" lon="126.680385"/><trkpt lat="37.503739" lon="126.68063"/><trkpt lat="37.503699" lon="126.680859"/><trkpt lat="37.503717" lon="126.68111"/><trkpt lat="37.503743" lon="126.681402"/><trkpt lat="37.503789" lon="126.681888"/><trkpt lat="37.503896" lon="126.682317"/><trkpt lat="37.503967" lon="126.682783"/><trkpt lat="37.504011" lon="126.683172"/><trkpt lat="37.504116" lon="126.683555"/><trkpt lat="37.50418" lon="126.683724"/></trkseg>
<trkseg><trkpt lat="37.518697" lon="126.683011"/><trkpt lat="37.5188" lon="126.68311"/></trkseg>
<trkseg><trkpt lat="37.516751" lon="126.681607"/><trkpt lat="37.516915" lon="126.681675"/><trkpt lat="37.517164" lon="126.681786"/><trkpt lat="37.517299" lon="126.681811"/><trkpt lat="37.517398" lon="126.681829"/><trkpt lat="37.517667" lon="126.681869"/><trkpt lat="37.517903" lon="126.68193"/><trkpt lat="37.518123" lon="126.682115"/><trkpt lat="37.518344" lon="126.682303"/><trkpt lat="37.518504" lon="126.682688"/><trkpt lat="37.518603" lon="126.682918"/><trkpt lat="37.518697" lon="126.683011"/></trkseg>
<trkseg><trkpt lat="37.5188" lon="126.68311"/><trkpt lat="37.518785" lon="126.683214"/><trkpt lat="37.518793" lon="126.683429"/><trkpt lat="37.518914" lon="126.683639"/><trkpt lat="37.51897" lon="126.683832"/><trkpt lat="37.518945" lon="126.684209"/><trkpt lat="37.518842" lon="126.684401"/></trkseg>
<trkseg><trkpt lat="37.511791" lon="126.690568"/><trkpt lat="37.511951" lon="126.690576"/><trkpt lat="37.512176" lon="126.690817"/><trkpt lat="37.512451" lon="126.690993"/><trkpt lat="37.512568" lon="126.691024"/><trkpt lat="37.512683" lon="126.691224"/><trkpt lat="37.51302" lon="126.691302"/><trkpt lat="37.51314" lon="126.691312"/><trkpt lat="37.513352" lon="126.691398"/><trkpt lat="37.513369" lon="126.69222"/><trkpt lat="37.513373" lon="126.692555"/></trkseg>
<trkseg><trkpt lat="37.516246" lon="126.680458"/><trkpt lat="37.516261" lon="126.680562"/><trkpt lat="37.516209" lon="126.680635"/><trkpt lat="37.516201" lon="126.680754"/><trkpt lat="37.516303" lon="126.680737"/><trkpt lat="37.516278" lon="126.68084"/><trkpt lat="37.516258" lon="126.680896"/></trkseg>
<trkseg><trkpt lat="37.516258" lon="126.680896"/><trkpt lat="37.516242" lon="126.681058"/><trkpt lat="37.516212" lon="126.68113"/></trkseg>
<trkseg><trkpt lat="37.516212" lon="126.68113"/><trkpt lat="37.51623" lon="126.681271"/><trkpt lat="37.516207" lon="126.681329"/></trkseg>
<trkseg><trkpt lat="37.499078" lon="126.681887"/><trkpt lat="37.498932" lon="126.682048"/><trkpt lat="37.498898" lon="126.682058"/></trkseg>
<trkseg><trkpt lat="37.519383" lon="126.687056"/><trkpt lat="37.519749" lon="126.686823"/><trkpt lat="37.520037" lon="126.68671"/><trkpt lat="37.520345" lon="126.686518"/><trkpt lat="37.520514" lon="126.686572"/><trkpt lat="37.520638" lon="126.686482"/></trkseg>
<trkseg><trkpt lat="37.506365" lon="126.69086"/><trkpt lat="37.506374" lon="126.69099"/><trkpt lat="37.506561" lon="126.691057"/><trkpt lat="37.506897" lon="126.691016"/><trkpt lat="37.506977" lon="126.690929"/><trkpt lat="37.507232" lon="126.69071"/><trkpt lat="37.507377" lon="126.690709"/></trkseg>
<trkseg><trkpt lat="37.502714" lon="126.688001"/><trkpt lat="37.502642" lon="126.688287"/><trkpt lat="37.502558" lon="126.688352"/><trkpt lat="37.502541" lon="126.688476"/><trkpt lat="37.502517" lon="126.688677"/><trkpt lat="37.502422" lon="126.68896"/><trkpt lat="37.502407" lon="126.689065"/></trkseg>
<trkseg><trkpt lat="37.502407" lon="126.689065"/><trkpt lat="37.502289" lon="126.689044"/><trkpt lat="37.502081" lon="126.68877"/><trkpt lat="37.501993" lon="126.688413"/><trkpt lat="37.501948" lon="126.688331"/></trkseg>
<trkseg><trkpt lat="37.506501" lon="126.683926"/><trkpt lat="37.506433" lon="126.684068"/><trkpt lat="37.506352" lon="126.68425"/><trkpt lat="37.506331" lon="126.684331"/><trkpt lat="37.50629" lon="126.684471"/><trkpt lat="37.506198" lon="126.684508"/><trkpt lat="37.506093" lon="126.68456"/><trkpt lat="37.506038" lon="126.684657"/><trkpt lat="37.506045" lon="126.684754"/><trkpt lat="37.506015" lon="126.684922"/><trkpt lat="37.505909" lon="126.685112"/><trkpt lat="37.505775" lon="126.685191"/><trkpt lat="37.505645" lon="126.685202"/><trkpt lat="37.505553" lon="126.685294"/><trkpt lat="37.505445" lon="126.685439"/></trkseg>
<trkseg><trkpt lat="37.503646" lon="126.679705"/><trkpt lat="37.503609" lon="126.679846"/><trkpt lat="37.503537" lon="126.68002"/><trkpt lat="37.503463" lon="126.680219"/><trkpt lat="37.503369" lon="126.680398"/><trkpt lat="37.503254" lon="126.680511"/><trkpt lat="37.503163" lon="126.680687"/><trkpt lat="37.503019" lon="126.681088"/></trkseg>
<trkseg><trkpt lat="37.505257" lon="126.684831"/><trkpt lat="37.505182" lon="126.684841"/><trkpt lat="37.505042" lon="126.684685"/><trkpt lat="37.504816" lon="126.68447"/><trkpt lat="37.504695" lon="126.684474"/><trkpt lat="37.504558" lon="126.68436"/><trkpt lat="37.504476" lon="126.684322"/><trkpt lat="37.504387" lon="126.684271"/><trkpt lat="37.504283" lon="126.684139"/><trkpt lat="37.504155" lon="126.684073"/><trkpt lat="37.504144" lon="126.684054"/></trkseg>
<trkseg><trkpt lat="37.499344" lon="126.682978"/><trkpt lat="37.499361" lon="126.682835"/><trkpt lat="37.499457" lon="126.682532"/><trkpt lat="37.49954" lon="126.681976"/><trkpt lat="37.4996" lon="126.681854"/></trkseg>
<trkseg><trkpt lat="37.504144" lon="126.684054"/><trkpt lat="37.504083" lon="126.684264"/><trkpt lat="37.504023" lon="126.68437"/><trkpt lat="37.503951" lon="126.684457"/><trkpt lat="37.503838" lon="126.684577"/></trkseg>
<trkseg><trkpt lat="37.503149" lon="126.687477"/><trkpt lat="37.502978" lon="126.687355"/><trkpt lat="37.503041" lon="126.687233"/><trkpt lat="37.503217" lon="126.687108"/><trkpt lat="37.503463" lon="126.686984"/><trkpt lat="37.503605" lon="126.686929"/><trkpt lat="37.503809" lon="126.687078"/></trkseg>
<trkseg><trkpt lat="37.512468" lon="126.681962"/><trkpt lat="37.512432" lon="126.682545"/><trkpt lat="37.512623" lon="126.682582"/><trkpt lat="37.512915" lon="126.682644"/><trkpt lat="37.51302" lon="126.682731"/><trkpt lat="37.513267" lon="126.682772"/><trkpt lat="37.513365" lon="126.682712"/><trkpt lat="37.513408" lon="126.682687"/></trkseg>
<trkseg><trkpt lat="37.520152" lon="126.684361"/><trkpt lat="37.520057" lon="126.684326"/><trkpt lat="37.51998" lon="126.684285"/><trkpt lat="37.519776" lon="126.684192"/><trkpt lat="37.519631" lon="126.684394"/><trkpt lat="37.519636" lon="126.684639"/><trkpt lat="37.5197" lon="126.684855"/><trkpt lat="37.519595" lon="126.685006"/></trkseg>
<trkseg><trkpt lat="37.5041" lon="126.685369"/><trkpt lat="37.504024" lon="126.685501"/><trkpt lat="37.503917" lon="126.685579"/><trkpt lat="37.503823" lon="126.685677"/></trkseg>
<trkseg><trkpt lat="37.503984" lon="126.686176"/><trkpt lat="37.504091" lon="126.685987"/><trkpt lat="37.50412" lon="126.685844"/><trkpt lat="37.504109" lon="126.685657"/><trkpt lat="37.504099" lon="126.685381"/><trkpt lat="37.5041" lon="126.685369"/></trkseg>
<trkseg><trkpt lat="37.504102" lon="126.685273"/><trkpt lat="37.504202" lon="126.685221"/><trkpt lat="37.50426" lon="126.685329"/><trkpt lat="37.504422" lon="126.68531"/><trkpt lat="37.504599" lon="126.685366"/><trkpt lat="37.504727" lon="126.685425"/></trkseg>
<trkseg><trkpt lat="37.519595" lon="126.685006"/><trkpt lat="37.519756" lon="126.685123"/><trkpt lat="37.519856" lon="126.685218"/></trkseg>
<trkseg><trkpt lat="37.510666" lon="126.689172"/><trkpt lat="37.510761" lon="126.68907"/><trkpt lat="37.510748" lon="126.688783"/><trkpt lat="37.510646" lon="126.688644"/><trkpt lat="37.510637" lon="126.68861"/><trkpt lat="37.510574" lon="126.688492"/><trkpt lat="37.510524" lon="126.688407"/></trkseg>
<trkseg><trkpt lat="37.510524" lon="126.688407"/><trkpt lat="37.51038" lon="126.688409"/><trkpt lat="37.51026" lon="126.688466"/><trkpt lat="37.510396" lon="126.688677"/><trkpt lat="37.510465" lon="126.688808"/><trkpt lat="37.51055" lon="126.689026"/><trkpt lat="37.510643" lon="126.689179"/><trkpt lat="37.510666" lon="126.689172"/></trkseg>
<trkseg><trkpt lat="37.505131" lon="126.691673"/><trkpt lat="37.505174" lon="126.691576"/><trkpt lat="37.505207" lon="126.691399"/><trkpt lat="37.505162" lon="126.691163"/><trkpt lat="37.50509" lon="126.691014"/><trkpt lat="37.504919" lon="126.690807"/><trkpt lat="37.504843" lon="126.690725"/><trkpt lat="37.50473" lon="126.690537"/><trkpt lat="37.504579" lon="126.69034"/><trkpt lat="37.50456" lon="126.690165"/><trkpt lat="37.504491" lon="126.689989"/><trkpt lat="37.50451" lon="126.689419"/><trkpt lat="37.504683" lon="126.689247"/><trkpt lat="37.504784" lon="126.689079"/><trkpt lat="37.504891" lon="126.688908"/><trkpt lat="37.505026" lon="126.688723"/><trkpt lat="37.505131" lon="126.688599"/><trkpt lat="37.50523" lon="126.688459"/></trkseg>
<trkseg><trkpt lat="37.511357" lon="126.687973"/><trkpt lat="37.51135" lon="126.688293"/><trkpt lat="37.511474" lon="126.688444"/><trkpt lat="37.511548" lon="126.688508"/><trkpt lat="37.511625" lon="126.688589"/><trkpt lat="37.511741" lon="126.688537"/><trkpt lat="37.511895" lon="126.688557"/><trkpt lat="37.511921" lon="126.68867"/></trkseg>
<trkseg><trkpt lat="37.507265" lon="126.690529"/><trkpt lat="37.507148" lon="126.690453"/><trkpt lat="37.506989" lon="126.690285"/><trkpt lat="37.50698" lon="126.690153"/><trkpt lat="37.506925" lon="126.690015"/><trkpt lat="37.506875" lon="126.689892"/><trkpt lat="37.50687" lon="126.689821"/><trkpt lat="37.506873" lon="126.689648"/><trkpt lat="37.506844" lon="126.68954"/><trkpt lat="37.506817" lon="126.689418"/><trkpt lat="37.506794" lon="126.689258"/><trkpt lat="37.506786" lon="126.689089"/><trkpt lat="37.506798" lon="126.689002"/><trkpt lat="37.506809" lon="126.688828"/><trkpt lat="37.506817" lon="126.688699"/></trkseg>
<trkseg><trkpt lat="37.518842" lon="126.684401"/><trkpt lat="37.518644" lon="126.684273"/></trkseg>
<trkseg><trkpt lat="37.519595" lon="126.685006"/><trkpt lat="37.519464" lon="126.685166"/><trkpt lat="37.519267" lon="126.68505"/><trkpt lat="37.519204" lon="126.684933"/><trkpt lat="37.519106" lon="126.684737"/><trkpt lat="37.518949" lon="126.684507"/><trkpt lat="37.518842" lon="126.684401"/></trkseg>
<trkseg><trkpt lat="37.510524" lon="126.688407"/><trkpt lat="37.510591" lon="126.688057"/><trkpt lat="37.510777" lon="126.687878"/><trkpt lat="37.51093" lon="126.68795"/><trkpt lat="37.511089" lon="126.687959"/><trkpt lat="37.511249" lon="126.68794"/><trkpt lat="37.511357" lon="126.687973"/></trkseg>
<trkseg><trkpt lat="37.518644" lon="126.684273"/><trkpt lat="37.518648" lon="126.684085"/><trkpt lat="37.518682" lon="126.683973"/><trkpt lat="37.518647" lon="126.683764"/><trkpt lat="37.518623" lon="126.683548"/><trkpt lat="37.518627" lon="126.683365"/><trkpt lat="37.51867" lon="126.683279"/><trkpt lat="37.518694" lon="126.683036"/><trkpt lat="37.518697" lon="126.683011"/></trkseg>
<trkseg><trkpt lat="37.504574" lon="126.691919"/><trkpt lat="37.5048" lon="126.691708"/><trkpt lat="37.505005" lon="126.691654"/><trkpt lat="37.505113" lon="126.691679"/><trkpt lat="37.505131" lon="126.691673"/></trkseg>
<trkseg><trkpt lat="37.511613" lon="126.690808"/><trkpt lat="37.511427" lon="126.690525"/><trkpt lat="37.511195" lon="126.690232"/><trkpt lat="37.511027" lon="126.690044"/><trkpt lat="37.510932" lon="126.689907"/><trkpt lat="37.510839" lon="126.689539"/><trkpt lat="37.510695" lon="126.689322"/><trkpt lat="37.510666" lon="126.689172"/></trkseg>
<trkseg><trkpt lat="37.503722" lon="126.68677"/><trkpt lat="37.503711" lon="126.686573"/><trkpt lat="37.503644" lon="126.686368"/><trkpt lat="37.50354" lon="126.686161"/></trkseg>
<trkseg><trkpt lat="37.517018" lon="126.683225"/><trkpt lat="37.516948" lon="126.683346"/><trkpt lat="37.516777" lon="126.683313"/><trkpt lat="37.516541" lon="126.68325"/><trkpt lat="37.516283" lon="126.683338"/><trkpt lat="37.516039" lon="126.683321"/></trkseg>
<trkseg><trkpt lat="37.518644" lon="126.684273"/><trkpt lat="37.518321" lon="126.684072"/><trkpt lat="37.518113" lon="126.683896"/><trkpt lat="37.517921" lon="126.683769"/><trkpt lat="37.51781" lon="126.683735"/><trkpt lat="37.517579" lon="126.683614"/><trkpt lat="37.517333" lon="126.683426"/><trkpt lat="37.517158" lon="126.683291"/><trkpt lat="37.517018" lon="126.683225"/></trkseg>
<trkseg><trkpt lat="37.50354" lon="126.686161"/><trkpt lat="37.503516" lon="126.686051"/><trkpt lat="37.503376" lon="126.685782"/><trkpt lat="37.503314" lon="126.685665"/><trkpt lat="37.503334" lon="126.685586"/></trkseg>
<trkseg><trkpt lat="37.504727" lon="126.685425"/><trkpt lat="37.504659" lon="126.685606"/><trkpt lat="37.504746" lon="126.68572"/><trkpt lat="37.50497" lon="126.685842"/><trkpt lat="37.505006" lon="126.685755"/><trkpt lat="37.504806" lon="126.685547"/><trkpt lat="37.504727" lon="126.685425"/></trkseg>
<trkseg><trkpt lat="37.499686" lon="126.682964"/><trkpt lat="37.499784" lon="126.683228"/><trkpt lat="37.49989" lon="126.683417"/><trkpt lat="37.499937" lon="126.683656"/><trkpt lat="37.500002" lon="126.68385"/><trkpt lat="37.500047" lon="126.684105"/><trkpt lat="37.500076" lon="126.684194"/><trkpt lat="37.500113" lon="126.684224"/></trkseg>
<trkseg><trkpt lat="37.500113" lon="126.684224"/><trkpt lat="37.500086" lon="126.684234"/><trkpt lat="37.500074" lon="126.68424"/><trkpt lat="37.500024" lon="126.6843"/><trkpt lat="37.49982" lon="126.684449"/><trkpt lat="37.499632" lon="126.684537"/><trkpt lat="37.499426" lon="126.684687"/><trkpt lat="37.499322" lon="126.684834"/><trkpt lat="37.49917" lon="126.684859"/><trkpt lat="37.498827" lon="126.684975"/><trkpt lat="37.498666" lon="126.684971"/><trkpt lat="37.498394" lon="126.685013"/><trkpt lat="37.498224" lon="126.684882"/><trkpt lat="37.497821" lon="126.684752"/><trkpt lat="37.497677" lon="126.684528"/><trkpt lat="37.497573" lon="126.684341"/><trkpt lat="37.497485" lon="126.684205"/><trkpt lat="37.497437" lon="126.684029"/><trkpt lat="37.497367" lon="126.683828"/><trkpt lat="37.497434" lon="126.683709"/><trkpt lat="37.497455" lon="126.683386"/></trkseg>
<trkseg><trkpt lat="37.506365" lon="126.69086"/><trkpt lat="37.506272" lon="126.691"/><trkpt lat="37.506279" lon="126.69117"/><trkpt lat="37.506268" lon="126.691428"/><trkpt lat="37.506238" lon="126.691513"/><trkpt lat="37.50626" lon="126.691636"/><trkpt lat="37.506266" lon="126.691823"/><trkpt lat="37.506272" lon="126.691909"/><trkpt lat="37.506284" lon="126.692071"/><trkpt lat="37.506248" lon="126.692272"/><trkpt lat="37.50637" lon="126.692387"/><trkpt lat="37.506466" lon="126.692421"/></trkseg>
<trkseg><trkpt lat="37.5188" lon="126.68311"/><trkpt lat="37.518819" lon="126.682843"/><trkpt lat="37.518854" lon="126.682594"/><trkpt lat="37.519018" lon="126.682545"/><trkpt lat="37.519083" lon="126.682538"/></trkseg>
<trkseg><trkpt lat="37.503133" lon="126.681848"/><trkpt lat="37.503124" lon="126.681865"/><trkpt lat="37.503099" lon="126.681902"/><trkpt lat="37.503021" lon="126.681956"/><trkpt lat="37.502861" lon="126.682062"/><trkpt lat="37.502844" lon="126.682084"/><trkpt lat="37.50283" lon="126.682102"/><trkpt lat="37.502753" lon="126.682144"/><trkpt lat="37.502689" lon="126.682285"/><trkpt lat="37.502559" lon="126.68235"/><trkpt lat="37.502332" lon="126.682432"/><trkpt lat="37.502151" lon="126.682602"/><trkpt lat="37.502013" lon="126.682605"/><trkpt lat="37.501917" lon="126.682515"/><trkpt lat="37.501857" lon="126.682514"/><trkpt lat="37.501736" lon="126.682432"/><trkpt lat="37.501545" lon="126.682265"/><trkpt lat="37.501355" lon="126.682127"/><trkpt lat="37.501167" lon="126.681795"/></trkseg>
<trkseg><trkpt lat="37.514656" lon="126.683257"/><trkpt lat="37.514726" lon="126.683277"/><trkpt lat="37.5149" lon="126.683319"/><trkpt lat="37.515129" lon="126.683314"/><trkpt lat="37.515468" lon="126.683389"/><trkpt lat="37.515716" lon="126.683318"/><trkpt lat="37.515729" lon="126.683315"/></trkseg>
<trkseg><trkpt lat="37.514327" lon="126.682511"/><trkpt lat="37.514425" lon="126.682636"/><trkpt lat="37.514588" lon="126.682953"/><trkpt lat="37.514656" lon="126.683257"/></trkseg>
<trkseg><trkpt lat="37.513849" lon="126.682079"/><trkpt lat="37.514047" lon="126.682252"/><trkpt lat="37.514153" lon="126.682341"/><trkpt lat="37.514277" lon="126.682491"/><trkpt lat="37.514327" lon="126.682511"/></trkseg>
<trkseg><trkpt lat="37.515014" lon="126.681871"/><trkpt lat="37.514911" lon="126.681825"/><trkpt lat="37.514655" lon="126.681735"/><trkpt lat="37.514504" lon="126.681735"/><trkpt lat="37.514344" lon="126.681826"/><trkpt lat="37.514244" lon="126.681885"/><trkpt lat="37.514159" lon="126.68187"/><trkpt lat="37.514023" lon="126.681847"/><trkpt lat="37.51388" lon="126.681822"/><trkpt lat="37.513767" lon="126.681832"/><trkpt lat="37.513802" lon="126.681934"/><trkpt lat="37.513849" lon="126.682079"/></trkseg>
<trkseg><trkpt lat="37.515729" lon="126.683315"/><trkpt lat="37.515983" lon="126.683334"/><trkpt lat="37.516039" lon="126.683321"/></trkseg>
<trkseg><trkpt lat="37.508926" lon="126.688838"/><trkpt lat="37.50878" lon="126.688606"/><trkpt lat="37.508743" lon="126.688534"/></trkseg>
<trkseg><trkpt lat="37.506399" lon="126.688702"/><trkpt lat="37.506259" lon="126.688942"/><trkpt lat="37.506057" lon="126.689226"/><trkpt lat="37.505964" lon="126.689477"/><trkpt lat="37.505936" lon="126.689642"/><trkpt lat="37.505963" lon="126.689833"/><trkpt lat="37.506038" lon="126.690085"/><trkpt lat="37.50604" lon="126.69031"/><trkpt lat="37.50606" lon="126.690481"/><trkpt lat="37.506158" lon="126.690686"/><trkpt lat="37.506338" lon="126.690852"/><trkpt lat="37.506365" lon="126.69086"/></trkseg>
<trkseg><trkpt lat="37.50523" lon="126.688459"/><trkpt lat="37.505419" lon="126.688539"/><trkpt lat="37.505573" lon="126.688562"/></trkseg>
<trkseg><trkpt lat="37.508743" lon="126.688534"/><trkpt lat="37.508759" lon="126.688506"/><trkpt lat="37.508813" lon="126.688448"/><trkpt lat="37.508884" lon="126.688265"/><trkpt lat="37.508932" lon="126.68806"/><trkpt lat="37.508923" lon="126.687981"/><trkpt lat="37.508892" lon="126.687964"/></trkseg>
<trkseg><trkpt lat="37.508892" lon="126.687964"/><trkpt lat="37.509079" lon="126.687643"/><trkpt lat="37.509399" lon="126.687363"/><trkpt lat="37.509663" lon="126.687057"/><trkpt lat="37.50987" lon="126.686659"/><trkpt lat="37.509919" lon="126.686628"/></trkseg>
<trkseg><trkpt lat="37.507331" lon="126.691436"/><trkpt lat="37.507409" lon="126.691364"/><trkpt lat="37.507506" lon="126.69123"/><trkpt lat="37.507625" lon="126.691105"/><trkpt lat="37.507786" lon="126.690961"/><trkpt lat="37.507932" lon="126.690916"/><trkpt lat="37.508089" lon="126.690908"/><trkpt lat="37.508185" lon="126.690884"/><trkpt lat="37.5083" lon="126.690768"/><trkpt lat="37.50845" lon="126.690625"/><trkpt lat="37.508568" lon="126.690464"/><trkpt lat="37.508655" lon="126.690162"/><trkpt lat="37.50874" lon="126.689876"/><trkpt lat="37.508746" lon="126.689751"/><trkpt lat="37.508792" lon="126.689626"/><trkpt lat="37.50881" lon="126.689471"/><trkpt lat="37.508876" lon="126.689297"/><trkpt lat="37.508892" lon="126.689164"/><trkpt lat="37.508902" lon="126.689068"/><trkpt lat="37.508908" lon="126.68899"/><trkpt lat="37.508921" lon="126.688852"/><trkpt lat="37.508926" lon="126.688838"/></trkseg>
<trkseg><trkpt lat="37.507377" lon="126.690709"/><trkpt lat="37.507376" lon="126.690827"/><trkpt lat="37.507299" lon="126.691188"/><trkpt lat="37.507302" lon="126.691386"/><trkpt lat="37.507331" lon="126.691436"/></trkseg>
<trkseg><trkpt lat="37.506365" lon="126.69086"/><trkpt lat="37.506501" lon="126.690789"/><trkpt lat="37.506737" lon="126.690757"/><trkpt lat="37.507008" lon="126.690699"/><trkpt lat="37.507206" lon="126.69056"/><trkpt lat="37.507265" lon="126.690529"/></trkseg>
<trkseg><trkpt lat="37.515729" lon="126.683315"/><trkpt lat="37.515731" lon="126.683158"/><trkpt lat="37.515752" lon="126.683037"/></trkseg>
<trkseg><trkpt lat="37.515752" lon="126.683037"/><trkpt lat="37.515745" lon="126.682891"/><trkpt lat="37.515596" lon="126.682713"/><trkpt lat="37.515501" lon="126.68244"/><trkpt lat="37.515474" lon="126.682327"/><trkpt lat="37.515402" lon="126.682204"/></trkseg>
<trkseg><trkpt lat="37.516012" lon="126.683253"/><trkpt lat="37.515886" lon="126.683094"/><trkpt lat="37.515752" lon="126.683037"/></trkseg>
<trkseg><trkpt lat="37.517018" lon="126.683225"/><trkpt lat="37.517081" lon="126.683116"/><trkpt lat="37.517083" lon="126.683021"/><trkpt lat="37.517024" lon="126.682888"/><trkpt lat="37.516967" lon="126.682659"/><trkpt lat="37.51695" lon="126.682628"/></trkseg>
<trkseg><trkpt lat="37.517018" lon="126.683225"/><trkpt lat="37.51695" lon="126.683234"/><trkpt lat="37.516912" lon="126.68316"/><trkpt lat="37.516751" lon="126.683035"/><trkpt lat="37.516713" lon="126.682872"/><trkpt lat="37.516805" lon="126.682726"/><trkpt lat="37.51695" lon="126.682628"/></trkseg>
<trkseg><trkpt lat="37.51695" lon="126.682628"/><trkpt lat="37.516905" lon="126.682467"/><trkpt lat="37.516845" lon="126.682282"/><trkpt lat="37.516809" lon="126.681968"/><trkpt lat="37.516662" lon="126.68172"/><trkpt lat="37.516585" lon="126.681654"/></trkseg>
<trkseg><trkpt lat="37.505282" lon="126.687238"/><trkpt lat="37.50519" lon="126.686849"/><trkpt lat="37.505197" lon="126.686608"/></trkseg>
<trkseg><trkpt lat="37.505445" lon="126.685439"/><trkpt lat="37.505449" lon="126.685709"/><trkpt lat="37.505434" lon="126.685992"/><trkpt lat="37.505441" lon="126.686249"/></trkseg>
<trkseg><trkpt lat="37.505704" lon="126.683523"/><trkpt lat="37.505531" lon="126.68363"/><trkpt lat="37.505382" lon="126.683813"/><trkpt lat="37.505277" lon="126.684046"/><trkpt lat="37.505211" lon="126.68428"/><trkpt lat="37.505212" lon="126.684621"/><trkpt lat="37.505257" lon="126.684831"/></trkseg>
<trkseg><trkpt lat="37.506295" lon="126.682872"/><trkpt lat="37.506436" lon="126.682474"/><trkpt lat="37.506479" lon="126.682107"/><trkpt lat="37.506604" lon="126.681918"/><trkpt lat="37.506635" lon="126.681686"/><trkpt lat="37.506682" lon="126.681416"/><trkpt lat="37.506679" lon="126.681094"/><trkpt lat="37.50666" lon="126.680737"/><trkpt lat="37.506691" lon="126.680585"/><trkpt lat="37.506686" lon="126.680045"/><trkpt lat="37.506612" lon="126.67955"/><trkpt lat="37.506701" lon="126.679295"/><trkpt lat="37.50686" lon="126.679145"/><trkpt lat="37.507098" lon="126.679071"/><trkpt lat="37.507188" lon="126.679012"/><trkpt lat="37.507396" lon="126.678785"/></trkseg>
<trkseg><trkpt lat="37.505441" lon="126.686249"/><trkpt lat="37.505524" lon="126.68627"/><trkpt lat="37.505617" lon="126.686289"/><trkpt lat="37.505762" lon="126.686282"/><trkpt lat="37.505908" lon="126.68621"/><trkpt lat="37.506038" lon="126.686124"/><trkpt lat="37.506134" lon="126.685973"/><trkpt lat="37.506146" lon="126.685856"/><trkpt lat="37.506281" lon="126.685825"/><trkpt lat="37.506412" lon="126.685745"/><trkpt lat="37.50652" lon="126.685728"/><trkpt lat="37.506614" lon="126.685644"/><trkpt lat="37.506676" lon="126.685748"/><trkpt lat="37.506702" lon="126.685928"/></trkseg>
<trkseg><trkpt lat="37.505197" lon="126.686608"/><trkpt lat="37.505329" lon="126.686447"/><trkpt lat="37.50544" lon="126.686251"/><trkpt lat="37.505441" lon="126.686249"/></trkseg>
<trkseg><trkpt lat="37.512914" lon="126.686092"/><trkpt lat="37.513076" lon="126.68612"/><trkpt lat="37.513096" lon="126.686128"/><trkpt lat="37.513146" lon="126.686145"/><trkpt lat="37.513276" lon="126.6862"/><trkpt lat="37.513362" lon="126.686315"/><trkpt lat="37.513515" lon="126.68646"/><trkpt lat="37.513546" lon="126.686494"/><trkpt lat="37.513718" lon="126.686679"/><trkpt lat="37.513793" lon="126.686824"/><trkpt lat="37.514008" lon="126.686936"/><trkpt lat="37.514107" lon="126.686982"/><trkpt lat="37.514122" lon="126.686979"/><trkpt lat="37.51424" lon="126.687116"/><trkpt lat="37.514357" lon="126.687285"/><trkpt lat="37.51465" lon="126.687376"/><trkpt lat="37.514977" lon="126.687619"/><trkpt lat="37.515126" lon="126.687851"/><trkpt lat="37.515294" lon="126.687906"/><trkpt lat="37.515437" lon="126.687982"/><trkpt lat="37.515567" lon="126.688209"/><trkpt lat="37.515615" lon="126.688348"/><trkpt lat="37.515579" lon="126.688519"/><trkpt lat="37.515519" lon="126.688781"/><trkpt lat="37.515503" lon="126.689081"/><trkpt lat="37.515418" lon="126.689391"/><trkpt lat="37.515288" lon="126.689573"/><trkpt lat="37.515287" lon="126.689762"/><trkpt lat="37.515302" lon="126.689924"/><trkpt lat="37.51533" lon="126.690064"/><trkpt lat="37.51546" lon="126.690257"/><trkpt lat="37.515568" lon="126.690342"/><trkpt lat="37.515671" lon="126.690392"/><trkpt lat="37.515712" lon="126.690622"/><trkpt lat="37.51576" lon="126.690857"/><trkpt lat="37.515765" lon="126.69104"/><trkpt lat="37.515829" lon="126.691172"/><trkpt lat="37.515775" lon="126.69121"/></trkseg>
<trkseg><trkpt lat="37.513495" lon="126.685279"/><trkpt lat="37.51343" lon="126.685448"/><trkpt lat="37.513291" lon="126.685773"/><trkpt lat="37.513154" lon="126.685917"/><trkpt lat="37.513039" lon="126.686028"/><trkpt lat="37.512974" lon="126.686069"/><trkpt lat="37.512914" lon="126.686092"/></trkseg>
<trkseg><trkpt lat="37.51362" lon="126.685107"/><trkpt lat="37.513495" lon="126.68513"/><trkpt lat="37.513443" lon="126.685044"/><trkpt lat="37.51338" lon="126.684961"/><trkpt lat="37.513443" lon="126.685205"/><trkpt lat="37.513495" lon="126.685279"/></trkseg>
<trkseg><trkpt lat="37.514656" lon="126.683257"/><trkpt lat="37.514708" lon="126.683313"/><trkpt lat="37.514633" lon="126.683528"/><trkpt lat="37.514587" lon="126.683819"/><trkpt lat="37.514536" lon="126.684249"/><trkpt lat="37.514412" lon="126.684515"/><trkpt lat="37.514235" lon="126.684623"/><trkpt lat="37.514051" lon="126.684788"/><trkpt lat="37.5139" lon="126.684934"/><trkpt lat="37.513788" lon="126.685004"/><trkpt lat="37.51362" lon="126.685107"/></trkseg>
<trkseg><trkpt lat="37.512346" lon="126.686548"/><trkpt lat="37.512482" lon="126.686586"/></trkseg>
<trkseg><trkpt lat="37.512744" lon="126.686187"/><trkpt lat="37.512597" lon="126.686253"/><trkpt lat="37.512444" lon="126.686454"/><trkpt lat="37.512346" lon="126.686548"/></trkseg>
<trkseg><trkpt lat="37.512482" lon="126.686586"/><trkpt lat="37.512551" lon="126.686482"/><trkpt lat="37.512637" lon="126.686331"/><trkpt lat="37.512744" lon="126.686187"/></trkseg>
<trkseg><trkpt lat="37.51248" lon="126.686802"/><trkpt lat="37.51206" lon="126.686595"/></trkseg>
<trkseg><trkpt lat="37.512482" lon="126.686586"/><trkpt lat="37.512511" lon="126.686699"/><trkpt lat="37.51248" lon="126.686802"/></trkseg>
<trkseg><trkpt lat="37.512914" lon="126.686092"/><trkpt lat="37.512781" lon="126.68616"/><trkpt lat="37.512744" lon="126.686187"/></trkseg>
<trkseg><trkpt lat="37.50523" lon="126.688459"/><trkpt lat="37.505234" lon="126.688289"/><trkpt lat="37.505273" lon="126.688158"/><trkpt lat="37.505295" lon="126.688085"/><trkpt lat="37.505292" lon="126.687961"/><trkpt lat="37.505283" lon="126.687814"/></trkseg>
<trkseg><trkpt lat="37.511315" lon="126.682825"/><trkpt lat="37.511293" lon="126.682896"/><trkpt lat="37.511197" lon="126.68317"/><trkpt lat="37.511182" lon="126.683325"/><trkpt lat="37.5111" lon="126.683545"/><trkpt lat="37.511148" lon="126.683719"/><trkpt lat="37.511173" lon="126.683917"/><trkpt lat="37.51128" lon="126.684114"/><trkpt lat="37.511277" lon="126.684218"/><trkpt lat="37.511303" lon="126.684517"/><trkpt lat="37.511365" lon="126.684755"/><trkpt lat="37.511378" lon="126.684786"/><trkpt lat="37.511407" lon="126.684868"/><trkpt lat="37.511478" lon="126.685227"/><trkpt lat="37.511541" lon="126.685439"/><trkpt lat="37.51159" lon="126.685774"/><trkpt lat="37.511723" lon="126.68596"/><trkpt lat="37.511854" lon="126.686132"/><trkpt lat="37.512009" lon="126.686363"/><trkpt lat="37.51206" lon="126.68647"/><trkpt lat="37.512065" lon="126.686508"/><trkpt lat="37.51207" lon="126.686566"/><trkpt lat="37.51206" lon="126.686595"/></trkseg>
<trkseg><trkpt lat="37.51206" lon="126.686595"/><trkpt lat="37.512313" lon="126.686566"/><trkpt lat="37.512346" lon="126.686548"/></trkseg>
<trkseg><trkpt lat="37.503676" lon="126.685837"/><trkpt lat="37.50349" lon="126.685731"/><trkpt lat="37.503334" lon="126.685586"/></trkseg>
<trkseg><trkpt lat="37.503779" lon="126.68596"/><trkpt lat="37.503676" lon="126.685837"/></trkseg>
<trkseg><trkpt lat="37.503984" lon="126.686176"/><trkpt lat="37.503779" lon="126.68596"/></trkseg>
<trkseg><trkpt lat="37.505197" lon="126.686608"/><trkpt lat="37.504992" lon="126.686534"/><trkpt lat="37.504903" lon="126.686347"/><trkpt lat="37.504771" lon="126.686285"/><trkpt lat="37.504661" lon="126.686277"/><trkpt lat="37.504556" lon="126.68636"/><trkpt lat="37.504424" lon="126.686295"/><trkpt lat="37.50435" lon="126.686362"/><trkpt lat="37.504207" lon="126.686363"/><trkpt lat="37.504138" lon="126.686319"/><trkpt lat="37.504072" lon="126.686226"/><trkpt lat="37.503984" lon="126.686176"/></trkseg>
<trkseg><trkpt lat="37.497765" lon="126.681007"/><trkpt lat="37.497716" lon="126.681031"/></trkseg>
<trkseg><trkpt lat="37.503334" lon="126.685586"/><trkpt lat="37.503146" lon="126.685377"/><trkpt lat="37.502955" lon="126.685303"/><trkpt lat="37.502638" lon="126.68512"/><trkpt lat="37.502373" lon="126.685185"/><trkpt lat="37.502146" lon="126.685386"/><trkpt lat="37.501968" lon="126.685485"/><trkpt lat="37.501851" lon="126.685443"/><trkpt lat="37.501732" lon="126.68515"/><trkpt lat="37.50148" lon="126.684958"/><trkpt lat="37.501233" lon="126.684813"/><trkpt lat="37.501043" lon="126.684767"/><trkpt lat="37.50087" lon="126.684674"/><trkpt lat="37.500558" lon="126.684326"/><trkpt lat="37.500387" lon="126.684264"/><trkpt lat="37.500184" lon="126.684216"/><trkpt lat="37.500113" lon="126.684224"/></trkseg>
<trkseg><trkpt lat="37.506817" lon="126.688699"/><trkpt lat="37.507014" lon="126.68861"/><trkpt lat="37.50739" lon="126.688603"/><trkpt lat="37.507652" lon="126.6886"/><trkpt lat="37.507732" lon="126.688633"/><trkpt lat="37.507894" lon="126.688652"/><trkpt lat="37.50804" lon="126.688623"/><trkpt lat="37.508147" lon="126.688608"/><trkpt lat="37.50829" lon="126.688568"/><trkpt lat="37.508401" lon="126.688489"/></trkseg>
<trkseg><trkpt lat="37.506817" lon="126.688699"/><trkpt lat="37.506666" lon="126.688714"/><trkpt lat="37.506443" lon="126.688709"/><trkpt lat="37.506399" lon="126.688702"/></trkseg>
<trkseg><trkpt lat="37.509929" lon="126.686226"/><trkpt lat="37.510069" lon="126.686297"/><trkpt lat="37.510221" lon="126.686397"/><trkpt lat="37.510333" lon="126.686492"/><trkpt lat="37.510286" lon="126.68657"/></trkseg>
<trkseg><trkpt lat="37.514327" lon="126.682511"/><trkpt lat="37.51435" lon="126.682411"/><trkpt lat="37.514449" lon="126.682259"/><trkpt lat="37.51455" lon="126.682156"/><trkpt lat="37.514663" lon="126.682024"/><trkpt lat="37.514762" lon="126.68195"/><trkpt lat="37.51492" lon="126.681917"/><trkpt lat="37.515014" lon="126.681871"/></trkseg>
<trkseg><trkpt lat="37.513495" lon="126.685279"/><trkpt lat="37.51362" lon="126.685107"/></trkseg>
<trkseg><trkpt lat="37.508401" lon="126.688489"/><trkpt lat="37.508567" lon="126.688483"/><trkpt lat="37.508652" lon="126.688506"/><trkpt lat="37.508743" lon="126.688534"/></trkseg>
<trkseg><trkpt lat="37.511024" lon="126.686719"/><trkpt lat="37.511048" lon="126.686788"/><trkpt lat="37.511131" lon="126.68687"/><trkpt lat="37.51118" lon="126.686955"/><trkpt lat="37.511147" lon="126.687039"/><trkpt lat="37.511215" lon="126.687128"/><trkpt lat="37.511323" lon="126.687368"/><trkpt lat="37.511345" lon="126.687507"/><trkpt lat="37.511404" lon="126.68766"/><trkpt lat="37.511367" lon="126.68782"/><trkpt lat="37.511357" lon="126.687973"/></trkseg>
<trkseg><trkpt lat="37.508892" lon="126.687964"/><trkpt lat="37.50871" lon="126.68813"/><trkpt lat="37.50846" lon="126.688335"/><trkpt lat="37.508401" lon="126.688489"/></trkseg>
<trkseg><trkpt lat="37.507331" lon="126.691436"/><trkpt lat="37.507536" lon="126.691595"/><trkpt lat="37.50764" lon="126.691813"/><trkpt lat="37.507872" lon="126.692054"/><trkpt lat="37.507898" lon="126.692222"/><trkpt lat="37.507872" lon="126.692395"/><trkpt lat="37.50782" lon="126.692605"/></trkseg>
<trkseg><trkpt lat="37.509799" lon="126.685872"/><trkpt lat="37.509787" lon="126.685581"/><trkpt lat="37.509762" lon="126.685135"/><trkpt lat="37.509706" lon="126.684845"/><trkpt lat="37.509564" lon="126.684681"/><trkpt lat="37.509436" lon="126.684409"/><trkpt lat="37.509247" lon="126.684269"/><trkpt lat="37.509109" lon="126.684132"/><trkpt lat="37.508998" lon="126.684057"/><trkpt lat="37.508907" lon="126.68389"/><trkpt lat="37.50889" lon="126.683777"/><trkpt lat="37.508824" lon="126.68374"/><trkpt lat="37.508751" lon="126.683671"/><trkpt lat="37.508647" lon="126.683621"/><trkpt lat="37.508523" lon="126.683529"/><trkpt lat="37.508518" lon="126.683382"/><trkpt lat="37.508518" lon="126.683169"/><trkpt lat="37.508461" lon="126.682825"/><trkpt lat="37.508371" lon="126.682577"/><trkpt lat="37.508214" lon="126.682301"/><trkpt lat="37.508032" lon="126.682182"/><trkpt lat="37.507901" lon="126.682252"/></trkseg>
<trkseg><trkpt lat="37.508926" lon="126.688838"/><trkpt lat="37.509036" lon="126.689029"/><trkpt lat="37.509217" lon="126.689118"/><trkpt lat="37.509396" lon="126.689169"/><trkpt lat="37.509418" lon="126.689181"/><trkpt lat="37.509462" lon="126.689219"/><trkpt lat="37.509572" lon="126.68934"/><trkpt lat="37.509686" lon="126.689431"/><trkpt lat="37.509733" lon="126.689602"/><trkpt lat="37.509772" lon="126.689709"/><trkpt lat="37.509833" lon="126.68983"/><trkpt lat="37.509969" lon="126.689955"/><trkpt lat="37.510065" lon="126.689988"/><trkpt lat="37.51019" lon="126.690041"/><trkpt lat="37.510276" lon="126.690101"/><trkpt lat="37.51029" lon="126.690101"/><trkpt lat="37.510389" lon="126.690178"/><trkpt lat="37.510548" lon="126.690371"/><trkpt lat="37.510675" lon="126.690606"/><trkpt lat="37.510661" lon="126.690781"/><trkpt lat="37.510549" lon="126.690902"/><trkpt lat="37.510509" lon="126.690994"/><trkpt lat="37.510554" lon="126.69117"/><trkpt lat="37.510532" lon="126.691458"/><trkpt lat="37.510532" lon="126.691642"/><trkpt lat="37.510482" lon="126.691986"/><trkpt lat="37.510496" lon="126.692195"/></trkseg>
<trkseg><trkpt lat="37.4996" lon="126.681854"/><trkpt lat="37.499761" lon="126.68187"/></trkseg>
<trkseg><trkpt lat="37.503823" lon="126.685677"/><trkpt lat="37.503786" lon="126.685757"/><trkpt lat="37.503676" lon="126.685837"/></trkseg>
<trkseg><trkpt lat="37.505257" lon="126.684831"/><trkpt lat="37.505288" lon="126.685012"/><trkpt lat="37.505379" lon="126.685257"/><trkpt lat="37.505445" lon="126.685439"/></trkseg>
<trkseg><trkpt lat="37.50418" lon="126.683724"/><trkpt lat="37.50423" lon="126.68364"/><trkpt lat="37.504281" lon="126.683499"/><trkpt lat="37.504422" lon="126.683357"/><trkpt lat="37.504559" lon="126.683264"/><trkpt lat="37.504883" lon="126.683264"/><trkpt lat="37.505041" lon="126.683243"/><trkpt lat="37.505239" lon="126.68337"/><trkpt lat="37.505467" lon="126.683351"/><trkpt lat="37.505599" lon="126.683435"/><trkpt lat="37.505704" lon="126.683523"/></trkseg>
<trkseg><trkpt lat="37.506295" lon="126.682872"/><trkpt lat="37.506429" lon="126.682884"/><trkpt lat="37.506487" lon="126.682854"/><trkpt lat="37.506573" lon="126.682847"/><trkpt lat="37.506663" lon="126.682857"/><trkpt lat="37.506785" lon="126.682829"/><trkpt lat="37.506896" lon="126.682802"/></trkseg>
<trkseg><trkpt lat="37.505573" lon="126.688562"/><trkpt lat="37.505541" lon="126.688427"/><trkpt lat="37.50544" lon="126.688136"/><trkpt lat="37.505389" lon="126.687977"/></trkseg>
<trkseg><trkpt lat="37.506367" lon="126.688692"/><trkpt lat="37.505816" lon="126.688661"/></trkseg>
<trkseg><trkpt lat="37.505816" lon="126.688661"/><trkpt lat="37.505972" lon="126.688776"/><trkpt lat="37.506154" lon="126.688757"/><trkpt lat="37.506313" lon="126.6887"/><trkpt lat="37.506367" lon="126.688692"/></trkseg>
<trkseg><trkpt lat="37.507265" lon="126.690529"/><trkpt lat="37.507363" lon="126.690659"/><trkpt lat="37.507377" lon="126.690709"/></trkseg>
<trkseg><trkpt lat="37.511921" lon="126.68867"/><trkpt lat="37.51193" lon="126.688835"/><trkpt lat="37.511895" lon="126.689286"/><trkpt lat="37.511837" lon="126.689902"/><trkpt lat="37.511778" lon="126.690381"/><trkpt lat="37.511791" lon="126.690568"/></trkseg>
<trkseg><trkpt lat="37.516585" lon="126.681654"/><trkpt lat="37.516751" lon="126.681607"/></trkseg>
<trkseg><trkpt lat="37.516751" lon="126.681607"/><trkpt lat="37.516926" lon="126.681474"/><trkpt lat="37.516967" lon="126.681302"/><trkpt lat="37.51694" lon="126.681117"/></trkseg>
<trkseg><trkpt lat="37.519856" lon="126.685218"/><trkpt lat="37.519986" lon="126.685447"/><trkpt lat="37.520148" lon="126.685706"/><trkpt lat="37.520125" lon="126.685922"/></trkseg>
<trkseg><trkpt lat="37.520125" lon="126.685922"/><trkpt lat="37.520162" lon="126.685969"/><trkpt lat="37.520375" lon="126.686097"/><trkpt lat="37.520638" lon="126.686482"/></trkseg>
<trkseg><trkpt lat="37.520638" lon="126.686482"/><trkpt lat="37.520923" lon="126.686851"/><trkpt lat="37.521173" lon="126.68708"/><trkpt lat="37.521279" lon="126.687254"/><trkpt lat="37.521303" lon="126.687388"/><trkpt lat="37.521341" lon="126.68751"/><trkpt lat="37.521415" lon="126.687647"/><trkpt lat="37.521468" lon="126.687708"/><trkpt lat="37.521498" lon="126.687732"/></trkseg>
<trkseg><trkpt lat="37.501167" lon="126.681795"/><trkpt lat="37.501172" lon="126.681868"/></trkseg>
<trkseg><trkpt lat="37.505887" lon="126.683288"/><trkpt lat="37.505757" lon="126.683485"/><trkpt lat="37.505704" lon="126.683523"/></trkseg>
<trkseg><trkpt lat="37.505283" lon="126.687814"/><trkpt lat="37.505282" lon="126.687669"/><trkpt lat="37.505284" lon="126.687551"/><trkpt lat="37.505283" lon="126.687447"/><trkpt lat="37.505263" lon="126.687252"/><trkpt lat="37.505282" lon="126.687238"/></trkseg>
<trkseg><trkpt lat="37.505573" lon="126.688562"/><trkpt lat="37.505787" lon="126.688648"/><trkpt lat="37.505816" lon="126.688661"/></trkseg>
<trkseg><trkpt lat="37.506367" lon="126.688692"/><trkpt lat="37.506399" lon="126.688702"/></trkseg>
<trkseg><trkpt lat="37.51206" lon="126.686595"/><trkpt lat="37.512068" lon="126.686789"/><trkpt lat="37.512165" lon="126.686882"/><trkpt lat="37.512164" lon="126.687034"/><trkpt lat="37.512173" lon="126.687216"/><trkpt lat="37.512162" lon="126.687425"/><trkpt lat="37.512105" lon="126.687584"/><trkpt lat="37.512067" lon="126.687702"/><trkpt lat="37.512109" lon="126.687903"/><trkpt lat="37.512091" lon="126.688204"/><trkpt lat="37.511949" lon="126.688449"/><trkpt lat="37.511921" lon="126.68867"/></trkseg>
<trkseg><trkpt lat="37.515449" lon="126.682209"/><trkpt lat="37.515402" lon="126.682204"/></trkseg>
<trkseg><trkpt lat="37.516012" lon="126.683253"/><trkpt lat="37.516039" lon="126.683321"/></trkseg>
<trkseg><trkpt lat="37.512096" lon="126.690883"/><trkpt lat="37.511827" lon="126.690721"/><trkpt lat="37.511782" lon="126.690579"/><trkpt lat="37.511791" lon="126.690568"/></trkseg>
<trkseg><trkpt lat="37.507439" lon="126.682056"/><trkpt lat="37.507611" lon="126.681972"/><trkpt lat="37.50774" lon="126.681883"/></trkseg>
<trkseg><trkpt lat="37.505898" lon="126.68327"/><trkpt lat="37.50611" lon="126.683083"/><trkpt lat="37.506295" lon="126.682872"/></trkseg>
<trkseg><trkpt lat="37.505887" lon="126.683288"/><trkpt lat="37.505898" lon="126.68327"/></trkseg>
<trkseg><trkpt lat="37.502407" lon="126.689065"/><trkpt lat="37.502452" lon="126.689276"/><trkpt lat="37.502398" lon="126.689429"/></trkseg>
</trk>
</gpx>
