<?xml version="1.0" encoding="UTF-8"?>
<gpx version="1.1" creator="letnaturechoose" xmlns="http://www.topografix.com/GPX/1/1">
<metadata><name>계양산 등산로</name></metadata>
<trk><name>계양산</name>
<trkseg><trkpt lat="37.547975" lon="126.727543"/><trkpt lat="37.548223" lon="126.727826"/><trkpt lat="37.548492" lon="126.727938"/><trkpt lat="37.548787" lon="126.72803"/><trkpt lat="37.548891" lon="126.728137"/><trkpt lat="37.548796" lon="126.728328"/></trkseg>
<trkseg><trkpt lat="37.550438" lon="126.725795"/><trkpt lat="37.550772" lon="126.725642"/><trkpt lat="37.551029" lon="126.725543"/><trkpt lat="37.551199" lon="126.725371"/><trkpt lat="37.551419" lon="126.725134"/><trkpt lat="37.551681" lon="126.725032"/><trkpt lat="37.551801" lon="126.724798"/><trkpt lat="37.551873" lon="126.724588"/><trkpt lat="37.551902" lon="126.72447"/></trkseg>
<trkseg><trkpt lat="37.548507" lon="126.716595"/><trkpt lat="37.548525" lon="126.716826"/><trkpt lat="37.548477" lon="126.716879"/></trkseg>
<trkseg><trkpt lat="37.547123" lon="126.717031"/><trkpt lat="37.547009" lon="126.716633"/><trkpt lat="37.547222" lon="126.716289"/><trkpt lat="37.547445" lon="126.71647"/><trkpt lat="37.547753" lon="126.716448"/></trkseg>
<trkseg><trkpt lat="37.547787" lon="126.717003"/><trkpt lat="37.547809" lon="126.716743"/><trkpt lat="37.547753" lon="126.716448"/></trkseg>
<trkseg><trkpt lat="37.547753" lon="126.716448"/><trkpt lat="37.547482" lon="126.71687"/><trkpt lat="37.547434" lon="126.716954"/></trkseg>
<trkseg><trkpt lat="37.547123" lon="126.717031"/><trkpt lat="37.547068" lon="126.717389"/><trkpt lat="37.547004" lon="126.717734"/></trkseg>
<trkseg><trkpt lat="37.546866" lon="126.718139"/><trkpt lat="37.546904" lon="126.71784"/><trkpt lat="37.547004" lon="126.717734"/></trkseg>
<trkseg><trkpt lat="37.547767" lon="126.726595"/><trkpt lat="37.547887" lon="126.726728"/></trkseg>
<trkseg><trkpt lat="37.547975" lon="126.727543"/><trkpt lat="37.5479" lon="126.727906"/><trkpt lat="37.547868" lon="126.728281"/><trkpt lat="37.547881" lon="126.728597"/><trkpt lat="37.547972" lon="126.728923"/><trkpt lat="37.548087" lon="126.729385"/><trkpt lat="37.548323" lon="126.729818"/><trkpt lat="37.54836" lon="126.729893"/></trkseg>
<trkseg><trkpt lat="37.55379" lon="126.728255"/><trkpt lat="37.553586" lon="126.728139"/></trkseg>
<trkseg><trkpt lat="37.552703" lon="126.728822"/><trkpt lat="37.552808" lon="126.728999"/></trkseg>
<trkseg><trkpt lat="37.550302" lon="126.730518"/><trkpt lat="37.550422" lon="126.730829"/><trkpt lat="37.550476" lon="126.731102"/><trkpt lat="37.550619" lon="126.731373"/><trkpt lat="37.550694" lon="126.731708"/><trkpt lat="37.550595" lon="126.732092"/><trkpt lat="37.550679" lon="126.732519"/><trkpt lat="37.550732" lon="126.732808"/></trkseg>
<trkseg><trkpt lat="37.549853" lon="126.736406"/><trkpt lat="37.549614" lon="126.736272"/><trkpt lat="37.549396" lon="126.735959"/><trkpt lat="37.54933" lon="126.73565"/><trkpt lat="37.549189" lon="126.735486"/><trkpt lat="37.549099" lon="126.735378"/></trkseg>
<trkseg><trkpt lat="37.548864" lon="126.735348"/><trkpt lat="37.548812" lon="126.735109"/><trkpt lat="37.548816" lon="126.734772"/></trkseg>
<trkseg><trkpt lat="37.548644" lon="126.734765"/><trkpt lat="37.548816" lon="126.734772"/></trkseg>
<trkseg><trkpt lat="37.550035" lon="126.735346"/><trkpt lat="37.549838" lon="126.735348"/><trkpt lat="37.549618" lon="126.73519"/><trkpt lat="37.549343" lon="126.735115"/><trkpt lat="37.549242" lon="126.735143"/></trkseg>
<trkseg><trkpt lat="37.548816" lon="126.734772"/><trkpt lat="37.549109" lon="126.734998"/><trkpt lat="37.549242" lon="126.735143"/></trkseg>
<trkseg><trkpt lat="37.550302" lon="126.730518"/><trkpt lat="37.55008" lon="126.730583"/><trkpt lat="37.549851" lon="126.730568"/><trkpt lat="37.549664" lon="126.73048"/><trkpt lat="37.549438" lon="126.730459"/><trkpt lat="37.549127" lon="126.730454"/><trkpt lat="37.548891" lon="126.73068"/></trkseg>
<trkseg><trkpt lat="37.549029" lon="126.73019"/><trkpt lat="37.548918" lon="126.730013"/></trkseg>
<trkseg><trkpt lat="37.548583" lon="126.730018"/><trkpt lat="37.548514" lon="126.730285"/></trkseg>
<trkseg><trkpt lat="37.548918" lon="126.730013"/><trkpt lat="37.548651" lon="126.730239"/><trkpt lat="37.548514" lon="126.730285"/></trkseg>
<trkseg><trkpt lat="37.550302" lon="126.730518"/><trkpt lat="37.550393" lon="126.730249"/><trkpt lat="37.550368" lon="126.730003"/><trkpt lat="37.550374" lon="126.729902"/></trkseg>
<trkseg><trkpt lat="37.548979" lon="126.7284"/><trkpt lat="37.549257" lon="126.728652"/><trkpt lat="37.549433" lon="126.728885"/><trkpt lat="37.549336" lon="126.729219"/><trkpt lat="37.549255" lon="126.729328"/></trkseg>
<trkseg><trkpt lat="37.550374" lon="126.729902"/><trkpt lat="37.550519" lon="126.729622"/><trkpt lat="37.550601" lon="126.729471"/><trkpt lat="37.550824" lon="126.729026"/><trkpt lat="37.551034" lon="126.728653"/><trkpt lat="37.551135" lon="126.728215"/><trkpt lat="37.551159" lon="126.728039"/></trkseg>
<trkseg><trkpt lat="37.552462" lon="126.722615"/><trkpt lat="37.552575" lon="126.722597"/></trkseg>
<trkseg><trkpt lat="37.548583" lon="126.730018"/><trkpt lat="37.548613" lon="126.729768"/><trkpt lat="37.548647" lon="126.729597"/></trkseg>
<trkseg><trkpt lat="37.54877" lon="126.729009"/><trkpt lat="37.548686" lon="126.728726"/><trkpt lat="37.548796" lon="126.728328"/></trkseg>
<trkseg><trkpt lat="37.548647" lon="126.729597"/><trkpt lat="37.548836" lon="126.729583"/></trkseg>
<trkseg><trkpt lat="37.548836" lon="126.729583"/><trkpt lat="37.549079" lon="126.72942"/><trkpt lat="37.54917" lon="126.7294"/></trkseg>
<trkseg><trkpt lat="37.550374" lon="126.729902"/><trkpt lat="37.55011" lon="126.729806"/><trkpt lat="37.549812" lon="126.729616"/><trkpt lat="37.54953" lon="126.729575"/></trkseg>
<trkseg><trkpt lat="37.54953" lon="126.729575"/><trkpt lat="37.54958" lon="126.729864"/></trkseg>
<trkseg><trkpt lat="37.549572" lon="126.72997"/><trkpt lat="37.54958" lon="126.729864"/></trkseg>
<trkseg><trkpt lat="37.550714" lon="126.728506"/><trkpt lat="37.550825" lon="126.728216"/><trkpt lat="37.551057" lon="126.728044"/><trkpt lat="37.551159" lon="126.728039"/></trkseg>
<trkseg><trkpt lat="37.553375" lon="126.722985"/><trkpt lat="37.553493" lon="126.722698"/><trkpt lat="37.553556" lon="126.722638"/></trkseg>
<trkseg><trkpt lat="37.553146" lon="126.722858"/><trkpt lat="37.55282" lon="126.722786"/><trkpt lat="37.552575" lon="126.722597"/></trkseg>
<trkseg><trkpt lat="37.550162" lon="126.738196"/><trkpt lat="37.550364" lon="126.738308"/><trkpt lat="37.550622" lon="126.738388"/><trkpt lat="37.550878" lon="126.738588"/><trkpt lat="37.551009" lon="126.738992"/><trkpt lat="37.550942" lon="126.739367"/><trkpt lat="37.55114" lon="126.739517"/></trkseg>
<trkseg><trkpt lat="37.553556" lon="126.722638"/><trkpt lat="37.55381" lon="126.722406"/><trkpt lat="37.554029" lon="126.722304"/><trkpt lat="37.554143" lon="126.721966"/><trkpt lat="37.554097" lon="126.721533"/><trkpt lat="37.554205" lon="126.721192"/><trkpt lat="37.554323" lon="126.721249"/><trkpt lat="37.554566" lon="126.721521"/><trkpt lat="37.554772" lon="126.721556"/></trkseg>
<trkseg><trkpt lat="37.557715" lon="126.719879"/><trkpt lat="37.558042" lon="126.720208"/><trkpt lat="37.558282" lon="126.720581"/><trkpt lat="37.558342" lon="126.720933"/></trkseg>
<trkseg><trkpt lat="37.558953" lon="126.721668"/><trkpt lat="37.558727" lon="126.721311"/><trkpt lat="37.558433" lon="126.720984"/><trkpt lat="37.558342" lon="126.720933"/></trkseg>
<trkseg><trkpt lat="37.559412" lon="126.716897"/><trkpt lat="37.559692" lon="126.716851"/><trkpt lat="37.55991" lon="126.716675"/><trkpt lat="37.560039" lon="126.716321"/></trkseg>
<trkseg><trkpt lat="37.552464" lon="126.721856"/><trkpt lat="37.552252" lon="126.721693"/><trkpt lat="37.55217" lon="126.721592"/></trkseg>
<trkseg><trkpt lat="37.551902" lon="126.72447"/><trkpt lat="37.551587" lon="126.724316"/><trkpt lat="37.551378" lon="126.724124"/><trkpt lat="37.551135" lon="126.723982"/><trkpt lat="37.550863" lon="126.723961"/><trkpt lat="37.550676" lon="126.723831"/><trkpt lat="37.550473" lon="126.724003"/><trkpt lat="37.550277" lon="126.724101"/><trkpt lat="37.55002" lon="126.724025"/><trkpt lat="37.549948" lon="126.724089"/></trkseg>
<trkseg><trkpt lat="37.547908" lon="126.711627"/><trkpt lat="37.547632" lon="126.711884"/><trkpt lat="37.547536" lon="126.712097"/></trkseg>
<trkseg><trkpt lat="37.54678" lon="126.712078"/><trkpt lat="37.54696" lon="126.712046"/></trkseg>
<trkseg><trkpt lat="37.546091" lon="126.709671"/><trkpt lat="37.546267" lon="126.709553"/><trkpt lat="37.546267" lon="126.709553"/></trkseg>
<trkseg><trkpt lat="37.553351" lon="126.71395"/><trkpt lat="37.553221" lon="126.713652"/><trkpt lat="37.553052" lon="126.713433"/><trkpt lat="37.552698" lon="126.713358"/><trkpt lat="37.552414" lon="126.713244"/><trkpt lat="37.552111" lon="126.713275"/><trkpt lat="37.551823" lon="126.713266"/><trkpt lat="37.551587" lon="126.713177"/><trkpt lat="37.551428" lon="126.713022"/><trkpt lat="37.551198" lon="126.712823"/><trkpt lat="37.550982" lon="126.712703"/><trkpt lat="37.550763" lon="126.712659"/><trkpt lat="37.550557" lon="126.712508"/><trkpt lat="37.550335" lon="126.712244"/><trkpt lat="37.550115" lon="126.712129"/><trkpt lat="37.549914" lon="126.712075"/><trkpt lat="37.549628" lon="126.712033"/><trkpt lat="37.549424" lon="126.711799"/><trkpt lat="37.549205" lon="126.711698"/><trkpt lat="37.548964" lon="126.711655"/><trkpt lat="37.548747" lon="126.711648"/><trkpt lat="37.548502" lon="126.711602"/><trkpt lat="37.548245" lon="126.711476"/><trkpt lat="37.547969" lon="126.711489"/></trkseg>
<trkseg><trkpt lat="37.547967" lon="126.711492"/><trkpt lat="37.547745" lon="126.711335"/><trkpt lat="37.547512" lon="126.711145"/><trkpt lat="37.547149" lon="126.711142"/><trkpt lat="37.547028" lon="126.711331"/></trkseg>
<trkseg><trkpt lat="37.547028" lon="126.711331"/><trkpt lat="37.546908" lon="126.711186"/></trkseg>
<trkseg><trkpt lat="37.547154" lon="126.711514"/><trkpt lat="37.547042" lon="126.711759"/><trkpt lat="37.54696" lon="126.712046"/></trkseg>
<trkseg><trkpt lat="37.547101" lon="126.712059"/><trkpt lat="37.547231" lon="126.711739"/><trkpt lat="37.547271" lon="126.711564"/></trkseg>
<trkseg><trkpt lat="37.547474" lon="126.712946"/><trkpt lat="37.547276" lon="126.712867"/></trkseg>
<trkseg><trkpt lat="37.547411" lon="126.713324"/><trkpt lat="37.547572" lon="126.713645"/><trkpt lat="37.547636" lon="126.713617"/></trkseg>
<trkseg><trkpt lat="37.547349" lon="126.713436"/><trkpt lat="37.547406" lon="126.713711"/></trkseg>
<trkseg><trkpt lat="37.547227" lon="126.713575"/><trkpt lat="37.547239" lon="126.713844"/><trkpt lat="37.547031" lon="126.714108"/></trkseg>
<trkseg><trkpt lat="37.548943" lon="126.704371"/><trkpt lat="37.549042" lon="126.704531"/><trkpt lat="37.548984" lon="126.704737"/><trkpt lat="37.548996" lon="126.704972"/><trkpt lat="37.54892" lon="126.70524"/><trkpt lat="37.548888" lon="126.705377"/></trkseg>
<trkseg><trkpt lat="37.547973" lon="126.707682"/><trkpt lat="37.547836" lon="126.707841"/><trkpt lat="37.547816" lon="126.707882"/></trkseg>
<trkseg><trkpt lat="37.546883" lon="126.710905"/><trkpt lat="37.54657" lon="126.710944"/><trkpt lat="37.546376" lon="126.710704"/><trkpt lat="37.546138" lon="126.710415"/><trkpt lat="37.546202" lon="126.710104"/><trkpt lat="37.546403" lon="126.70989"/><trkpt lat="37.546316" lon="126.709618"/><trkpt lat="37.546267" lon="126.709553"/></trkseg>
<trkseg><trkpt lat="37.547403" lon="126.708092"/><trkpt lat="37.547458" lon="126.708338"/><trkpt lat="37.547371" lon="126.708719"/><trkpt lat="37.547259" lon="126.708992"/><trkpt lat="37.547124" lon="126.709398"/><trkpt lat="37.547058" lon="126.709722"/><trkpt lat="37.547051" lon="126.710052"/><trkpt lat="37.54705" lon="126.710351"/><trkpt lat="37.547047" lon="126.710506"/></trkseg>
<trkseg><trkpt lat="37.547816" lon="126.707882"/><trkpt lat="37.547691" lon="126.707919"/><trkpt lat="37.547592" lon="126.707945"/><trkpt lat="37.547565" lon="126.707933"/></trkseg>
<trkseg><trkpt lat="37.547748" lon="126.707703"/><trkpt lat="37.547816" lon="126.707882"/></trkseg>
<trkseg><trkpt lat="37.547816" lon="126.707882"/><trkpt lat="37.547984" lon="126.707861"/><trkpt lat="37.548127" lon="126.707712"/></trkseg>
<trkseg><trkpt lat="37.547973" lon="126.707682"/><trkpt lat="37.548092" lon="126.707577"/></trkseg>
<trkseg><trkpt lat="37.548087" lon="126.707079"/><trkpt lat="37.548354" lon="126.707025"/><trkpt lat="37.548642" lon="126.706845"/><trkpt lat="37.548911" lon="126.70677"/><trkpt lat="37.549192" lon="126.706757"/><trkpt lat="37.549467" lon="126.706784"/><trkpt lat="37.549795" lon="126.706784"/><trkpt lat="37.549999" lon="126.706801"/><trkpt lat="37.550124" lon="126.706699"/><trkpt lat="37.550237" lon="126.706494"/><trkpt lat="37.550434" lon="126.706445"/><trkpt lat="37.550614" lon="126.706482"/><trkpt lat="37.550851" lon="126.706469"/><trkpt lat="37.551103" lon="126.706306"/><trkpt lat="37.551265" lon="126.70631"/></trkseg>
<trkseg><trkpt lat="37.554548" lon="126.722196"/><trkpt lat="37.554672" lon="126.722455"/><trkpt lat="37.554699" lon="126.722688"/><trkpt lat="37.554683" lon="126.722756"/></trkseg>
<trkseg><trkpt lat="37.554143" lon="126.726076"/><trkpt lat="37.554139" lon="126.726419"/><trkpt lat="37.55427" lon="126.726686"/><trkpt lat="37.554436" lon="126.726837"/><trkpt lat="37.554658" lon="126.726995"/></trkseg>
<trkseg><trkpt lat="37.548888" lon="126.705377"/><trkpt lat="37.549053" lon="126.705352"/><trkpt lat="37.54909" lon="126.705102"/><trkpt lat="37.549234" lon="126.7049"/><trkpt lat="37.549469" lon="126.704768"/><trkpt lat="37.549758" lon="126.704581"/><trkpt lat="37.549954" lon="126.704443"/><trkpt lat="37.550172" lon="126.704307"/><trkpt lat="37.550421" lon="126.704062"/><trkpt lat="37.550729" lon="126.703907"/><trkpt lat="37.550944" lon="126.703788"/><trkpt lat="37.551061" lon="126.703668"/></trkseg>
<trkseg><trkpt lat="37.560245" lon="126.707904"/><trkpt lat="37.560292" lon="126.708307"/><trkpt lat="37.560284" lon="126.708576"/><trkpt lat="37.560248" lon="126.708847"/><trkpt lat="37.560266" lon="126.709156"/><trkpt lat="37.560158" lon="126.709502"/><trkpt lat="37.560079" lon="126.709774"/></trkseg>
<trkseg><trkpt lat="37.559298" lon="126.710378"/><trkpt lat="37.559296" lon="126.710111"/><trkpt lat="37.559249" lon="126.710042"/></trkseg>
<trkseg><trkpt lat="37.559249" lon="126.710042"/><trkpt lat="37.559543" lon="126.709913"/><trkpt lat="37.559702" lon="126.709889"/><trkpt lat="37.559955" lon="126.70981"/><trkpt lat="37.560079" lon="126.709774"/></trkseg>
<trkseg><trkpt lat="37.551417" lon="126.706353"/><trkpt lat="37.551638" lon="126.706233"/><trkpt lat="37.551851" lon="126.705929"/><trkpt lat="37.552082" lon="126.705828"/><trkpt lat="37.552357" lon="126.705842"/><trkpt lat="37.552695" lon="126.705819"/><trkpt lat="37.552941" lon="126.705761"/><trkpt lat="37.553153" lon="126.705761"/><trkpt lat="37.55342" lon="126.70554"/><trkpt lat="37.55371" lon="126.705537"/></trkseg>
<trkseg><trkpt lat="37.548507" lon="126.716595"/><trkpt lat="37.548336" lon="126.716218"/><trkpt lat="37.54819" lon="126.715886"/><trkpt lat="37.547929" lon="126.715655"/><trkpt lat="37.54785" lon="126.715639"/></trkseg>
<trkseg><trkpt lat="37.551265" lon="126.70631"/><trkpt lat="37.551321" lon="126.706627"/><trkpt lat="37.551403" lon="126.70695"/><trkpt lat="37.551471" lon="126.70731"/></trkseg>
<trkseg><trkpt lat="37.551762" lon="126.708282"/><trkpt lat="37.55154" lon="126.708367"/><trkpt lat="37.551395" lon="126.708657"/><trkpt lat="37.551318" lon="126.708754"/></trkseg>
<trkseg><trkpt lat="37.551471" lon="126.70731"/><trkpt lat="37.551649" lon="126.707231"/><trkpt lat="37.551691" lon="126.706957"/><trkpt lat="37.551627" lon="126.706674"/><trkpt lat="37.551417" lon="126.706353"/></trkseg>
<trkseg><trkpt lat="37.554041" lon="126.705574"/><trkpt lat="37.554182" lon="126.705764"/><trkpt lat="37.554309" lon="126.705941"/><trkpt lat="37.554481" lon="126.705972"/><trkpt lat="37.55469" lon="126.705983"/><trkpt lat="37.554852" lon="126.706018"/><trkpt lat="37.554998" lon="126.70587"/><trkpt lat="37.555279" lon="126.705943"/><trkpt lat="37.555485" lon="126.705988"/></trkseg>
<trkseg><trkpt lat="37.556347" lon="126.707614"/><trkpt lat="37.556503" lon="126.707352"/><trkpt lat="37.556727" lon="126.707089"/><trkpt lat="37.556965" lon="126.706804"/><trkpt lat="37.557147" lon="126.706672"/></trkseg>
<trkseg><trkpt lat="37.566382" lon="126.714179"/><trkpt lat="37.566539" lon="126.713926"/><trkpt lat="37.566653" lon="126.713747"/><trkpt lat="37.566834" lon="126.713607"/><trkpt lat="37.567003" lon="126.713397"/><trkpt lat="37.567249" lon="126.71323"/><trkpt lat="37.567482" lon="126.713176"/><trkpt lat="37.567736" lon="126.713189"/><trkpt lat="37.567843" lon="126.712908"/><trkpt lat="37.567947" lon="126.712571"/><trkpt lat="37.568131" lon="126.712397"/></trkseg>
<trkseg><trkpt lat="37.56488" lon="126.712645"/><trkpt lat="37.564878" lon="126.712256"/><trkpt lat="37.564836" lon="126.711901"/><trkpt lat="37.564853" lon="126.711528"/><trkpt lat="37.564854" lon="126.711265"/></trkseg>
<trkseg><trkpt lat="37.563707" lon="126.71124"/><trkpt lat="37.563977" lon="126.711272"/><trkpt lat="37.564311" lon="126.711278"/><trkpt lat="37.564644" lon="126.711184"/><trkpt lat="37.564854" lon="126.711265"/></trkseg>
<trkseg><trkpt lat="37.563623" lon="126.713591"/><trkpt lat="37.56356" lon="126.713912"/><trkpt lat="37.56345" lon="126.714138"/><trkpt lat="37.56315" lon="126.714171"/><trkpt lat="37.562943" lon="126.714185"/></trkseg>
<trkseg><trkpt lat="37.562221" lon="126.714396"/><trkpt lat="37.562093" lon="126.714695"/><trkpt lat="37.561897" lon="126.714912"/><trkpt lat="37.561873" lon="126.715239"/><trkpt lat="37.561908" lon="126.715517"/><trkpt lat="37.5619" lon="126.715719"/><trkpt lat="37.561767" lon="126.71579"/></trkseg>
<trkseg><trkpt lat="37.562221" lon="126.714396"/><trkpt lat="37.562385" lon="126.713999"/><trkpt lat="37.562566" lon="126.713616"/><trkpt lat="37.562751" lon="126.713261"/><trkpt lat="37.562882" lon="126.712858"/><trkpt lat="37.563054" lon="126.712521"/><trkpt lat="37.563099" lon="126.712123"/><trkpt lat="37.563203" lon="126.711676"/><trkpt lat="37.563266" lon="126.711573"/></trkseg>
<trkseg><trkpt lat="37.562807" lon="126.70956"/><trkpt lat="37.562984" lon="126.709799"/><trkpt lat="37.563263" lon="126.710017"/></trkseg>
<trkseg><trkpt lat="37.563263" lon="126.710017"/><trkpt lat="37.563005" lon="126.71017"/><trkpt lat="37.562861" lon="126.710395"/><trkpt lat="37.56268" lon="126.710682"/><trkpt lat="37.562567" lon="126.71088"/><trkpt lat="37.562385" lon="126.711088"/><trkpt lat="37.56219" lon="126.711409"/><trkpt lat="37.562062" lon="126.711742"/><trkpt lat="37.561931" lon="126.71209"/><trkpt lat="37.561733" lon="126.71236"/><trkpt lat="37.561553" lon="126.712627"/><trkpt lat="37.561348" lon="126.712907"/><trkpt lat="37.561178" lon="126.713173"/><trkpt lat="37.561042" lon="126.713429"/><trkpt lat="37.560751" lon="126.713705"/><trkpt lat="37.560494" lon="126.714106"/><trkpt lat="37.560233" lon="126.714337"/><trkpt lat="37.560009" lon="126.714297"/><trkpt lat="37.559743" lon="126.714269"/><trkpt lat="37.55946" lon="126.714235"/><trkpt lat="37.559395" lon="126.71427"/></trkseg>
<trkseg><trkpt lat="37.553727" lon="126.713944"/><trkpt lat="37.553656" lon="126.713737"/><trkpt lat="37.553539" lon="126.713381"/></trkseg>
<trkseg><trkpt lat="37.557147" lon="126.706672"/><trkpt lat="37.557114" lon="126.706398"/><trkpt lat="37.557027" lon="126.706089"/><trkpt lat="37.556888" lon="126.705779"/><trkpt lat="37.55679" lon="126.705409"/><trkpt lat="37.556699" lon="126.704951"/><trkpt lat="37.556644" lon="126.704533"/><trkpt lat="37.556591" lon="126.704145"/><trkpt lat="37.556515" lon="126.703736"/><trkpt lat="37.556459" lon="126.703335"/><trkpt lat="37.556451" lon="126.703023"/><trkpt lat="37.556677" lon="126.702638"/><trkpt lat="37.556795" lon="126.702162"/><trkpt lat="37.556821" lon="126.701801"/><trkpt lat="37.556928" lon="126.701344"/><trkpt lat="37.55714" lon="126.700961"/><trkpt lat="37.55736" lon="126.700628"/><trkpt lat="37.557665" lon="126.700441"/><trkpt lat="37.557891" lon="126.70021"/><trkpt lat="37.558051" lon="126.699896"/><trkpt lat="37.558331" lon="126.699678"/><trkpt lat="37.558603" lon="126.699558"/><trkpt lat="37.558872" lon="126.699437"/><trkpt lat="37.558919" lon="126.69918"/><trkpt lat="37.559127" lon="126.698876"/><trkpt lat="37.559293" lon="126.698553"/><trkpt lat="37.559312" lon="126.698163"/><trkpt lat="37.559308" lon="126.697771"/><trkpt lat="37.55946" lon="126.697417"/><trkpt lat="37.559344" lon="126.697097"/><trkpt lat="37.559186" lon="126.696598"/><trkpt lat="37.559018" lon="126.696132"/><trkpt lat="37.558911" lon="126.695558"/><trkpt lat="37.558728" lon="126.695142"/><trkpt lat="37.558477" lon="126.694779"/><trkpt lat="37.558184" lon="126.694573"/><trkpt lat="37.557931" lon="126.694336"/><trkpt lat="37.557832" lon="126.69394"/><trkpt lat="37.557972" lon="126.693468"/><trkpt lat="37.558114" lon="126.693027"/><trkpt lat="37.558288" lon="126.692695"/><trkpt lat="37.558391" lon="126.692438"/><trkpt lat="37.558111" lon="126.692511"/><trkpt lat="37.557772" lon="126.692523"/><trkpt lat="37.557367" lon="126.692468"/><trkpt lat="37.557038" lon="126.692432"/><trkpt lat="37.556787" lon="126.692412"/><trkpt lat="37.556427" lon="126.69265"/><trkpt lat="37.556037" lon="126.692901"/><trkpt lat="37.5557" lon="126.69309"/><trkpt lat="37.555293" lon="126.693281"/><trkpt lat="37.555025" lon="126.693566"/><trkpt lat="37.554883" lon="126.693841"/><trkpt lat="37.554506" lon="126.694161"/><trkpt lat="37.55413" lon="126.694376"/><trkpt lat="37.55388" lon="126.694214"/><trkpt lat="37.553546" lon="126.694023"/><trkpt lat="37.553225" lon="126.693728"/><trkpt lat="37.552925" lon="126.693445"/><trkpt lat="37.552632" lon="126.693294"/><trkpt lat="37.552322" lon="126.692977"/><trkpt lat="37.551948" lon="126.692717"/><trkpt lat="37.551782" lon="126.692645"/></trkseg>
<trkseg><trkpt lat="37.547028" lon="126.711331"/><trkpt lat="37.547152" lon="126.711512"/></trkseg>
<trkseg><trkpt lat="37.550374" lon="126.729902"/><trkpt lat="37.550422" lon="126.72949"/><trkpt lat="37.550584" lon="126.728907"/><trkpt lat="37.550714" lon="126.728506"/></trkseg>
<trkseg><trkpt lat="37.557147" lon="126.706672"/><trkpt lat="37.557278" lon="126.706568"/><trkpt lat="37.557476" lon="126.706374"/><trkpt lat="37.557653" lon="126.706297"/><trkpt lat="37.557895" lon="126.706253"/><trkpt lat="37.558132" lon="126.706277"/><trkpt lat="37.558401" lon="126.706128"/><trkpt lat="37.558728" lon="126.706061"/><trkpt lat="37.558992" lon="126.706104"/><trkpt lat="37.559205" lon="126.70612"/><trkpt lat="37.559421" lon="126.706198"/><trkpt lat="37.559638" lon="126.706237"/><trkpt lat="37.559876" lon="126.706294"/><trkpt lat="37.560171" lon="126.706328"/><trkpt lat="37.560398" lon="126.706279"/><trkpt lat="37.560579" lon="126.706119"/><trkpt lat="37.560694" lon="126.70602"/><trkpt lat="37.560863" lon="126.706084"/><trkpt lat="37.560967" lon="126.706282"/><trkpt lat="37.561088" lon="126.706562"/><trkpt lat="37.561151" lon="126.706864"/><trkpt lat="37.561237" lon="126.707001"/></trkseg>
<trkseg><trkpt lat="37.560245" lon="126.707904"/><trkpt lat="37.560449" lon="126.707811"/><trkpt lat="37.560605" lon="126.707671"/><trkpt lat="37.560804" lon="126.707638"/></trkseg>
<trkseg><trkpt lat="37.560079" lon="126.709774"/><trkpt lat="37.559942" lon="126.710045"/><trkpt lat="37.559828" lon="126.710361"/><trkpt lat="37.55969" lon="126.71061"/><trkpt lat="37.559515" lon="126.71092"/></trkseg>
<trkseg><trkpt lat="37.566382" lon="126.714179"/><trkpt lat="37.566675" lon="126.714427"/><trkpt lat="37.566957" lon="126.714673"/><trkpt lat="37.567119" lon="126.714922"/><trkpt lat="37.567185" lon="126.715226"/><trkpt lat="37.567471" lon="126.715407"/><trkpt lat="37.567691" lon="126.715602"/><trkpt lat="37.567946" lon="126.71589"/><trkpt lat="37.568079" lon="126.716224"/><trkpt lat="37.56825" lon="126.716633"/><trkpt lat="37.56842" lon="126.71669"/><trkpt lat="37.568484" lon="126.716645"/></trkseg>
<trkseg><trkpt lat="37.560348" lon="126.715862"/><trkpt lat="37.560703" lon="126.715545"/><trkpt lat="37.561022" lon="126.715297"/><trkpt lat="37.561199" lon="126.715004"/><trkpt lat="37.561372" lon="126.71474"/><trkpt lat="37.561626" lon="126.714493"/><trkpt lat="37.561969" lon="126.71441"/><trkpt lat="37.562221" lon="126.714396"/></trkseg>
<trkseg><trkpt lat="37.564854" lon="126.711265"/><trkpt lat="37.564899" lon="126.710878"/><trkpt lat="37.564834" lon="126.710539"/><trkpt lat="37.564666" lon="126.7103"/><trkpt lat="37.564555" lon="126.710094"/><trkpt lat="37.564396" lon="126.710167"/><trkpt lat="37.56435" lon="126.710392"/><trkpt lat="37.56436" lon="126.710644"/><trkpt lat="37.564233" lon="126.71088"/><trkpt lat="37.564068" lon="126.711045"/><trkpt lat="37.563861" lon="126.71113"/><trkpt lat="37.563707" lon="126.71124"/></trkseg>
<trkseg><trkpt lat="37.564854" lon="126.711265"/><trkpt lat="37.564651" lon="126.711445"/><trkpt lat="37.564365" lon="126.711698"/><trkpt lat="37.564145" lon="126.711905"/><trkpt lat="37.564048" lon="126.712255"/><trkpt lat="37.563961" lon="126.712584"/><trkpt lat="37.563891" lon="126.712986"/><trkpt lat="37.563788" lon="126.713327"/></trkseg>
<trkseg><trkpt lat="37.563707" lon="126.71124"/><trkpt lat="37.563535" lon="126.7115"/><trkpt lat="37.563266" lon="126.711573"/></trkseg>
<trkseg><trkpt lat="37.563788" lon="126.713327"/><trkpt lat="37.564161" lon="126.712992"/><trkpt lat="37.564485" lon="126.712739"/><trkpt lat="37.56488" lon="126.712645"/></trkseg>
<trkseg><trkpt lat="37.563623" lon="126.713591"/><trkpt lat="37.563788" lon="126.713327"/></trkseg>
<trkseg><trkpt lat="37.562943" lon="126.714185"/><trkpt lat="37.563239" lon="126.713987"/><trkpt lat="37.563483" lon="126.71368"/><trkpt lat="37.563623" lon="126.713591"/></trkseg>
<trkseg><trkpt lat="37.562221" lon="126.714396"/><trkpt lat="37.562452" lon="126.714483"/><trkpt lat="37.562784" lon="126.714233"/><trkpt lat="37.562943" lon="126.714185"/></trkseg>
<trkseg><trkpt lat="37.560348" lon="126.715862"/><trkpt lat="37.560629" lon="126.715885"/><trkpt lat="37.560926" lon="126.715889"/><trkpt lat="37.56124" lon="126.715942"/><trkpt lat="37.561429" lon="126.716375"/><trkpt lat="37.561376" lon="126.716774"/><trkpt lat="37.561261" lon="126.717435"/><trkpt lat="37.561095" lon="126.718088"/><trkpt lat="37.56083" lon="126.718906"/><trkpt lat="37.560526" lon="126.719564"/><trkpt lat="37.560282" lon="126.72023"/><trkpt lat="37.560092" lon="126.720764"/><trkpt lat="37.560219" lon="126.721099"/><trkpt lat="37.560477" lon="126.721336"/><trkpt lat="37.560385" lon="126.721562"/><trkpt lat="37.560167" lon="126.721742"/><trkpt lat="37.560043" lon="126.721858"/></trkseg>
<trkseg><trkpt lat="37.559412" lon="126.716897"/><trkpt lat="37.559623" lon="126.716644"/><trkpt lat="37.559884" lon="126.716431"/><trkpt lat="37.560039" lon="126.716321"/></trkseg>
<trkseg><trkpt lat="37.55903" lon="126.717582"/><trkpt lat="37.559183" lon="126.717246"/><trkpt lat="37.559412" lon="126.716897"/></trkseg>
<trkseg><trkpt lat="37.557715" lon="126.719879"/><trkpt lat="37.55774" lon="126.719261"/><trkpt lat="37.558145" lon="126.718998"/><trkpt lat="37.558407" lon="126.718655"/><trkpt lat="37.558577" lon="126.718338"/></trkseg>
<trkseg><trkpt lat="37.558342" lon="126.720933"/><trkpt lat="37.558285" lon="126.721357"/><trkpt lat="37.558319" lon="126.721779"/><trkpt lat="37.558238" lon="126.722199"/><trkpt lat="37.558035" lon="126.722504"/><trkpt lat="37.55806" lon="126.722615"/></trkseg>
<trkseg><trkpt lat="37.556961" lon="126.720728"/><trkpt lat="37.557248" lon="126.720576"/><trkpt lat="37.557578" lon="126.720271"/><trkpt lat="37.557715" lon="126.719879"/></trkseg>
<trkseg><trkpt lat="37.555178" lon="126.72229"/><trkpt lat="37.555453" lon="126.722064"/><trkpt lat="37.555796" lon="126.72184"/><trkpt lat="37.556033" lon="126.72174"/><trkpt lat="37.556223" lon="126.721541"/><trkpt lat="37.556373" lon="126.721357"/><trkpt lat="37.556624" lon="126.721129"/><trkpt lat="37.556856" lon="126.720927"/><trkpt lat="37.556961" lon="126.720728"/></trkseg>
<trkseg><trkpt lat="37.554548" lon="126.722196"/><trkpt lat="37.554753" lon="126.722231"/><trkpt lat="37.554985" lon="126.722246"/><trkpt lat="37.555178" lon="126.72229"/></trkseg>
<trkseg><trkpt lat="37.555178" lon="126.72229"/><trkpt lat="37.555021" lon="126.72246"/><trkpt lat="37.554866" lon="126.722602"/><trkpt lat="37.554853" lon="126.722732"/></trkseg>
<trkseg><trkpt lat="37.554683" lon="126.722756"/><trkpt lat="37.554488" lon="126.722775"/><trkpt lat="37.554293" lon="126.722774"/><trkpt lat="37.554158" lon="126.722639"/></trkseg>
<trkseg><trkpt lat="37.554853" lon="126.722732"/><trkpt lat="37.554683" lon="126.722756"/></trkseg>
<trkseg><trkpt lat="37.554158" lon="126.722639"/><trkpt lat="37.554375" lon="126.7225"/><trkpt lat="37.554548" lon="126.722196"/></trkseg>
<trkseg><trkpt lat="37.553556" lon="126.722638"/><trkpt lat="37.55382" lon="126.722703"/><trkpt lat="37.554037" lon="126.722656"/><trkpt lat="37.554158" lon="126.722639"/></trkseg>
<trkseg><trkpt lat="37.552787" lon="126.722479"/><trkpt lat="37.553099" lon="126.722494"/><trkpt lat="37.553342" lon="126.72256"/><trkpt lat="37.553556" lon="126.722638"/></trkseg>
<trkseg><trkpt lat="37.553375" lon="126.722985"/><trkpt lat="37.553209" lon="126.722854"/><trkpt lat="37.553146" lon="126.722858"/></trkseg>
<trkseg><trkpt lat="37.552462" lon="126.722615"/><trkpt lat="37.552465" lon="126.722255"/><trkpt lat="37.552472" lon="126.721987"/><trkpt lat="37.552464" lon="126.721856"/></trkseg>
<trkseg><trkpt lat="37.552464" lon="126.721856"/><trkpt lat="37.55264" lon="126.721514"/><trkpt lat="37.552671" lon="126.721101"/><trkpt lat="37.552721" lon="126.720826"/><trkpt lat="37.552767" lon="126.720508"/></trkseg>
<trkseg><trkpt lat="37.552575" lon="126.722597"/><trkpt lat="37.552787" lon="126.722479"/></trkseg>
<trkseg><trkpt lat="37.553146" lon="126.722858"/><trkpt lat="37.552932" lon="126.722661"/><trkpt lat="37.552787" lon="126.722479"/></trkseg>
<trkseg><trkpt lat="37.551902" lon="126.72447"/><trkpt lat="37.552084" lon="126.724089"/><trkpt lat="37.552213" lon="126.72389"/><trkpt lat="37.552352" lon="126.723588"/><trkpt lat="37.552429" lon="126.72326"/><trkpt lat="37.552451" lon="126.722818"/><trkpt lat="37.552462" lon="126.722615"/></trkseg>
<trkseg><trkpt lat="37.549948" lon="126.724089"/><trkpt lat="37.550142" lon="126.724213"/><trkpt lat="37.550301" lon="126.724356"/><trkpt lat="37.550348" lon="126.724653"/><trkpt lat="37.550246" lon="126.724974"/><trkpt lat="37.550185" lon="126.725238"/><trkpt lat="37.550254" lon="126.725531"/><trkpt lat="37.550376" lon="126.725689"/><trkpt lat="37.550438" lon="126.725795"/></trkseg>
<trkseg><trkpt lat="37.549618" lon="126.723901"/><trkpt lat="37.549814" lon="126.724006"/><trkpt lat="37.549948" lon="126.724089"/></trkseg>
<trkseg><trkpt lat="37.549618" lon="126.723901"/><trkpt lat="37.549311" lon="126.724068"/><trkpt lat="37.549201" lon="126.724342"/><trkpt lat="37.549033" lon="126.724617"/><trkpt lat="37.548824" lon="126.725137"/><trkpt lat="37.548639" lon="126.725327"/><trkpt lat="37.548434" lon="126.725743"/><trkpt lat="37.548329" lon="126.726216"/><trkpt lat="37.548114" lon="126.726592"/><trkpt lat="37.547887" lon="126.726728"/></trkseg>
<trkseg><trkpt lat="37.547887" lon="126.726728"/><trkpt lat="37.547921" lon="126.727074"/><trkpt lat="37.54782" lon="126.727445"/><trkpt lat="37.54793" lon="126.727502"/><trkpt lat="37.547975" lon="126.727543"/></trkseg>
<trkseg><trkpt lat="37.54836" lon="126.729893"/><trkpt lat="37.548583" lon="126.730018"/></trkseg>
<trkseg><trkpt lat="37.548583" lon="126.730018"/><trkpt lat="37.548801" lon="126.730003"/><trkpt lat="37.548918" lon="126.730013"/></trkseg>
<trkseg><trkpt lat="37.548514" lon="126.730285"/><trkpt lat="37.548412" lon="126.73002"/><trkpt lat="37.54836" lon="126.729893"/></trkseg>
<trkseg><trkpt lat="37.54877" lon="126.729009"/><trkpt lat="37.548868" lon="126.728756"/><trkpt lat="37.548953" lon="126.728491"/><trkpt lat="37.548979" lon="126.7284"/></trkseg>
<trkseg><trkpt lat="37.548647" lon="126.729597"/><trkpt lat="37.548694" lon="126.729234"/><trkpt lat="37.54877" lon="126.729009"/></trkseg>
<trkseg><trkpt lat="37.548836" lon="126.729583"/><trkpt lat="37.548928" lon="126.729358"/><trkpt lat="37.548925" lon="126.729311"/></trkseg>
<trkseg><trkpt lat="37.548796" lon="126.728328"/><trkpt lat="37.548979" lon="126.7284"/></trkseg>
<trkseg><trkpt lat="37.548979" lon="126.7284"/><trkpt lat="37.549224" lon="126.728118"/><trkpt lat="37.549315" lon="126.727826"/><trkpt lat="37.549368" lon="126.727541"/><trkpt lat="37.549527" lon="126.72733"/><trkpt lat="37.549659" lon="126.727212"/></trkseg>
<trkseg><trkpt lat="37.549255" lon="126.729328"/><trkpt lat="37.54917" lon="126.7294"/></trkseg>
<trkseg><trkpt lat="37.54908" lon="126.72999"/><trkpt lat="37.549207" lon="126.729605"/><trkpt lat="37.54917" lon="126.7294"/></trkseg>
<trkseg><trkpt lat="37.549029" lon="126.73019"/><trkpt lat="37.54908" lon="126.72999"/></trkseg>
<trkseg><trkpt lat="37.54953" lon="126.729575"/><trkpt lat="37.549316" lon="126.729381"/><trkpt lat="37.549255" lon="126.729328"/></trkseg>
<trkseg><trkpt lat="37.549572" lon="126.72997"/><trkpt lat="37.549825" lon="126.730168"/><trkpt lat="37.550131" lon="126.730421"/><trkpt lat="37.550302" lon="126.730518"/></trkseg>
<trkseg><trkpt lat="37.54958" lon="126.729864"/><trkpt lat="37.549716" lon="126.729939"/><trkpt lat="37.549772" lon="126.729923"/></trkseg>
<trkseg><trkpt lat="37.548918" lon="126.730013"/><trkpt lat="37.54908" lon="126.72999"/></trkseg>
<trkseg><trkpt lat="37.548891" lon="126.73068"/><trkpt lat="37.548997" lon="126.730294"/><trkpt lat="37.549029" lon="126.73019"/></trkseg>
<trkseg><trkpt lat="37.548514" lon="126.730285"/><trkpt lat="37.548346" lon="126.730551"/><trkpt lat="37.548177" lon="126.731013"/><trkpt lat="37.548035" lon="126.731355"/><trkpt lat="37.548035" lon="126.731701"/><trkpt lat="37.548151" lon="126.732038"/><trkpt lat="37.54818" lon="126.732247"/><trkpt lat="37.548372" lon="126.732022"/><trkpt lat="37.548482" lon="126.731694"/><trkpt lat="37.548526" lon="126.731428"/><trkpt lat="37.548646" lon="126.731101"/><trkpt lat="37.548793" lon="126.73091"/><trkpt lat="37.548891" lon="126.73068"/></trkseg>
<trkseg><trkpt lat="37.550302" lon="126.730518"/><trkpt lat="37.550562" lon="126.730507"/><trkpt lat="37.550795" lon="126.730294"/><trkpt lat="37.550945" lon="126.730149"/><trkpt lat="37.55108" lon="126.729988"/><trkpt lat="37.551275" lon="126.729751"/><trkpt lat="37.551503" lon="126.729552"/><trkpt lat="37.551686" lon="126.729324"/><trkpt lat="37.551918" lon="126.729007"/><trkpt lat="37.552335" lon="126.728971"/><trkpt lat="37.552608" lon="126.728871"/><trkpt lat="37.552703" lon="126.728822"/></trkseg>
<trkseg><trkpt lat="37.550732" lon="126.732808"/><trkpt lat="37.550608" lon="126.733165"/><trkpt lat="37.550449" lon="126.733489"/><trkpt lat="37.550286" lon="126.733919"/><trkpt lat="37.550252" lon="126.734318"/><trkpt lat="37.550225" lon="126.734727"/><trkpt lat="37.550098" lon="126.735187"/><trkpt lat="37.550035" lon="126.735346"/></trkseg>
<trkseg><trkpt lat="37.550035" lon="126.735346"/><trkpt lat="37.549899" lon="126.73581"/><trkpt lat="37.549869" lon="126.736059"/></trkseg>
<trkseg><trkpt lat="37.549869" lon="126.736059"/><trkpt lat="37.54987" lon="126.736305"/><trkpt lat="37.549853" lon="126.736406"/></trkseg>
<trkseg><trkpt lat="37.549853" lon="126.736406"/><trkpt lat="37.549755" lon="126.73675"/><trkpt lat="37.549665" lon="126.737142"/><trkpt lat="37.549714" lon="126.737536"/><trkpt lat="37.549816" lon="126.737792"/></trkseg>
<trkseg><trkpt lat="37.550162" lon="126.738196"/><trkpt lat="37.550093" lon="126.737942"/><trkpt lat="37.549816" lon="126.737792"/></trkseg>
<trkseg><trkpt lat="37.549816" lon="126.737792"/><trkpt lat="37.549928" lon="126.738129"/><trkpt lat="37.550101" lon="126.7383"/></trkseg>
<trkseg><trkpt lat="37.550101" lon="126.738296"/><trkpt lat="37.550162" lon="126.738196"/></trkseg>
<trkseg><trkpt lat="37.554772" lon="126.721556"/><trkpt lat="37.55495" lon="126.721567"/><trkpt lat="37.555161" lon="126.721358"/><trkpt lat="37.555399" lon="126.721113"/><trkpt lat="37.55574" lon="126.720926"/><trkpt lat="37.55594" lon="126.720799"/><trkpt lat="37.556198" lon="126.720692"/><trkpt lat="37.556603" lon="126.720808"/><trkpt lat="37.556812" lon="126.720754"/><trkpt lat="37.556961" lon="126.720728"/></trkseg>
<trkseg><trkpt lat="37.554772" lon="126.721556"/><trkpt lat="37.554782" lon="126.721295"/><trkpt lat="37.554738" lon="126.72104"/><trkpt lat="37.554656" lon="126.720742"/><trkpt lat="37.554708" lon="126.72048"/><trkpt lat="37.554783" lon="126.72028"/><trkpt lat="37.55477" lon="126.720016"/><trkpt lat="37.554715" lon="126.71963"/><trkpt lat="37.554669" lon="126.719336"/><trkpt lat="37.554556" lon="126.719103"/><trkpt lat="37.554351" lon="126.718937"/><trkpt lat="37.554194" lon="126.718839"/><trkpt lat="37.553977" lon="126.718802"/><trkpt lat="37.553671" lon="126.718841"/><trkpt lat="37.55361" lon="126.719079"/><trkpt lat="37.553549" lon="126.71936"/><trkpt lat="37.553333" lon="126.719526"/><trkpt lat="37.553163" lon="126.719678"/><trkpt lat="37.552958" lon="126.719887"/><trkpt lat="37.552842" lon="126.720272"/><trkpt lat="37.552767" lon="126.720508"/></trkseg>
<trkseg><trkpt lat="37.552767" lon="126.720508"/><trkpt lat="37.552683" lon="126.720186"/><trkpt lat="37.552676" lon="126.719879"/><trkpt lat="37.552736" lon="126.719563"/><trkpt lat="37.552746" lon="126.719343"/><trkpt lat="37.552827" lon="126.719103"/><trkpt lat="37.552905" lon="126.718899"/><trkpt lat="37.552963" lon="126.718647"/><trkpt lat="37.553021" lon="126.718264"/><trkpt lat="37.553143" lon="126.717978"/><trkpt lat="37.55316" lon="126.71772"/><trkpt lat="37.553205" lon="126.717456"/><trkpt lat="37.55322" lon="126.717316"/><trkpt lat="37.553341" lon="126.717069"/><trkpt lat="37.553388" lon="126.716753"/><trkpt lat="37.553395" lon="126.71645"/><trkpt lat="37.553411" lon="126.716181"/><trkpt lat="37.55325" lon="126.715965"/><trkpt lat="37.553133" lon="126.715669"/><trkpt lat="37.553139" lon="126.715341"/><trkpt lat="37.553147" lon="126.714941"/><trkpt lat="37.553138" lon="126.714601"/><trkpt lat="37.553255" lon="126.714252"/><trkpt lat="37.55327" lon="126.714118"/></trkseg>
<trkseg><trkpt lat="37.553539" lon="126.713381"/><trkpt lat="37.553457" lon="126.713756"/><trkpt lat="37.553351" lon="126.71395"/></trkseg>
<trkseg><trkpt lat="37.553351" lon="126.71395"/><trkpt lat="37.55327" lon="126.714118"/></trkseg>
<trkseg><trkpt lat="37.553727" lon="126.713944"/><trkpt lat="37.553483" lon="126.714166"/><trkpt lat="37.55327" lon="126.714118"/></trkseg>
<trkseg><trkpt lat="37.557391" lon="126.714809"/><trkpt lat="37.557127" lon="126.714817"/><trkpt lat="37.556837" lon="126.714835"/><trkpt lat="37.556576" lon="126.714761"/><trkpt lat="37.556355" lon="126.714773"/><trkpt lat="37.556046" lon="126.714708"/><trkpt lat="37.555825" lon="126.714462"/><trkpt lat="37.555564" lon="126.714431"/><trkpt lat="37.555235" lon="126.714406"/><trkpt lat="37.554836" lon="126.714413"/><trkpt lat="37.554604" lon="126.714367"/><trkpt lat="37.554273" lon="126.714196"/><trkpt lat="37.554025" lon="126.714114"/><trkpt lat="37.553794" lon="126.714015"/><trkpt lat="37.553727" lon="126.713944"/></trkseg>
<trkseg><trkpt lat="37.559395" lon="126.71427"/><trkpt lat="37.559089" lon="126.71434"/><trkpt lat="37.558799" lon="126.714441"/><trkpt lat="37.558559" lon="126.714496"/><trkpt lat="37.558171" lon="126.71455"/><trkpt lat="37.557914" lon="126.714625"/><trkpt lat="37.557665" lon="126.71475"/><trkpt lat="37.557391" lon="126.714821"/></trkseg>
<trkseg><trkpt lat="37.556347" lon="126.707614"/><trkpt lat="37.556493" lon="126.707747"/><trkpt lat="37.55667" lon="126.707896"/><trkpt lat="37.556826" lon="126.707992"/></trkseg>
<trkseg><trkpt lat="37.559395" lon="126.71427"/><trkpt lat="37.559519" lon="126.71459"/><trkpt lat="37.559644" lon="126.715002"/><trkpt lat="37.559781" lon="126.715342"/><trkpt lat="37.560036" lon="126.715728"/><trkpt lat="37.560348" lon="126.715862"/></trkseg>
<trkseg><trkpt lat="37.559515" lon="126.71092"/><trkpt lat="37.559361" lon="126.711324"/><trkpt lat="37.559245" lon="126.711634"/><trkpt lat="37.559138" lon="126.711924"/><trkpt lat="37.559195" lon="126.71229"/><trkpt lat="37.55933" lon="126.712634"/><trkpt lat="37.559378" lon="126.712997"/><trkpt lat="37.559369" lon="126.713408"/><trkpt lat="37.559381" lon="126.713869"/><trkpt lat="37.55938" lon="126.714207"/><trkpt lat="37.559395" lon="126.71427"/></trkseg>
<trkseg><trkpt lat="37.559298" lon="126.710378"/><trkpt lat="37.559456" lon="126.710592"/><trkpt lat="37.559515" lon="126.71092"/></trkseg>
<trkseg><trkpt lat="37.559249" lon="126.710042"/><trkpt lat="37.559031" lon="126.710063"/><trkpt lat="37.55895" lon="126.71009"/></trkseg>
<trkseg><trkpt lat="37.55895" lon="126.71009"/><trkpt lat="37.55911" lon="126.71031"/><trkpt lat="37.559298" lon="126.710378"/></trkseg>
<trkseg><trkpt lat="37.555485" lon="126.705988"/><trkpt lat="37.555714" lon="126.706377"/><trkpt lat="37.555891" lon="126.706783"/><trkpt lat="37.556041" lon="126.707142"/><trkpt lat="37.556241" lon="126.707515"/><trkpt lat="37.556347" lon="126.707614"/></trkseg>
<trkseg><trkpt lat="37.554041" lon="126.705574"/><trkpt lat="37.554233" lon="126.705379"/><trkpt lat="37.554464" lon="126.705305"/><trkpt lat="37.554685" lon="126.705262"/><trkpt lat="37.55487" lon="126.705165"/><trkpt lat="37.555091" lon="126.705303"/><trkpt lat="37.555271" lon="126.705498"/><trkpt lat="37.555415" lon="126.705736"/><trkpt lat="37.555485" lon="126.705988"/></trkseg>
<trkseg><trkpt lat="37.55371" lon="126.705537"/><trkpt lat="37.553894" lon="126.705552"/><trkpt lat="37.554041" lon="126.705574"/></trkseg>
<trkseg><trkpt lat="37.551265" lon="126.70631"/><trkpt lat="37.551417" lon="126.706353"/></trkseg>
<trkseg><trkpt lat="37.551417" lon="126.706353"/><trkpt lat="37.551629" lon="126.706514"/><trkpt lat="37.551889" lon="126.706574"/><trkpt lat="37.552164" lon="126.706572"/><trkpt lat="37.552433" lon="126.706623"/><trkpt lat="37.552713" lon="126.706663"/><trkpt lat="37.552982" lon="126.706794"/><trkpt lat="37.553189" lon="126.707054"/><trkpt lat="37.553334" lon="126.707279"/><trkpt lat="37.553622" lon="126.707373"/><trkpt lat="37.553898" lon="126.707218"/><trkpt lat="37.554145" lon="126.707111"/><trkpt lat="37.554352" lon="126.707212"/><trkpt lat="37.554595" lon="126.707393"/><trkpt lat="37.554872" lon="126.707519"/><trkpt lat="37.555105" lon="126.707511"/><trkpt lat="37.555368" lon="126.707514"/><trkpt lat="37.555657" lon="126.707548"/><trkpt lat="37.555981" lon="126.707541"/><trkpt lat="37.556347" lon="126.707614"/></trkseg>
<trkseg><trkpt lat="37.551471" lon="126.70731"/><trkpt lat="37.551579" lon="126.707635"/><trkpt lat="37.551768" lon="126.707874"/><trkpt lat="37.551773" lon="126.708177"/><trkpt lat="37.551762" lon="126.708282"/></trkseg>
<trkseg><trkpt lat="37.548085" lon="126.707079"/><trkpt lat="37.547927" lon="126.707444"/><trkpt lat="37.547834" lon="126.707594"/><trkpt lat="37.547864" lon="126.707549"/></trkseg>
<trkseg><trkpt lat="37.548092" lon="126.707577"/><trkpt lat="37.548123" lon="126.707339"/><trkpt lat="37.548085" lon="126.707079"/></trkseg>
<trkseg><trkpt lat="37.547973" lon="126.707682"/><trkpt lat="37.548127" lon="126.707712"/></trkseg>
<trkseg><trkpt lat="37.548127" lon="126.707712"/><trkpt lat="37.548092" lon="126.707577"/></trkseg>
<trkseg><trkpt lat="37.547816" lon="126.707882"/><trkpt lat="37.547862" lon="126.708291"/><trkpt lat="37.547701" lon="126.7086"/><trkpt lat="37.547592" lon="126.708906"/><trkpt lat="37.547485" lon="126.709282"/><trkpt lat="37.547406" lon="126.70964"/><trkpt lat="37.547253" lon="126.710056"/><trkpt lat="37.547083" lon="126.710367"/><trkpt lat="37.547047" lon="126.710506"/></trkseg>
<trkseg><trkpt lat="37.547834" lon="126.707594"/><trkpt lat="37.547973" lon="126.707682"/></trkseg>
<trkseg><trkpt lat="37.547403" lon="126.708092"/><trkpt lat="37.547565" lon="126.707933"/></trkseg>
<trkseg><trkpt lat="37.546267" lon="126.709553"/><trkpt lat="37.546493" lon="126.709189"/><trkpt lat="37.546753" lon="126.708872"/><trkpt lat="37.546973" lon="126.708674"/><trkpt lat="37.547221" lon="126.708265"/><trkpt lat="37.547403" lon="126.708092"/></trkseg>
<trkseg><trkpt lat="37.546883" lon="126.710905"/><trkpt lat="37.546908" lon="126.711186"/></trkseg>
<trkseg><trkpt lat="37.546908" lon="126.711186"/><trkpt lat="37.546765" lon="126.711426"/></trkseg>
<trkseg><trkpt lat="37.547047" lon="126.710506"/><trkpt lat="37.546955" lon="126.710714"/><trkpt lat="37.546883" lon="126.710905"/></trkseg>
<trkseg><trkpt lat="37.547101" lon="126.712059"/><trkpt lat="37.547536" lon="126.712097"/></trkseg>
<trkseg><trkpt lat="37.547349" lon="126.713436"/><trkpt lat="37.547227" lon="126.713575"/></trkseg>
<trkseg><trkpt lat="37.54696" lon="126.712046"/><trkpt lat="37.547101" lon="126.712059"/></trkseg>
<trkseg><trkpt lat="37.547271" lon="126.711564"/><trkpt lat="37.547555" lon="126.711612"/><trkpt lat="37.547825" lon="126.711615"/><trkpt lat="37.547908" lon="126.711627"/></trkseg>
<trkseg><trkpt lat="37.547969" lon="126.711489"/><trkpt lat="37.547908" lon="126.711627"/></trkseg>
<trkseg><trkpt lat="37.547474" lon="126.712946"/><trkpt lat="37.547438" lon="126.713233"/><trkpt lat="37.547411" lon="126.713324"/></trkseg>
<trkseg><trkpt lat="37.547411" lon="126.713324"/><trkpt lat="37.547349" lon="126.713436"/></trkseg>
<trkseg><trkpt lat="37.547227" lon="126.713575"/><trkpt lat="37.5471" lon="126.713705"/><trkpt lat="37.546988" lon="126.713751"/></trkseg>
<trkseg><trkpt lat="37.546988" lon="126.713751"/><trkpt lat="37.546901" lon="126.71321"/><trkpt lat="37.546826" lon="126.712713"/></trkseg>
<trkseg><trkpt lat="37.547031" lon="126.714108"/><trkpt lat="37.546988" lon="126.713751"/></trkseg>
<trkseg><trkpt lat="37.54785" lon="126.715639"/><trkpt lat="37.547807" lon="126.715274"/><trkpt lat="37.547662" lon="126.714809"/><trkpt lat="37.547393" lon="126.714524"/><trkpt lat="37.547139" lon="126.714244"/><trkpt lat="37.547031" lon="126.714108"/></trkseg>
<trkseg><trkpt lat="37.547753" lon="126.716448"/><trkpt lat="37.547793" lon="126.716101"/><trkpt lat="37.547834" lon="126.715715"/><trkpt lat="37.54785" lon="126.715639"/></trkseg>
<trkseg><trkpt lat="37.547787" lon="126.717003"/><trkpt lat="37.54757" lon="126.716933"/><trkpt lat="37.547434" lon="126.716954"/></trkseg>
<trkseg><trkpt lat="37.547434" lon="126.716954"/><trkpt lat="37.547228" lon="126.717021"/><trkpt lat="37.547123" lon="126.717031"/></trkseg>
<trkseg><trkpt lat="37.547123" lon="126.717031"/><trkpt lat="37.546858" lon="126.717192"/><trkpt lat="37.546619" lon="126.717321"/><trkpt lat="37.546481" lon="126.717426"/></trkseg>
<trkseg><trkpt lat="37.547004" lon="126.717734"/><trkpt lat="37.546866" lon="126.718139"/></trkseg>
<trkseg><trkpt lat="37.548477" lon="126.716879"/><trkpt lat="37.548218" lon="126.716887"/><trkpt lat="37.547891" lon="126.717"/><trkpt lat="37.547787" lon="126.717003"/></trkseg>
<trkseg><trkpt lat="37.551094" lon="126.714465"/><trkpt lat="37.550835" lon="126.714493"/><trkpt lat="37.550586" lon="126.714565"/><trkpt lat="37.550321" lon="126.714566"/><trkpt lat="37.550067" lon="126.71472"/><trkpt lat="37.549873" lon="126.714852"/><trkpt lat="37.549634" lon="126.715012"/><trkpt lat="37.549415" lon="126.715339"/><trkpt lat="37.549225" lon="126.715545"/><trkpt lat="37.549037" lon="126.715804"/><trkpt lat="37.548791" lon="126.716035"/><trkpt lat="37.548623" lon="126.716349"/><trkpt lat="37.548507" lon="126.716595"/></trkseg>
<trkseg><trkpt lat="37.548477" lon="126.716879"/><trkpt lat="37.548799" lon="126.716793"/><trkpt lat="37.549114" lon="126.716757"/><trkpt lat="37.54936" lon="126.71667"/><trkpt lat="37.549617" lon="126.716659"/><trkpt lat="37.549846" lon="126.716569"/><trkpt lat="37.550089" lon="126.716441"/><trkpt lat="37.550164" lon="126.716147"/><trkpt lat="37.550259" lon="126.715751"/><trkpt lat="37.550444" lon="126.71554"/><trkpt lat="37.550575" lon="126.715257"/><trkpt lat="37.550735" lon="126.714982"/><trkpt lat="37.550999" lon="126.714745"/><trkpt lat="37.551094" lon="126.714465"/></trkseg>
<trkseg><trkpt lat="37.55327" lon="126.714118"/><trkpt lat="37.553034" lon="126.714211"/><trkpt lat="37.552825" lon="126.714407"/><trkpt lat="37.552585" lon="126.714512"/><trkpt lat="37.552415" lon="126.714548"/><trkpt lat="37.552316" lon="126.714471"/></trkseg>
<trkseg><trkpt lat="37.552316" lon="126.714471"/><trkpt lat="37.552107" lon="126.714471"/><trkpt lat="37.551921" lon="126.714528"/><trkpt lat="37.551737" lon="126.714556"/><trkpt lat="37.551512" lon="126.714485"/><trkpt lat="37.551291" lon="126.714407"/><trkpt lat="37.551094" lon="126.714465"/></trkseg>
<trkseg><trkpt lat="37.551762" lon="126.708282"/><trkpt lat="37.551796" lon="126.708586"/><trkpt lat="37.551799" lon="126.708982"/><trkpt lat="37.551806" lon="126.709326"/><trkpt lat="37.551785" lon="126.709716"/><trkpt lat="37.551797" lon="126.709996"/></trkseg>
<trkseg><trkpt lat="37.563266" lon="126.711573"/><trkpt lat="37.563323" lon="126.711203"/><trkpt lat="37.563387" lon="126.710791"/><trkpt lat="37.563307" lon="126.710446"/><trkpt lat="37.563263" lon="126.710017"/></trkseg>
<trkseg><trkpt lat="37.563263" lon="126.710017"/><trkpt lat="37.563295" lon="126.709572"/><trkpt lat="37.563504" lon="126.709264"/><trkpt lat="37.563662" lon="126.708839"/><trkpt lat="37.563805" lon="126.708362"/><trkpt lat="37.563971" lon="126.707918"/></trkseg>
<trkseg><trkpt lat="37.562807" lon="126.70956"/><trkpt lat="37.562932" lon="126.709185"/><trkpt lat="37.56316" lon="126.708929"/><trkpt lat="37.563397" lon="126.708691"/><trkpt lat="37.563514" lon="126.708262"/><trkpt lat="37.563571" lon="126.707943"/><trkpt lat="37.563816" lon="126.707912"/><trkpt lat="37.563971" lon="126.707918"/></trkseg>
<trkseg><trkpt lat="37.563971" lon="126.707918"/><trkpt lat="37.564175" lon="126.707788"/><trkpt lat="37.564359" lon="126.707531"/><trkpt lat="37.564541" lon="126.707394"/><trkpt lat="37.564783" lon="126.707329"/><trkpt lat="37.565061" lon="126.707188"/><trkpt lat="37.565315" lon="126.706942"/><trkpt lat="37.565495" lon="126.70677"/><trkpt lat="37.565678" lon="126.706834"/><trkpt lat="37.565878" lon="126.706772"/><trkpt lat="37.566092" lon="126.706464"/><trkpt lat="37.566157" lon="126.706287"/></trkseg>
<trkseg><trkpt lat="37.54908" lon="126.72999"/><trkpt lat="37.549292" lon="126.729818"/><trkpt lat="37.549487" lon="126.72993"/><trkpt lat="37.549572" lon="126.72997"/></trkseg>
<trkseg><trkpt lat="37.550714" lon="126.728506"/><trkpt lat="37.550616" lon="126.728304"/><trkpt lat="37.550489" lon="126.728153"/><trkpt lat="37.550132" lon="126.727753"/><trkpt lat="37.549912" lon="126.727474"/><trkpt lat="37.549659" lon="126.727212"/></trkseg>
<trkseg><trkpt lat="37.551159" lon="126.728039"/><trkpt lat="37.551321" lon="126.727676"/><trkpt lat="37.551501" lon="126.727579"/><trkpt lat="37.551702" lon="126.727569"/><trkpt lat="37.551945" lon="126.727413"/><trkpt lat="37.55216" lon="126.727331"/><trkpt lat="37.552516" lon="126.727189"/><trkpt lat="37.552765" lon="126.726948"/><trkpt lat="37.552978" lon="126.726706"/><trkpt lat="37.553193" lon="126.726534"/><trkpt lat="37.553125" lon="126.726299"/><trkpt lat="37.552933" lon="126.726051"/><trkpt lat="37.55272" lon="126.725837"/><trkpt lat="37.552567" lon="126.725534"/><trkpt lat="37.55251" lon="126.725034"/><trkpt lat="37.552588" lon="126.72475"/><trkpt lat="37.552839" lon="126.724531"/><trkpt lat="37.553096" lon="126.724325"/><trkpt lat="37.553258" lon="126.723989"/><trkpt lat="37.553425" lon="126.723622"/><trkpt lat="37.55345" lon="126.72322"/><trkpt lat="37.553375" lon="126.722985"/></trkseg>
<trkseg><trkpt lat="37.549659" lon="126.727212"/><trkpt lat="37.549947" lon="126.726863"/><trkpt lat="37.550042" lon="126.726556"/><trkpt lat="37.550223" lon="126.726169"/><trkpt lat="37.550395" lon="126.725847"/><trkpt lat="37.550438" lon="126.725795"/></trkseg>
<trkseg><trkpt lat="37.551061" lon="126.703668"/><trkpt lat="37.551273" lon="126.703694"/><trkpt lat="37.55159" lon="126.703716"/><trkpt lat="37.551895" lon="126.703766"/><trkpt lat="37.552205" lon="126.703862"/><trkpt lat="37.552544" lon="126.703936"/><trkpt lat="37.552845" lon="126.704184"/><trkpt lat="37.553033" lon="126.70446"/><trkpt lat="37.55334" lon="126.704663"/><trkpt lat="37.553548" lon="126.705032"/><trkpt lat="37.553655" lon="126.705449"/><trkpt lat="37.55371" lon="126.705537"/></trkseg>
<trkseg><trkpt lat="37.551061" lon="126.703668"/><trkpt lat="37.550852" lon="126.703482"/><trkpt lat="37.550672" lon="126.703321"/><trkpt lat="37.550462" lon="126.703141"/><trkpt lat="37.55029" lon="126.702938"/><trkpt lat="37.550084" lon="126.702688"/><trkpt lat="37.549954" lon="126.70256"/></trkseg>
<trkseg><trkpt lat="37.548888" lon="126.705377"/><trkpt lat="37.548774" lon="126.705666"/><trkpt lat="37.548603" lon="126.706021"/><trkpt lat="37.548434" lon="126.7063"/><trkpt lat="37.548255" lon="126.706675"/><trkpt lat="37.548085" lon="126.707079"/></trkseg>
<trkseg><trkpt lat="37.547565" lon="126.707933"/><trkpt lat="37.547748" lon="126.707703"/></trkseg>
<trkseg><trkpt lat="37.547834" lon="126.707594"/><trkpt lat="37.547748" lon="126.707703"/></trkseg>
<trkseg><trkpt lat="37.554677" lon="126.723597"/><trkpt lat="37.55468" lon="126.723863"/><trkpt lat="37.554723" lon="126.724175"/><trkpt lat="37.554768" lon="126.724542"/><trkpt lat="37.554753" lon="126.724854"/><trkpt lat="37.55467" lon="126.725134"/><trkpt lat="37.554503" lon="126.725538"/><trkpt lat="37.554385" lon="126.725799"/><trkpt lat="37.55419" lon="126.72602"/><trkpt lat="37.554143" lon="126.726076"/></trkseg>
<trkseg><trkpt lat="37.554143" lon="126.726076"/><trkpt lat="37.553903" lon="126.726056"/><trkpt lat="37.553838" lon="126.725971"/></trkseg>
<trkseg><trkpt lat="37.554853" lon="126.722732"/><trkpt lat="37.554793" lon="126.723055"/><trkpt lat="37.554749" lon="126.723382"/><trkpt lat="37.554677" lon="126.723597"/></trkseg>
<trkseg><trkpt lat="37.558577" lon="126.718338"/><trkpt lat="37.558769" lon="126.718044"/><trkpt lat="37.558961" lon="126.717783"/><trkpt lat="37.55903" lon="126.717582"/></trkseg>
<trkseg><trkpt lat="37.558484" lon="126.718008"/><trkpt lat="37.558643" lon="126.71774"/><trkpt lat="37.55884" lon="126.717611"/><trkpt lat="37.55903" lon="126.717582"/></trkseg>
<trkseg><trkpt lat="37.558484" lon="126.718008"/><trkpt lat="37.558577" lon="126.718338"/></trkseg>
<trkseg><trkpt lat="37.560039" lon="126.716321"/><trkpt lat="37.560214" lon="126.716086"/><trkpt lat="37.560348" lon="126.715862"/></trkseg>
<trkseg><trkpt lat="37.552462" lon="126.722615"/><trkpt lat="37.552267" lon="126.72259"/><trkpt lat="37.552034" lon="126.722756"/><trkpt lat="37.551767" lon="126.722846"/><trkpt lat="37.55154" lon="126.722973"/><trkpt lat="37.551262" lon="126.723015"/><trkpt lat="37.550982" lon="126.723007"/><trkpt lat="37.550752" lon="126.722977"/><trkpt lat="37.550555" lon="126.723046"/><trkpt lat="37.550338" lon="126.723129"/><trkpt lat="37.550076" lon="126.723226"/><trkpt lat="37.549834" lon="126.723511"/><trkpt lat="37.549618" lon="126.723901"/></trkseg>
<trkseg><trkpt lat="37.547908" lon="126.711627"/><trkpt lat="37.548243" lon="126.71169"/><trkpt lat="37.54829" lon="126.711884"/></trkseg>
<trkseg><trkpt lat="37.546492" lon="126.71233"/><trkpt lat="37.546431" lon="126.711998"/><trkpt lat="37.546605" lon="126.711808"/><trkpt lat="37.546741" lon="126.711492"/><trkpt lat="37.546765" lon="126.711426"/></trkseg>
<trkseg><trkpt lat="37.546765" lon="126.711426"/><trkpt lat="37.547028" lon="126.711331"/></trkseg>
<trkseg><trkpt lat="37.553539" lon="126.713381"/><trkpt lat="37.553445" lon="126.712965"/><trkpt lat="37.553353" lon="126.712677"/><trkpt lat="37.553429" lon="126.712352"/><trkpt lat="37.553592" lon="126.712052"/><trkpt lat="37.553788" lon="126.711758"/><trkpt lat="37.553945" lon="126.711448"/><trkpt lat="37.554057" lon="126.711208"/><trkpt lat="37.554188" lon="126.71088"/><trkpt lat="37.554355" lon="126.71065"/><trkpt lat="37.55435" lon="126.710303"/><trkpt lat="37.5544" lon="126.710015"/><trkpt lat="37.554453" lon="126.709681"/><trkpt lat="37.554592" lon="126.709359"/><trkpt lat="37.554783" lon="126.70918"/><trkpt lat="37.555071" lon="126.708815"/><trkpt lat="37.555391" lon="126.708579"/><trkpt lat="37.5557" lon="126.708402"/><trkpt lat="37.555991" lon="126.708027"/><trkpt lat="37.556284" lon="126.707687"/><trkpt lat="37.556347" lon="126.707614"/></trkseg>
<trkseg><trkpt lat="37.560001" lon="126.711825"/><trkpt lat="37.560362" lon="126.711717"/><trkpt lat="37.560741" lon="126.71155"/><trkpt lat="37.56104" lon="126.711313"/><trkpt lat="37.561267" lon="126.711093"/><trkpt lat="37.561619" lon="126.710888"/><trkpt lat="37.561788" lon="126.71061"/><trkpt lat="37.562045" lon="126.710242"/><trkpt lat="37.562177" lon="126.70993"/><trkpt lat="37.56242" lon="126.709915"/><trkpt lat="37.562718" lon="126.709788"/><trkpt lat="37.562807" lon="126.70956"/></trkseg>
<trkseg><trkpt lat="37.559515" lon="126.71092"/><trkpt lat="37.559669" lon="126.711234"/><trkpt lat="37.559886" lon="126.711619"/><trkpt lat="37.560001" lon="126.711825"/></trkseg>
<trkseg><trkpt lat="37.546866" lon="126.718139"/><trkpt lat="37.546626" lon="126.718305"/></trkseg>
<trkseg><trkpt lat="37.549099" lon="126.735378"/><trkpt lat="37.548864" lon="126.735348"/></trkseg>
<trkseg><trkpt lat="37.548864" lon="126.735348"/><trkpt lat="37.548749" lon="126.735571"/></trkseg>
<trkseg><trkpt lat="37.548816" lon="126.734772"/><trkpt lat="37.549002" lon="126.734429"/><trkpt lat="37.549055" lon="126.734073"/><trkpt lat="37.549089" lon="126.733709"/><trkpt lat="37.549167" lon="126.733561"/><trkpt lat="37.54936" lon="126.733398"/><trkpt lat="37.549519" lon="126.733195"/><trkpt lat="37.549874" lon="126.733104"/><trkpt lat="37.550151" lon="126.733025"/><trkpt lat="37.550488" lon="126.732867"/><trkpt lat="37.550732" lon="126.732808"/></trkseg>
<trkseg><trkpt lat="37.549242" lon="126.735143"/><trkpt lat="37.549099" lon="126.735378"/></trkseg>
<trkseg><trkpt lat="37.550053" lon="126.736183"/><trkpt lat="37.549869" lon="126.736059"/></trkseg>
<trkseg><trkpt lat="37.549853" lon="126.736406"/><trkpt lat="37.550039" lon="126.73626"/><trkpt lat="37.550053" lon="126.736183"/></trkseg>
<trkseg><trkpt lat="37.55379" lon="126.728255"/><trkpt lat="37.554109" lon="126.728047"/><trkpt lat="37.554546" lon="126.727548"/></trkseg>
<trkseg><trkpt lat="37.552703" lon="126.728822"/><trkpt lat="37.552984" lon="126.728737"/><trkpt lat="37.553434" lon="126.728556"/><trkpt lat="37.553728" lon="126.728361"/><trkpt lat="37.55379" lon="126.728255"/></trkseg>
<trkseg><trkpt lat="37.548127" lon="126.707712"/><trkpt lat="37.54836" lon="126.707834"/><trkpt lat="37.548524" lon="126.708003"/><trkpt lat="37.548764" lon="126.708176"/><trkpt lat="37.548899" lon="126.708325"/><trkpt lat="37.549069" lon="126.708428"/><trkpt lat="37.549274" lon="126.708558"/><trkpt lat="37.549467" lon="126.708666"/><trkpt lat="37.549681" lon="126.708792"/><trkpt lat="37.549859" lon="126.70897"/><trkpt lat="37.54995" lon="126.709181"/><trkpt lat="37.550016" lon="126.709477"/><trkpt lat="37.550134" lon="126.709675"/><trkpt lat="37.550351" lon="126.709818"/><trkpt lat="37.550556" lon="126.709934"/><trkpt lat="37.550794" lon="126.710019"/><trkpt lat="37.550972" lon="126.710044"/><trkpt lat="37.551202" lon="126.710125"/><trkpt lat="37.551541" lon="126.710201"/><trkpt lat="37.55162" lon="126.710213"/></trkseg>
<trkseg><trkpt lat="37.55162" lon="126.710213"/><trkpt lat="37.551797" lon="126.709996"/></trkseg>
<trkseg><trkpt lat="37.551797" lon="126.709996"/><trkpt lat="37.551798" lon="126.710163"/><trkpt lat="37.551726" lon="126.710231"/></trkseg>
<trkseg><trkpt lat="37.55162" lon="126.710213"/><trkpt lat="37.551726" lon="126.710231"/></trkseg>
<trkseg><trkpt lat="37.547536" lon="126.712097"/><trkpt lat="37.547532" lon="126.712518"/><trkpt lat="37.547515" lon="126.712793"/><trkpt lat="37.547474" lon="126.712946"/></trkseg>
<trkseg><trkpt lat="37.547152" lon="126.711512"/><trkpt lat="37.547271" lon="126.711564"/></trkseg>
<trkseg><trkpt lat="37.56488" lon="126.712645"/><trkpt lat="37.565266" lon="126.712634"/><trkpt lat="37.565521" lon="126.71266"/></trkseg>
<trkseg><trkpt lat="37.565521" lon="126.71266"/><trkpt lat="37.565637" lon="126.712887"/><trkpt lat="37.565673" lon="126.713"/></trkseg>
<trkseg><trkpt lat="37.565673" lon="126.713"/><trkpt lat="37.565776" lon="126.713233"/><trkpt lat="37.56582" lon="126.713528"/><trkpt lat="37.565954" lon="126.713805"/><trkpt lat="37.566083" lon="126.713976"/><trkpt lat="37.566293" lon="126.714146"/><trkpt lat="37.566382" lon="126.714179"/></trkseg>
<trkseg><trkpt lat="37.556826" lon="126.707992"/><trkpt lat="37.55695" lon="126.708238"/><trkpt lat="37.557114" lon="126.708324"/><trkpt lat="37.557329" lon="126.708525"/><trkpt lat="37.557529" lon="126.708812"/><trkpt lat="37.557838" lon="126.709097"/><trkpt lat="37.557996" lon="126.709415"/><trkpt lat="37.558392" lon="126.709616"/><trkpt lat="37.558655" lon="126.709886"/><trkpt lat="37.55895" lon="126.71009"/></trkseg>
<trkseg><trkpt lat="37.557178" lon="126.708154"/><trkpt lat="37.557492" lon="126.708367"/><trkpt lat="37.557753" lon="126.708325"/><trkpt lat="37.558035" lon="126.708244"/><trkpt lat="37.558391" lon="126.708271"/><trkpt lat="37.558684" lon="126.708214"/><trkpt lat="37.559013" lon="126.708228"/><trkpt lat="37.55922" lon="126.708124"/><trkpt lat="37.559529" lon="126.708101"/><trkpt lat="37.559771" lon="126.708025"/><trkpt lat="37.560031" lon="126.707945"/><trkpt lat="37.560245" lon="126.707904"/></trkseg>
<trkseg><trkpt lat="37.556826" lon="126.707992"/><trkpt lat="37.557017" lon="126.708097"/><trkpt lat="37.557178" lon="126.708154"/></trkseg>
</trk>
</gpx>
