<?xml version="1.0" encoding="UTF-8"?>
<gpx version="1.1" creator="letnaturechoose" xmlns="http://www.topografix.com/GPX/1/1">
<metadata><name>우성이산 등산로</name></metadata>
<trk><name>우성이산</name>
<trkseg><trkpt lat="36.380462" lon="127.382985"/><trkpt lat="36.380626" lon="127.382631"/><trkpt lat="36.380669" lon="127.382577"/></trkseg>
<trkseg><trkpt lat="36.377697" lon="127.397594"/><trkpt lat="36.377874" lon="127.397208"/><trkpt lat="36.377957" lon="127.396981"/><trkpt lat="36.377771" lon="127.396879"/></trkseg>
<trkseg><trkpt lat="36.381826" lon="127.392182"/><trkpt lat="36.381561" lon="127.392044"/><trkpt lat="36.381257" lon="127.392115"/><trkpt lat="36.381122" lon="127.392232"/><trkpt lat="36.380972" lon="127.392287"/><trkpt lat="36.380859" lon="127.392277"/></trkseg>
<trkseg><trkpt lat="36.388833" lon="127.381361"/><trkpt lat="36.388916" lon="127.381785"/><trkpt lat="36.388835" lon="127.38219"/><trkpt lat="36.388482" lon="127.382237"/></trkseg>
<trkseg><trkpt lat="36.388244" lon="127.382556"/><trkpt lat="36.388176" lon="127.382331"/><trkpt lat="36.388091" lon="127.381984"/><trkpt lat="36.388108" lon="127.381814"/></trkseg>
<trkseg><trkpt lat="36.377746" lon="127.396933"/><trkpt lat="36.377594" lon="127.396908"/><trkpt lat="36.377369" lon="127.396679"/><trkpt lat="36.377083" lon="127.396808"/><trkpt lat="36.376986" lon="127.396745"/></trkseg>
<trkseg><trkpt lat="36.377771" lon="127.396879"/><trkpt lat="36.377746" lon="127.396933"/></trkseg>
<trkseg><trkpt lat="36.380859" lon="127.392277"/><trkpt lat="36.380784" lon="127.392842"/><trkpt lat="36.380543" lon="127.393161"/><trkpt lat="36.380126" lon="127.393492"/><trkpt lat="36.379913" lon="127.393723"/><trkpt lat="36.379909" lon="127.394128"/><trkpt lat="36.379635" lon="127.394309"/><trkpt lat="36.379322" lon="127.39459"/><trkpt lat="36.379066" lon="127.394787"/><trkpt lat="36.37882" lon="127.394781"/><trkpt lat="36.378671" lon="127.395087"/><trkpt lat="36.378618" lon="127.395435"/><trkpt lat="36.378366" lon="127.395552"/><trkpt lat="36.378236" lon="127.395672"/><trkpt lat="36.378076" lon="127.395911"/><trkpt lat="36.377942" lon="127.396142"/><trkpt lat="36.377814" lon="127.396344"/><trkpt lat="36.377798" lon="127.39677"/><trkpt lat="36.377771" lon="127.396879"/></trkseg>
<trkseg><trkpt lat="36.38137" lon="127.391092"/><trkpt lat="36.381188" lon="127.391198"/><trkpt lat="36.381093" lon="127.391325"/><trkpt lat="36.380921" lon="127.391452"/><trkpt lat="36.380914" lon="127.391874"/><trkpt lat="36.380859" lon="127.392277"/></trkseg>
<trkseg><trkpt lat="36.381399" lon="127.391216"/><trkpt lat="36.381543" lon="127.391449"/><trkpt lat="36.381684" lon="127.391572"/><trkpt lat="36.381832" lon="127.391873"/><trkpt lat="36.381862" lon="127.392056"/></trkseg>
<trkseg><trkpt lat="36.38137" lon="127.391092"/><trkpt lat="36.381399" lon="127.391216"/></trkseg>
<trkseg><trkpt lat="36.382621" lon="127.38697"/><trkpt lat="36.382294" lon="127.387307"/><trkpt lat="36.381891" lon="127.387725"/><trkpt lat="36.381587" lon="127.388074"/><trkpt lat="36.381424" lon="127.388267"/></trkseg>
<trkseg><trkpt lat="36.387442" lon="127.384393"/><trkpt lat="36.387117" lon="127.384396"/><trkpt lat="36.386861" lon="127.384725"/><trkpt lat="36.386521" lon="127.385022"/><trkpt lat="36.386246" lon="127.385307"/><trkpt lat="36.385852" lon="127.38542"/><trkpt lat="36.385249" lon="127.385461"/><trkpt lat="36.385124" lon="127.385554"/></trkseg>
<trkseg><trkpt lat="36.38783" lon="127.3843"/><trkpt lat="36.387442" lon="127.384393"/></trkseg>
<trkseg><trkpt lat="36.389214" lon="127.384056"/><trkpt lat="36.389005" lon="127.384154"/><trkpt lat="36.388816" lon="127.384317"/><trkpt lat="36.38846" lon="127.384437"/><trkpt lat="36.388168" lon="127.38432"/><trkpt lat="36.38783" lon="127.3843"/></trkseg>
<trkseg><trkpt lat="36.390425" lon="127.382886"/><trkpt lat="36.390261" lon="127.383178"/><trkpt lat="36.390101" lon="127.38349"/><trkpt lat="36.389814" lon="127.383514"/><trkpt lat="36.389511" lon="127.383761"/><trkpt lat="36.389364" lon="127.384045"/><trkpt lat="36.389214" lon="127.384056"/></trkseg>
<trkseg><trkpt lat="36.393197" lon="127.38032"/><trkpt lat="36.393073" lon="127.38052"/><trkpt lat="36.392919" lon="127.380593"/><trkpt lat="36.392698" lon="127.380734"/><trkpt lat="36.392295" lon="127.381029"/><trkpt lat="36.392119" lon="127.381211"/><trkpt lat="36.391905" lon="127.381346"/><trkpt lat="36.391677" lon="127.381533"/><trkpt lat="36.391483" lon="127.381783"/><trkpt lat="36.391363" lon="127.382146"/><trkpt lat="36.391109" lon="127.382247"/><trkpt lat="36.390843" lon="127.382313"/><trkpt lat="36.390615" lon="127.382514"/><trkpt lat="36.390425" lon="127.382886"/></trkseg>
<trkseg><trkpt lat="36.393636" lon="127.380045"/><trkpt lat="36.393386" lon="127.380226"/><trkpt lat="36.393197" lon="127.38032"/></trkseg>
<trkseg><trkpt lat="36.395895" lon="127.396869"/><trkpt lat="36.395779" lon="127.396687"/><trkpt lat="36.3956" lon="127.396474"/><trkpt lat="36.395429" lon="127.396221"/><trkpt lat="36.395557" lon="127.395901"/><trkpt lat="36.395773" lon="127.395724"/><trkpt lat="36.396064" lon="127.3955"/><trkpt lat="36.396249" lon="127.395274"/></trkseg>
<trkseg><trkpt lat="36.396572" lon="127.398668"/><trkpt lat="36.396468" lon="127.39849"/><trkpt lat="36.396375" lon="127.398235"/><trkpt lat="36.396332" lon="127.398029"/><trkpt lat="36.396234" lon="127.397934"/><trkpt lat="36.39636" lon="127.397848"/><trkpt lat="36.396376" lon="127.397613"/><trkpt lat="36.396217" lon="127.397341"/><trkpt lat="36.396048" lon="127.397071"/><trkpt lat="36.395895" lon="127.396869"/></trkseg>
<trkseg><trkpt lat="36.377254" lon="127.397595"/><trkpt lat="36.377327" lon="127.397356"/><trkpt lat="36.377452" lon="127.397093"/><trkpt lat="36.377692" lon="127.397097"/><trkpt lat="36.377746" lon="127.396933"/></trkseg>
<trkseg><trkpt lat="36.379194" lon="127.390006"/><trkpt lat="36.379434" lon="127.389907"/><trkpt lat="36.379635" lon="127.389975"/><trkpt lat="36.379938" lon="127.390121"/><trkpt lat="36.380132" lon="127.390157"/><trkpt lat="36.380432" lon="127.39025"/><trkpt lat="36.380757" lon="127.390365"/><trkpt lat="36.380934" lon="127.390543"/><trkpt lat="36.381091" lon="127.390661"/><trkpt lat="36.381243" lon="127.390711"/><trkpt lat="36.38137" lon="127.391092"/></trkseg>
<trkseg><trkpt lat="36.381424" lon="127.388267"/><trkpt lat="36.381208" lon="127.388262"/><trkpt lat="36.38095" lon="127.38845"/><trkpt lat="36.380742" lon="127.388618"/><trkpt lat="36.380449" lon="127.388569"/><trkpt lat="36.380255" lon="127.3885"/><trkpt lat="36.380026" lon="127.388416"/><trkpt lat="36.379779" lon="127.388403"/><trkpt lat="36.379585" lon="127.388445"/><trkpt lat="36.379313" lon="127.388471"/><trkpt lat="36.379121" lon="127.38854"/><trkpt lat="36.378945" lon="127.388765"/><trkpt lat="36.378863" lon="127.38905"/><trkpt lat="36.378843" lon="127.38923"/></trkseg>
<trkseg><trkpt lat="36.383061" lon="127.388284"/><trkpt lat="36.383145" lon="127.38805"/><trkpt lat="36.383174" lon="127.387663"/><trkpt lat="36.383042" lon="127.387322"/><trkpt lat="36.382913" lon="127.387095"/><trkpt lat="36.382621" lon="127.38697"/></trkseg>
<trkseg><trkpt lat="36.380669" lon="127.382577"/><trkpt lat="36.380443" lon="127.382543"/><trkpt lat="36.380138" lon="127.382674"/><trkpt lat="36.379854" lon="127.382678"/><trkpt lat="36.3796" lon="127.382702"/><trkpt lat="36.379533" lon="127.382739"/></trkseg>
<trkseg><trkpt lat="36.381502" lon="127.381967"/><trkpt lat="36.381314" lon="127.38219"/><trkpt lat="36.38108" lon="127.382259"/><trkpt lat="36.380822" lon="127.38245"/><trkpt lat="36.380669" lon="127.382577"/></trkseg>
<trkseg><trkpt lat="36.38205" lon="127.382389"/><trkpt lat="36.38188" lon="127.382291"/><trkpt lat="36.381649" lon="127.382153"/><trkpt lat="36.381527" lon="127.38204"/><trkpt lat="36.381502" lon="127.381967"/></trkseg>
<trkseg><trkpt lat="36.381502" lon="127.381967"/><trkpt lat="36.381272" lon="127.3819"/><trkpt lat="36.381025" lon="127.381611"/><trkpt lat="36.380779" lon="127.381326"/><trkpt lat="36.380483" lon="127.381058"/><trkpt lat="36.380519" lon="127.380687"/><trkpt lat="36.380687" lon="127.380451"/><trkpt lat="36.380691" lon="127.380127"/><trkpt lat="36.380747" lon="127.379963"/><trkpt lat="36.380876" lon="127.37997"/><trkpt lat="36.381084" lon="127.38007"/><trkpt lat="36.381314" lon="127.380153"/><trkpt lat="36.381464" lon="127.380201"/><trkpt lat="36.381585" lon="127.380223"/><trkpt lat="36.381717" lon="127.380253"/><trkpt lat="36.381883" lon="127.380509"/><trkpt lat="36.381837" lon="127.380943"/><trkpt lat="36.381681" lon="127.381029"/><trkpt lat="36.381565" lon="127.381194"/></trkseg>
<trkseg><trkpt lat="36.381991" lon="127.381875"/><trkpt lat="36.382182" lon="127.381537"/><trkpt lat="36.382534" lon="127.381053"/><trkpt lat="36.382835" lon="127.38094"/><trkpt lat="36.383016" lon="127.380779"/><trkpt lat="36.383052" lon="127.380737"/></trkseg>
<trkseg><trkpt lat="36.381502" lon="127.381967"/><trkpt lat="36.38167" lon="127.381836"/><trkpt lat="36.381847" lon="127.381794"/><trkpt lat="36.381991" lon="127.381875"/></trkseg>
<trkseg><trkpt lat="36.381991" lon="127.381875"/><trkpt lat="36.381957" lon="127.382102"/><trkpt lat="36.38203" lon="127.382322"/><trkpt lat="36.38205" lon="127.382389"/></trkseg>
<trkseg><trkpt lat="36.387442" lon="127.384393"/><trkpt lat="36.387541" lon="127.384229"/><trkpt lat="36.387534" lon="127.384033"/><trkpt lat="36.387537" lon="127.383829"/><trkpt lat="36.387432" lon="127.383589"/><trkpt lat="36.387296" lon="127.383373"/><trkpt lat="36.387293" lon="127.38319"/><trkpt lat="36.387292" lon="127.383065"/><trkpt lat="36.387324" lon="127.382867"/><trkpt lat="36.38724" lon="127.382615"/></trkseg>
<trkseg><trkpt lat="36.38724" lon="127.382615"/><trkpt lat="36.387496" lon="127.382664"/><trkpt lat="36.387824" lon="127.382624"/><trkpt lat="36.388046" lon="127.382816"/><trkpt lat="36.388174" lon="127.382862"/></trkseg>
<trkseg><trkpt lat="36.388174" lon="127.382862"/><trkpt lat="36.388088" lon="127.383185"/><trkpt lat="36.387963" lon="127.383643"/><trkpt lat="36.38781" lon="127.383916"/><trkpt lat="36.387804" lon="127.384226"/><trkpt lat="36.38783" lon="127.3843"/></trkseg>
<trkseg><trkpt lat="36.388244" lon="127.382556"/><trkpt lat="36.388185" lon="127.382675"/><trkpt lat="36.388198" lon="127.382816"/><trkpt lat="36.388174" lon="127.382862"/></trkseg>
<trkseg><trkpt lat="36.388596" lon="127.382513"/><trkpt lat="36.388408" lon="127.382624"/><trkpt lat="36.388244" lon="127.382556"/></trkseg>
<trkseg><trkpt lat="36.388482" lon="127.382237"/><trkpt lat="36.388426" lon="127.38203"/><trkpt lat="36.388468" lon="127.381781"/></trkseg>
<trkseg><trkpt lat="36.388596" lon="127.382513"/><trkpt lat="36.388524" lon="127.382296"/><trkpt lat="36.388482" lon="127.382237"/></trkseg>
<trkseg><trkpt lat="36.390425" lon="127.382886"/><trkpt lat="36.390158" lon="127.382824"/><trkpt lat="36.389817" lon="127.382725"/><trkpt lat="36.389585" lon="127.382574"/><trkpt lat="36.389382" lon="127.382485"/><trkpt lat="36.389187" lon="127.382514"/><trkpt lat="36.388915" lon="127.382523"/><trkpt lat="36.388683" lon="127.382544"/><trkpt lat="36.388596" lon="127.382513"/></trkseg>
<trkseg><trkpt lat="36.397244" lon="127.376711"/><trkpt lat="36.397667" lon="127.376428"/><trkpt lat="36.397744" lon="127.375986"/><trkpt lat="36.397713" lon="127.375865"/></trkseg>
<trkseg><trkpt lat="36.393663" lon="127.37887"/><trkpt lat="36.393845" lon="127.37864"/><trkpt lat="36.39412" lon="127.37838"/><trkpt lat="36.394471" lon="127.378252"/><trkpt lat="36.39479" lon="127.378222"/><trkpt lat="36.395104" lon="127.378138"/><trkpt lat="36.395572" lon="127.377941"/><trkpt lat="36.395835" lon="127.377838"/><trkpt lat="36.395896" lon="127.377818"/></trkseg>
<trkseg><trkpt lat="36.393185" lon="127.379734"/><trkpt lat="36.393243" lon="127.379365"/><trkpt lat="36.39353" lon="127.379042"/><trkpt lat="36.393663" lon="127.37887"/></trkseg>
<trkseg><trkpt lat="36.393197" lon="127.38032"/><trkpt lat="36.393117" lon="127.380209"/><trkpt lat="36.393032" lon="127.380047"/><trkpt lat="36.393147" lon="127.379779"/><trkpt lat="36.393185" lon="127.379734"/></trkseg>
<trkseg><trkpt lat="36.393185" lon="127.379734"/><trkpt lat="36.393386" lon="127.379868"/><trkpt lat="36.393496" lon="127.379935"/><trkpt lat="36.393636" lon="127.380045"/></trkseg>
<trkseg><trkpt lat="36.391462" lon="127.376075"/><trkpt lat="36.39175" lon="127.375955"/><trkpt lat="36.391954" lon="127.376038"/><trkpt lat="36.392209" lon="127.376091"/><trkpt lat="36.392411" lon="127.376338"/><trkpt lat="36.392593" lon="127.376505"/><trkpt lat="36.392687" lon="127.377068"/><trkpt lat="36.392897" lon="127.377368"/><trkpt lat="36.393277" lon="127.377775"/><trkpt lat="36.393301" lon="127.378049"/><trkpt lat="36.393474" lon="127.378405"/><trkpt lat="36.393658" lon="127.378723"/><trkpt lat="36.393663" lon="127.37887"/></trkseg>
<trkseg><trkpt lat="36.39134" lon="127.376029"/><trkpt lat="36.391462" lon="127.376075"/></trkseg>
<trkseg><trkpt lat="36.388951" lon="127.375581"/><trkpt lat="36.388919" lon="127.375894"/><trkpt lat="36.389056" lon="127.376208"/><trkpt lat="36.389228" lon="127.376201"/><trkpt lat="36.389447" lon="127.376427"/><trkpt lat="36.389563" lon="127.376686"/><trkpt lat="36.389814" lon="127.376579"/><trkpt lat="36.389966" lon="127.376519"/><trkpt lat="36.39016" lon="127.376464"/><trkpt lat="36.390332" lon="127.376278"/><trkpt lat="36.390609" lon="127.376271"/><trkpt lat="36.3911" lon="127.3761"/><trkpt lat="36.39134" lon="127.376029"/></trkseg>
<trkseg><trkpt lat="36.395896" lon="127.377818"/><trkpt lat="36.395884" lon="127.377583"/><trkpt lat="36.395852" lon="127.377237"/><trkpt lat="36.395966" lon="127.376839"/><trkpt lat="36.395964" lon="127.37646"/><trkpt lat="36.396161" lon="127.376067"/><trkpt lat="36.396364" lon="127.375704"/><trkpt lat="36.396476" lon="127.375424"/></trkseg>
<trkseg><trkpt lat="36.396947" lon="127.375374"/><trkpt lat="36.396921" lon="127.375564"/><trkpt lat="36.396706" lon="127.375587"/><trkpt lat="36.396573" lon="127.376018"/><trkpt lat="36.396645" lon="127.376247"/><trkpt lat="36.396887" lon="127.376371"/><trkpt lat="36.39708" lon="127.376606"/><trkpt lat="36.397244" lon="127.376711"/></trkseg>
<trkseg><trkpt lat="36.407877" lon="127.378113"/><trkpt lat="36.407928" lon="127.378322"/><trkpt lat="36.407889" lon="127.378621"/><trkpt lat="36.407887" lon="127.37889"/><trkpt lat="36.408001" lon="127.379214"/><trkpt lat="36.407949" lon="127.379441"/><trkpt lat="36.407861" lon="127.379569"/><trkpt lat="36.407565" lon="127.379748"/><trkpt lat="36.407145" lon="127.379669"/><trkpt lat="36.406721" lon="127.379778"/><trkpt lat="36.406429" lon="127.379825"/><trkpt lat="36.406071" lon="127.379984"/><trkpt lat="36.405734" lon="127.380139"/><trkpt lat="36.405554" lon="127.380197"/><trkpt lat="36.405244" lon="127.380272"/><trkpt lat="36.404788" lon="127.380524"/><trkpt lat="36.404377" lon="127.380777"/><trkpt lat="36.404039" lon="127.381092"/><trkpt lat="36.403876" lon="127.381249"/><trkpt lat="36.403626" lon="127.381349"/></trkseg>
<trkseg><trkpt lat="36.398113" lon="127.396947"/><trkpt lat="36.397979" lon="127.396761"/><trkpt lat="36.39773" lon="127.396516"/><trkpt lat="36.397446" lon="127.396388"/><trkpt lat="36.397343" lon="127.396241"/><trkpt lat="36.397226" lon="127.395973"/><trkpt lat="36.396902" lon="127.395741"/><trkpt lat="36.396712" lon="127.395675"/><trkpt lat="36.396426" lon="127.395554"/><trkpt lat="36.396277" lon="127.39536"/><trkpt lat="36.396249" lon="127.395274"/></trkseg>
<trkseg><trkpt lat="36.399253" lon="127.396771"/><trkpt lat="36.399045" lon="127.396741"/><trkpt lat="36.398837" lon="127.396805"/><trkpt lat="36.398652" lon="127.396797"/><trkpt lat="36.39831" lon="127.396876"/><trkpt lat="36.398113" lon="127.396947"/></trkseg>
<trkseg><trkpt lat="36.397918" lon="127.397715"/><trkpt lat="36.39793" lon="127.397562"/><trkpt lat="36.398048" lon="127.397382"/><trkpt lat="36.398114" lon="127.39721"/><trkpt lat="36.398113" lon="127.396947"/></trkseg>
<trkseg><trkpt lat="36.39566" lon="127.397472"/><trkpt lat="36.395857" lon="127.397323"/><trkpt lat="36.395817" lon="127.397066"/><trkpt lat="36.395895" lon="127.396869"/></trkseg>
<trkseg><trkpt lat="36.397345" lon="127.397728"/><trkpt lat="36.396986" lon="127.3974"/><trkpt lat="36.396643" lon="127.397022"/><trkpt lat="36.396357" lon="127.396702"/><trkpt lat="36.39623" lon="127.396819"/><trkpt lat="36.39607" lon="127.396721"/><trkpt lat="36.395943" lon="127.3968"/><trkpt lat="36.395895" lon="127.396869"/></trkseg>
<trkseg><trkpt lat="36.397918" lon="127.397715"/><trkpt lat="36.397429" lon="127.397729"/><trkpt lat="36.397345" lon="127.397728"/></trkseg>
<trkseg><trkpt lat="36.39849" lon="127.398156"/><trkpt lat="36.398341" lon="127.39811"/><trkpt lat="36.398298" lon="127.398148"/></trkseg>
<trkseg><trkpt lat="36.397345" lon="127.397728"/><trkpt lat="36.397165" lon="127.398252"/><trkpt lat="36.396961" lon="127.398384"/><trkpt lat="36.396717" lon="127.398583"/><trkpt lat="36.396572" lon="127.398668"/></trkseg>
<trkseg><trkpt lat="36.389214" lon="127.384056"/><trkpt lat="36.389326" lon="127.384232"/><trkpt lat="36.389555" lon="127.38465"/><trkpt lat="36.389565" lon="127.384845"/></trkseg>
<trkseg><trkpt lat="36.391479" lon="127.375801"/><trkpt lat="36.391462" lon="127.376075"/></trkseg>
<trkseg><trkpt lat="36.39134" lon="127.376029"/><trkpt lat="36.391479" lon="127.375801"/></trkseg>
<trkseg><trkpt lat="36.388468" lon="127.381781"/><trkpt lat="36.388532" lon="127.381756"/></trkseg>
<trkseg><trkpt lat="36.404541" lon="127.387242"/><trkpt lat="36.404567" lon="127.387003"/><trkpt lat="36.404667" lon="127.386754"/><trkpt lat="36.404693" lon="127.386428"/><trkpt lat="36.404523" lon="127.386115"/><trkpt lat="36.404317" lon="127.385866"/><trkpt lat="36.404165" lon="127.385768"/><trkpt lat="36.403932" lon="127.385767"/><trkpt lat="36.403649" lon="127.385395"/><trkpt lat="36.40372" lon="127.385246"/><trkpt lat="36.403684" lon="127.384785"/><trkpt lat="36.403729" lon="127.384299"/><trkpt lat="36.403614" lon="127.384032"/><trkpt lat="36.403487" lon="127.383519"/><trkpt lat="36.403464" lon="127.383204"/><trkpt lat="36.403467" lon="127.382917"/><trkpt lat="36.403632" lon="127.382421"/><trkpt lat="36.403692" lon="127.382045"/><trkpt lat="36.403616" lon="127.381723"/><trkpt lat="36.403626" lon="127.381349"/></trkseg>
<trkseg><trkpt lat="36.403626" lon="127.381349"/><trkpt lat="36.40371" lon="127.381531"/><trkpt lat="36.403832" lon="127.381827"/><trkpt lat="36.403961" lon="127.382231"/><trkpt lat="36.40416" lon="127.382233"/><trkpt lat="36.4038" lon="127.382716"/><trkpt lat="36.403717" lon="127.383396"/><trkpt lat="36.403815" lon="127.383596"/><trkpt lat="36.404415" lon="127.383638"/><trkpt lat="36.404594" lon="127.383991"/><trkpt lat="36.404657" lon="127.384395"/><trkpt lat="36.405087" lon="127.38498"/><trkpt lat="36.405525" lon="127.385458"/></trkseg>
<trkseg><trkpt lat="36.395896" lon="127.377818"/><trkpt lat="36.396152" lon="127.377838"/><trkpt lat="36.396396" lon="127.377688"/><trkpt lat="36.396662" lon="127.377642"/><trkpt lat="36.396851" lon="127.377352"/><trkpt lat="36.397122" lon="127.377003"/><trkpt lat="36.397181" lon="127.37681"/><trkpt lat="36.397244" lon="127.376711"/></trkseg>
<trkseg><trkpt lat="36.391437" lon="127.37539"/><trkpt lat="36.391463" lon="127.375727"/><trkpt lat="36.391479" lon="127.375801"/></trkseg>
<trkseg><trkpt lat="36.388468" lon="127.381781"/><trkpt lat="36.388325" lon="127.381814"/><trkpt lat="36.388108" lon="127.381814"/></trkseg>
<trkseg><trkpt lat="36.398304" lon="127.400229"/><trkpt lat="36.398298" lon="127.398148"/></trkseg>
<trkseg><trkpt lat="36.403626" lon="127.381349"/><trkpt lat="36.403476" lon="127.381244"/><trkpt lat="36.403273" lon="127.381"/><trkpt lat="36.402949" lon="127.380989"/><trkpt lat="36.40255" lon="127.381035"/><trkpt lat="36.402098" lon="127.381021"/><trkpt lat="36.40185" lon="127.380826"/><trkpt lat="36.40172" lon="127.380572"/><trkpt lat="36.401492" lon="127.380476"/><trkpt lat="36.401131" lon="127.38016"/><trkpt lat="36.400815" lon="127.38012"/><trkpt lat="36.400391" lon="127.380236"/><trkpt lat="36.400036" lon="127.380302"/><trkpt lat="36.399941" lon="127.380213"/></trkseg>
<trkseg><trkpt lat="36.399941" lon="127.380213"/><trkpt lat="36.399686" lon="127.380252"/><trkpt lat="36.399317" lon="127.380258"/><trkpt lat="36.399056" lon="127.38026"/><trkpt lat="36.39884" lon="127.380285"/><trkpt lat="36.398515" lon="127.380396"/><trkpt lat="36.398231" lon="127.380552"/><trkpt lat="36.397841" lon="127.380743"/><trkpt lat="36.397483" lon="127.380744"/><trkpt lat="36.39723" lon="127.381002"/><trkpt lat="36.39694" lon="127.381257"/><trkpt lat="36.396547" lon="127.381449"/><trkpt lat="36.396339" lon="127.381599"/><trkpt lat="36.396131" lon="127.38161"/><trkpt lat="36.395719" lon="127.381531"/></trkseg>
<trkseg><trkpt lat="36.398298" lon="127.398148"/><trkpt lat="36.39807" lon="127.397817"/><trkpt lat="36.397918" lon="127.397715"/></trkseg>
<trkseg><trkpt lat="36.381424" lon="127.388267"/><trkpt lat="36.381494" lon="127.388464"/><trkpt lat="36.381593" lon="127.388663"/><trkpt lat="36.381767" lon="127.388992"/><trkpt lat="36.381866" lon="127.389559"/><trkpt lat="36.382044" lon="127.389667"/><trkpt lat="36.382072" lon="127.389848"/><trkpt lat="36.382105" lon="127.390139"/><trkpt lat="36.382023" lon="127.390562"/><trkpt lat="36.381807" lon="127.39087"/><trkpt lat="36.381668" lon="127.391005"/><trkpt lat="36.381445" lon="127.391202"/><trkpt lat="36.381399" lon="127.391216"/></trkseg>
<trkseg><trkpt lat="36.399941" lon="127.380213"/><trkpt lat="36.399889" lon="127.379814"/><trkpt lat="36.400031" lon="127.379462"/><trkpt lat="36.40028" lon="127.379157"/><trkpt lat="36.400516" lon="127.378664"/><trkpt lat="36.400622" lon="127.377917"/><trkpt lat="36.401" lon="127.377484"/><trkpt lat="36.401194" lon="127.3768"/><trkpt lat="36.401104" lon="127.376302"/><trkpt lat="36.40099" lon="127.375948"/><trkpt lat="36.400811" lon="127.375546"/><trkpt lat="36.400482" lon="127.375295"/><trkpt lat="36.400172" lon="127.375092"/><trkpt lat="36.400059" lon="127.375017"/></trkseg>
<trkseg><trkpt lat="36.395719" lon="127.381531"/><trkpt lat="36.395517" lon="127.381533"/><trkpt lat="36.395326" lon="127.38146"/><trkpt lat="36.39524" lon="127.381521"/></trkseg>
<trkseg><trkpt lat="36.395591" lon="127.382086"/><trkpt lat="36.395591" lon="127.381763"/><trkpt lat="36.395719" lon="127.381531"/></trkseg>
<trkseg><trkpt lat="36.395591" lon="127.382086"/><trkpt lat="36.395407" lon="127.381907"/><trkpt lat="36.39524" lon="127.381521"/></trkseg>
<trkseg><trkpt lat="36.39524" lon="127.381521"/><trkpt lat="36.395091" lon="127.381425"/></trkseg>
<trkseg><trkpt lat="36.395091" lon="127.381425"/><trkpt lat="36.395021" lon="127.38126"/><trkpt lat="36.394895" lon="127.381015"/><trkpt lat="36.394826" lon="127.38088"/><trkpt lat="36.394639" lon="127.380599"/><trkpt lat="36.394353" lon="127.380411"/><trkpt lat="36.394135" lon="127.380278"/><trkpt lat="36.393777" lon="127.380092"/><trkpt lat="36.393636" lon="127.380045"/></trkseg>
<trkseg><trkpt lat="36.393547" lon="127.383415"/><trkpt lat="36.393602" lon="127.383256"/><trkpt lat="36.393744" lon="127.383092"/><trkpt lat="36.393897" lon="127.382717"/><trkpt lat="36.394061" lon="127.382593"/><trkpt lat="36.394223" lon="127.38251"/><trkpt lat="36.394421" lon="127.382391"/><trkpt lat="36.394564" lon="127.382302"/><trkpt lat="36.394708" lon="127.382144"/><trkpt lat="36.394878" lon="127.381969"/><trkpt lat="36.394993" lon="127.381784"/><trkpt lat="36.395004" lon="127.38159"/><trkpt lat="36.395091" lon="127.381425"/></trkseg>
<trkseg><trkpt lat="36.396249" lon="127.395274"/><trkpt lat="36.396275" lon="127.394981"/><trkpt lat="36.396303" lon="127.39466"/><trkpt lat="36.396101" lon="127.394348"/><trkpt lat="36.39597" lon="127.394064"/><trkpt lat="36.39596" lon="127.393816"/><trkpt lat="36.395975" lon="127.393697"/><trkpt lat="36.395968" lon="127.393474"/><trkpt lat="36.395853" lon="127.393185"/><trkpt lat="36.395724" lon="127.392947"/><trkpt lat="36.395702" lon="127.392712"/><trkpt lat="36.395599" lon="127.392421"/><trkpt lat="36.395616" lon="127.392131"/><trkpt lat="36.395749" lon="127.391803"/><trkpt lat="36.395969" lon="127.391485"/><trkpt lat="36.396017" lon="127.39132"/><trkpt lat="36.396166" lon="127.391049"/><trkpt lat="36.396334" lon="127.390701"/><trkpt lat="36.396465" lon="127.3903"/><trkpt lat="36.396446" lon="127.389991"/><trkpt lat="36.396361" lon="127.389537"/><trkpt lat="36.396442" lon="127.38913"/><trkpt lat="36.396452" lon="127.388835"/><trkpt lat="36.39646" lon="127.388484"/><trkpt lat="36.396437" lon="127.388241"/><trkpt lat="36.396305" lon="127.387846"/><trkpt lat="36.396108" lon="127.387661"/><trkpt lat="36.395959" lon="127.38754"/><trkpt lat="36.395772" lon="127.387239"/><trkpt lat="36.395654" lon="127.387038"/><trkpt lat="36.395515" lon="127.386876"/><trkpt lat="36.395375" lon="127.386738"/><trkpt lat="36.395228" lon="127.38669"/><trkpt lat="36.395128" lon="127.386385"/><trkpt lat="36.395137" lon="127.386025"/><trkpt lat="36.39517" lon="127.385715"/><trkpt lat="36.395098" lon="127.385556"/><trkpt lat="36.395148" lon="127.385297"/><trkpt lat="36.39521" lon="127.385047"/><trkpt lat="36.395383" lon="127.384921"/><trkpt lat="36.395456" lon="127.384744"/><trkpt lat="36.395436" lon="127.384523"/><trkpt lat="36.395506" lon="127.384238"/><trkpt lat="36.395513" lon="127.383815"/><trkpt lat="36.395438" lon="127.383339"/><trkpt lat="36.39553" lon="127.383122"/><trkpt lat="36.395623" lon="127.38291"/><trkpt lat="36.395612" lon="127.382695"/><trkpt lat="36.395624" lon="127.38252"/><trkpt lat="36.395616" lon="127.382251"/><trkpt lat="36.395591" lon="127.382086"/></trkseg>
<trkseg><trkpt lat="36.38724" lon="127.382615"/><trkpt lat="36.386872" lon="127.382125"/><trkpt lat="36.386591" lon="127.381832"/><trkpt lat="36.386395" lon="127.381608"/><trkpt lat="36.38617" lon="127.381401"/><trkpt lat="36.386001" lon="127.38136"/><trkpt lat="36.385784" lon="127.381254"/><trkpt lat="36.385769" lon="127.381161"/></trkseg>
<trkseg><trkpt lat="36.385124" lon="127.385554"/><trkpt lat="36.385006" lon="127.385677"/><trkpt lat="36.385009" lon="127.385894"/><trkpt lat="36.384894" lon="127.386007"/><trkpt lat="36.38483" lon="127.386159"/><trkpt lat="36.38455" lon="127.386353"/><trkpt lat="36.384217" lon="127.386294"/><trkpt lat="36.383973" lon="127.386414"/><trkpt lat="36.383665" lon="127.386291"/><trkpt lat="36.383455" lon="127.386415"/><trkpt lat="36.383365" lon="127.386361"/><trkpt lat="36.383119" lon="127.386624"/><trkpt lat="36.382732" lon="127.386922"/><trkpt lat="36.382621" lon="127.38697"/></trkseg>
<trkseg><trkpt lat="36.38205" lon="127.382389"/><trkpt lat="36.382237" lon="127.382508"/><trkpt lat="36.382486" lon="127.382604"/><trkpt lat="36.382676" lon="127.38275"/><trkpt lat="36.382828" lon="127.38303"/><trkpt lat="36.383012" lon="127.383339"/><trkpt lat="36.383066" lon="127.383441"/><trkpt lat="36.383207" lon="127.383639"/><trkpt lat="36.383283" lon="127.383682"/><trkpt lat="36.383441" lon="127.383813"/><trkpt lat="36.383638" lon="127.384113"/><trkpt lat="36.383741" lon="127.384299"/><trkpt lat="36.383868" lon="127.384565"/><trkpt lat="36.384138" lon="127.384982"/><trkpt lat="36.384434" lon="127.385185"/><trkpt lat="36.384794" lon="127.385235"/><trkpt lat="36.385042" lon="127.385501"/><trkpt lat="36.385124" lon="127.385554"/></trkseg>
<trkseg><trkpt lat="36.388108" lon="127.381814"/><trkpt lat="36.388031" lon="127.381482"/></trkseg>
<trkseg><trkpt lat="36.396572" lon="127.398668"/><trkpt lat="36.396443" lon="127.398715"/></trkseg>
</trk>
</gpx>
