<?xml version="1.0" encoding="UTF-8"?>
<gpx version="1.1" creator="letnaturechoose" xmlns="http://www.topografix.com/GPX/1/1">
<metadata><name>문수산 등산로</name></metadata>
<trk><name>문수산</name>
<trkseg><trkpt lat="35.536123" lon="129.234642"/><trkpt lat="35.536107" lon="129.234627"/><trkpt lat="35.536079" lon="129.234586"/><trkpt lat="35.536068" lon="129.234542"/><trkpt lat="35.536073" lon="129.234501"/><trkpt lat="35.536094" lon="129.234444"/><trkpt lat="35.536142" lon="129.234331"/><trkpt lat="35.536169" lon="129.234277"/><trkpt lat="35.536195" lon="129.23424"/><trkpt lat="35.536223" lon="129.234206"/><trkpt lat="35.536375" lon="129.234044"/><trkpt lat="35.536413" lon="129.234001"/><trkpt lat="35.536436" lon="129.233969"/><trkpt lat="35.536445" lon="129.233937"/><trkpt lat="35.536446" lon="129.233887"/><trkpt lat="35.536455" lon="129.233843"/><trkpt lat="35.536491" lon="129.233719"/><trkpt lat="35.536683" lon="129.233083"/><trkpt lat="35.536698" lon="129.233021"/><trkpt lat="35.536702" lon="129.232976"/><trkpt lat="35.536703" lon="129.232908"/><trkpt lat="35.536714" lon="129.232867"/><trkpt lat="35.536749" lon="129.232785"/><trkpt lat="35.536765" lon="129.232744"/><trkpt lat="35.536776" lon="129.232699"/><trkpt lat="35.536782" lon="129.232635"/><trkpt lat="35.536795" lon="129.232376"/><trkpt lat="35.536799" lon="129.232335"/><trkpt lat="35.536809" lon="129.23231"/><trkpt lat="35.536826" lon="129.232309"/><trkpt lat="35.536844" lon="129.232303"/><trkpt lat="35.536861" lon="129.232273"/><trkpt lat="35.53688" lon="129.232217"/><trkpt lat="35.536912" lon="129.23211"/><trkpt lat="35.536922" lon="129.232064"/><trkpt lat="35.536922" lon="129.232019"/><trkpt lat="35.536913" lon="129.231975"/><trkpt lat="35.536873" lon="129.231859"/><trkpt lat="35.536856" lon="129.231801"/><trkpt lat="35.53685" lon="129.231758"/><trkpt lat="35.536855" lon="129.231714"/><trkpt lat="35.536866" lon="129.231657"/><trkpt lat="35.536865" lon="129.231613"/><trkpt lat="35.536848" lon="129.23154"/><trkpt lat="35.536842" lon="129.231498"/><trkpt lat="35.53685" lon="129.231458"/><trkpt lat="35.53687" lon="129.231419"/><trkpt lat="35.536973" lon="129.231268"/><trkpt lat="35.537006" lon="129.231217"/><trkpt lat="35.537027" lon="129.231177"/><trkpt lat="35.537041" lon="129.231133"/><trkpt lat="35.537049" lon="129.231069"/><trkpt lat="35.537062" lon="129.230922"/><trkpt lat="35.537073" lon="129.230876"/><trkpt lat="35.537092" lon="129.230835"/><trkpt lat="35.537125" lon="129.230784"/><trkpt lat="35.537346" lon="129.230473"/><trkpt lat="35.537379" lon="129.230421"/><trkpt lat="35.537397" lon="129.230379"/><trkpt lat="35.537407" lon="129.230333"/><trkpt lat="35.53744" lon="129.230106"/><trkpt lat="35.537489" lon="129.229766"/><trkpt lat="35.537498" lon="129.229718"/><trkpt lat="35.537517" lon="129.229658"/><trkpt lat="35.537594" lon="129.22945"/></trkseg>
<trkseg><trkpt lat="35.53926" lon="129.252363"/><trkpt lat="35.539316" lon="129.252284"/><trkpt lat="35.539356" lon="129.252225"/><trkpt lat="35.539378" lon="129.252186"/><trkpt lat="35.539391" lon="129.252143"/><trkpt lat="35.539393" lon="129.252098"/><trkpt lat="35.53939" lon="129.252019"/><trkpt lat="35.539447" lon="129.250925"/><trkpt lat="35.539212" lon="129.25032"/><trkpt lat="35.538993" lon="129.248917"/><trkpt lat="35.538987" lon="129.248835"/><trkpt lat="35.538987" lon="129.248786"/><trkpt lat="35.538993" lon="129.248739"/><trkpt lat="35.539015" lon="129.248629"/><trkpt lat="35.539052" lon="129.248458"/><trkpt lat="35.539058" lon="129.248411"/><trkpt lat="35.539056" lon="129.248367"/><trkpt lat="35.539042" lon="129.248327"/><trkpt lat="35.539024" lon="129.248287"/><trkpt lat="35.539004" lon="129.24825"/><trkpt lat="35.538979" lon="129.248215"/><trkpt lat="35.53895" lon="129.248186"/><trkpt lat="35.538918" lon="129.248162"/><trkpt lat="35.538885" lon="129.248146"/><trkpt lat="35.538841" lon="129.248126"/><trkpt lat="35.538813" lon="129.248097"/><trkpt lat="35.538786" lon="129.248061"/><trkpt lat="35.538584" lon="129.247754"/><trkpt lat="35.538548" lon="129.247706"/><trkpt lat="35.538519" lon="129.247677"/><trkpt lat="35.538484" lon="129.24766"/><trkpt lat="35.538411" lon="129.247632"/><trkpt lat="35.538379" lon="129.247608"/><trkpt lat="35.538351" lon="129.247576"/><trkpt lat="35.538297" lon="129.247508"/><trkpt lat="35.538267" lon="129.24748"/><trkpt lat="35.538234" lon="129.247463"/><trkpt lat="35.538182" lon="129.24744"/><trkpt lat="35.538164" lon="129.247422"/><trkpt lat="35.538144" lon="129.24738"/><trkpt lat="35.538119" lon="129.24735"/><trkpt lat="35.538042" lon="129.247268"/><trkpt lat="35.538015" lon="129.247234"/><trkpt lat="35.537993" lon="129.247195"/><trkpt lat="35.537935" lon="129.247066"/><trkpt lat="35.537908" lon="129.24701"/><trkpt lat="35.537885" lon="129.24697"/><trkpt lat="35.537832" lon="129.246897"/><trkpt lat="35.537517" lon="129.246474"/><trkpt lat="35.5374" lon="129.246317"/><trkpt lat="35.537371" lon="129.246286"/><trkpt lat="35.537339" lon="129.246264"/><trkpt lat="35.53728" lon="129.246247"/><trkpt lat="35.537247" lon="129.246234"/><trkpt lat="35.537219" lon="129.246209"/><trkpt lat="35.537196" lon="129.246171"/><trkpt lat="35.537079" lon="129.245915"/><trkpt lat="35.537037" lon="129.245832"/><trkpt lat="35.537012" lon="129.245795"/><trkpt lat="35.536972" lon="129.245753"/><trkpt lat="35.536886" lon="129.245677"/><trkpt lat="35.536852" lon="129.245653"/><trkpt lat="35.536816" lon="129.245638"/><trkpt lat="35.536764" lon="129.245629"/><trkpt lat="35.536472" lon="129.245598"/><trkpt lat="35.536433" lon="129.245591"/><trkpt lat="35.536399" lon="129.245575"/><trkpt lat="35.536371" lon="129.245545"/><trkpt lat="35.536348" lon="129.245507"/><trkpt lat="35.536216" lon="129.245258"/><trkpt lat="35.536025" lon="129.244902"/><trkpt lat="35.535999" lon="129.244845"/><trkpt lat="35.535987" lon="129.244802"/><trkpt lat="35.535979" lon="129.244731"/><trkpt lat="35.535969" lon="129.244686"/><trkpt lat="35.535948" lon="129.244627"/><trkpt lat="35.535638" lon="129.243899"/><trkpt lat="35.53552" lon="129.243623"/><trkpt lat="35.535492" lon="129.243567"/><trkpt lat="35.535468" lon="129.243529"/><trkpt lat="35.535416" lon="129.243459"/><trkpt lat="35.535399" lon="129.243421"/><trkpt lat="35.535399" lon="129.243378"/><trkpt lat="35.535408" lon="129.243332"/><trkpt lat="35.535458" lon="129.243143"/><trkpt lat="35.535589" lon="129.242639"/><trkpt lat="35.535611" lon="129.242561"/><trkpt lat="35.535628" lon="129.242517"/><trkpt lat="35.535648" lon="129.242476"/><trkpt lat="35.535777" lon="129.242252"/><trkpt lat="35.535805" lon="129.242199"/><trkpt lat="35.535822" lon="129.242158"/><trkpt lat="35.535828" lon="129.242113"/><trkpt lat="35.535825" lon="129.242065"/><trkpt lat="35.535808" lon="129.241919"/><trkpt lat="35.535805" lon="129.24187"/><trkpt lat="35.535805" lon="129.241755"/><trkpt lat="35.535825" lon="129.239899"/><trkpt lat="35.535827" lon="129.239686"/><trkpt lat="35.535831" lon="129.239642"/><trkpt lat="35.535841" lon="129.239609"/><trkpt lat="35.535868" lon="129.239587"/><trkpt lat="35.535882" lon="129.239556"/><trkpt lat="35.535891" lon="129.239514"/><trkpt lat="35.535914" lon="129.239358"/><trkpt lat="35.535925" lon="129.239295"/><trkpt lat="35.535936" lon="129.239251"/><trkpt lat="35.535956" lon="129.239211"/><trkpt lat="35.535992" lon="129.239164"/><trkpt lat="35.536049" lon="129.239097"/><trkpt lat="35.536074" lon="129.239061"/><trkpt lat="35.536087" lon="129.239022"/><trkpt lat="35.536088" lon="129.23898"/><trkpt lat="35.536085" lon="129.238907"/><trkpt lat="35.53609" lon="129.23886"/><trkpt lat="35.536101" lon="129.238814"/><trkpt lat="35.536137" lon="129.23869"/><trkpt lat="35.536221" lon="129.238413"/><trkpt lat="35.536233" lon="129.238366"/><trkpt lat="35.536239" lon="129.238319"/><trkpt lat="35.536239" lon="129.23827"/><trkpt lat="35.536219" lon="129.237976"/><trkpt lat="35.536165" lon="129.237207"/><trkpt lat="35.536163" lon="129.237142"/><trkpt lat="35.536168" lon="129.237064"/><trkpt lat="35.536175" lon="129.236987"/><trkpt lat="35.536183" lon="129.236942"/><trkpt lat="35.536198" lon="129.236899"/><trkpt lat="35.536219" lon="129.236859"/><trkpt lat="35.536279" lon="129.236755"/><trkpt lat="35.536299" lon="129.236716"/><trkpt lat="35.536311" lon="129.236679"/><trkpt lat="35.536303" lon="129.236645"/><trkpt lat="35.53628" lon="129.236614"/><trkpt lat="35.53624" lon="129.236574"/><trkpt lat="35.536126" lon="129.236464"/><trkpt lat="35.536088" lon="129.236421"/><trkpt lat="35.536064" lon="129.236384"/><trkpt lat="35.536031" lon="129.236316"/><trkpt lat="35.535976" lon="129.236189"/><trkpt lat="35.53596" lon="129.236146"/><trkpt lat="35.535943" lon="129.236084"/><trkpt lat="35.535912" lon="129.235941"/><trkpt lat="35.535905" lon="129.235893"/><trkpt lat="35.535904" lon="129.235846"/><trkpt lat="35.53591" lon="129.235769"/><trkpt lat="35.535924" lon="129.235661"/><trkpt lat="35.535934" lon="129.235616"/><trkpt lat="35.535951" lon="129.235576"/><trkpt lat="35.535985" lon="129.235514"/><trkpt lat="35.535998" lon="129.235475"/><trkpt lat="35.535998" lon="129.235433"/><trkpt lat="35.53599" lon="129.23536"/><trkpt lat="35.535997" lon="129.235317"/><trkpt lat="35.536013" lon="129.235276"/><trkpt lat="35.536044" lon="129.235206"/><trkpt lat="35.53606" lon="129.235163"/><trkpt lat="35.536071" lon="129.235116"/><trkpt lat="35.536081" lon="129.235035"/><trkpt lat="35.536123" lon="129.234642"/></trkseg>
<trkseg><trkpt lat="35.52947" lon="129.22651"/><trkpt lat="35.530509" lon="129.225736"/><trkpt lat="35.530565" lon="129.225692"/><trkpt lat="35.530597" lon="129.225663"/><trkpt lat="35.530622" lon="129.225629"/><trkpt lat="35.530655" lon="129.225565"/><trkpt lat="35.530676" lon="129.225528"/><trkpt lat="35.530703" lon="129.225496"/><trkpt lat="35.530735" lon="129.225469"/><trkpt lat="35.530916" lon="129.225338"/><trkpt lat="35.530949" lon="129.225317"/><trkpt lat="35.530978" lon="129.225308"/><trkpt lat="35.530999" lon="129.225324"/><trkpt lat="35.531014" lon="129.225362"/><trkpt lat="35.53103" lon="129.225424"/><trkpt lat="35.531237" lon="129.226277"/><trkpt lat="35.531294" lon="129.226516"/><trkpt lat="35.531307" lon="129.226561"/><trkpt lat="35.531324" lon="129.226596"/><trkpt lat="35.531351" lon="129.226609"/><trkpt lat="35.531386" lon="129.226605"/><trkpt lat="35.531437" lon="129.22659"/><trkpt lat="35.531708" lon="129.226503"/><trkpt lat="35.531863" lon="129.226456"/><trkpt lat="35.531898" lon="129.226441"/><trkpt lat="35.531927" lon="129.226418"/><trkpt lat="35.531944" lon="129.226381"/><trkpt lat="35.531953" lon="129.226335"/><trkpt lat="35.531983" lon="129.226091"/><trkpt lat="35.531995" lon="129.226028"/><trkpt lat="35.532009" lon="129.225985"/><trkpt lat="35.532031" lon="129.225949"/><trkpt lat="35.532056" lon="129.225916"/><trkpt lat="35.532086" lon="129.225887"/><trkpt lat="35.532132" lon="129.225856"/><trkpt lat="35.532202" lon="129.225813"/><trkpt lat="35.532234" lon="129.225788"/><trkpt lat="35.532261" lon="129.225755"/><trkpt lat="35.532283" lon="129.225715"/><trkpt lat="35.532362" lon="129.225543"/><trkpt lat="35.532896" lon="129.224384"/><trkpt lat="35.532924" lon="129.224328"/><trkpt lat="35.532948" lon="129.22429"/><trkpt lat="35.532978" lon="129.224259"/><trkpt lat="35.533044" lon="129.224206"/><trkpt lat="35.533553" lon="129.223819"/><trkpt lat="35.533608" lon="129.223775"/><trkpt lat="35.533639" lon="129.223745"/><trkpt lat="35.533664" lon="129.223709"/><trkpt lat="35.533702" lon="129.223644"/><trkpt lat="35.533769" lon="129.223525"/><trkpt lat="35.533793" lon="129.223487"/><trkpt lat="35.533821" lon="129.223455"/><trkpt lat="35.533852" lon="129.223427"/><trkpt lat="35.533903" lon="129.223387"/><trkpt lat="35.533928" lon="129.223373"/><trkpt lat="35.533944" lon="129.223364"/><trkpt lat="35.533962" lon="129.223338"/><trkpt lat="35.533987" lon="129.223317"/><trkpt lat="35.53402" lon="129.223276"/><trkpt lat="35.53406" lon="129.223215"/><trkpt lat="35.53408" lon="129.223175"/><trkpt lat="35.534095" lon="129.223129"/><trkpt lat="35.53411" lon="129.223066"/><trkpt lat="35.534184" lon="129.222696"/><trkpt lat="35.534227" lon="129.222487"/><trkpt lat="35.53424" lon="129.222441"/><trkpt lat="35.534259" lon="129.222401"/><trkpt lat="35.534286" lon="129.222368"/><trkpt lat="35.534475" lon="129.222192"/><trkpt lat="35.534686" lon="129.221997"/><trkpt lat="35.53472" lon="129.221972"/><trkpt lat="35.534756" lon="129.221953"/><trkpt lat="35.534832" lon="129.221922"/><trkpt lat="35.535421" lon="129.221698"/></trkseg>
<trkseg><trkpt lat="35.535421" lon="129.221698"/><trkpt lat="35.53546" lon="129.221733"/><trkpt lat="35.535504" lon="129.221763"/><trkpt lat="35.535559" lon="129.221784"/><trkpt lat="35.536141" lon="129.221928"/><trkpt lat="35.53622" lon="129.221949"/><trkpt lat="35.536257" lon="129.221966"/><trkpt lat="35.536291" lon="129.22199"/><trkpt lat="35.536355" lon="129.22205"/><trkpt lat="35.536871" lon="129.222551"/><trkpt lat="35.536946" lon="129.22262"/><trkpt lat="35.536981" lon="129.222646"/><trkpt lat="35.537041" lon="129.222684"/><trkpt lat="35.537186" lon="129.222771"/><trkpt lat="35.537221" lon="129.222795"/><trkpt lat="35.537248" lon="129.222825"/><trkpt lat="35.537264" lon="129.222864"/><trkpt lat="35.537274" lon="129.22291"/><trkpt lat="35.537345" lon="129.223358"/><trkpt lat="35.537356" lon="129.22342"/><trkpt lat="35.537368" lon="129.223463"/><trkpt lat="35.537389" lon="129.223494"/><trkpt lat="35.537422" lon="129.22351"/><trkpt lat="35.53746" lon="129.22352"/><trkpt lat="35.537777" lon="129.223585"/><trkpt lat="35.537869" lon="129.223605"/><trkpt lat="35.537907" lon="129.223618"/><trkpt lat="35.537943" lon="129.223636"/><trkpt lat="35.538107" lon="129.223737"/><trkpt lat="35.538176" lon="129.223782"/><trkpt lat="35.538209" lon="129.223808"/><trkpt lat="35.538239" lon="129.223839"/><trkpt lat="35.538294" lon="129.22391"/><trkpt lat="35.538898" lon="129.224698"/><trkpt lat="35.539053" lon="129.224901"/><trkpt lat="35.539077" lon="129.22494"/><trkpt lat="35.539097" lon="129.224982"/><trkpt lat="35.539181" lon="129.225207"/><trkpt lat="35.540111" lon="129.227731"/><trkpt lat="35.540177" lon="129.227914"/><trkpt lat="35.540194" lon="129.227953"/><trkpt lat="35.540215" lon="129.227975"/><trkpt lat="35.540241" lon="129.227965"/><trkpt lat="35.540269" lon="129.227939"/><trkpt lat="35.540388" lon="129.227808"/><trkpt lat="35.540438" lon="129.227755"/><trkpt lat="35.540468" lon="129.227732"/><trkpt lat="35.540498" lon="129.227725"/><trkpt lat="35.540528" lon="129.227739"/><trkpt lat="35.540581" lon="129.22777"/><trkpt lat="35.540616" lon="129.227776"/><trkpt lat="35.540654" lon="129.227769"/><trkpt lat="35.540692" lon="129.227755"/><trkpt lat="35.540728" lon="129.227735"/><trkpt lat="35.540775" lon="129.227702"/><trkpt lat="35.541221" lon="129.227364"/><trkpt lat="35.541267" lon="129.227332"/><trkpt lat="35.541303" lon="129.227314"/><trkpt lat="35.541339" lon="129.227311"/><trkpt lat="35.541377" lon="129.227321"/><trkpt lat="35.541545" lon="129.227384"/><trkpt lat="35.541919" lon="129.227526"/><trkpt lat="35.541957" lon="129.227537"/><trkpt lat="35.541994" lon="129.227538"/><trkpt lat="35.542027" lon="129.227521"/><trkpt lat="35.542059" lon="129.227494"/><trkpt lat="35.542259" lon="129.227298"/><trkpt lat="35.543185" lon="129.226398"/><trkpt lat="35.543225" lon="129.226355"/><trkpt lat="35.54327" lon="129.226297"/><trkpt lat="35.543488" lon="129.225994"/></trkseg>
<trkseg><trkpt lat="35.543488" lon="129.225994"/><trkpt lat="35.543998" lon="129.225394"/><trkpt lat="35.544034" lon="129.225347"/><trkpt lat="35.544059" lon="129.225309"/><trkpt lat="35.544101" lon="129.225227"/><trkpt lat="35.544169" lon="129.225088"/><trkpt lat="35.544186" lon="129.225045"/><trkpt lat="35.544222" lon="129.224939"/><trkpt lat="35.544417" lon="129.224308"/><trkpt lat="35.544443" lon="129.224233"/><trkpt lat="35.544462" lon="129.224195"/><trkpt lat="35.544491" lon="129.224171"/><trkpt lat="35.54454" lon="129.224152"/><trkpt lat="35.544576" lon="129.224136"/><trkpt lat="35.544608" lon="129.22411"/><trkpt lat="35.544637" lon="129.224078"/><trkpt lat="35.544774" lon="129.223905"/><trkpt lat="35.544821" lon="129.22385"/><trkpt lat="35.544851" lon="129.223823"/><trkpt lat="35.544886" lon="129.223808"/><trkpt lat="35.544924" lon="129.223805"/><trkpt lat="35.545163" lon="129.223812"/><trkpt lat="35.54527" lon="129.223813"/><trkpt lat="35.545309" lon="129.223809"/><trkpt lat="35.545348" lon="129.223798"/><trkpt lat="35.545526" lon="129.223724"/><trkpt lat="35.545703" lon="129.223647"/><trkpt lat="35.54574" lon="129.223627"/><trkpt lat="35.545774" lon="129.223601"/><trkpt lat="35.545839" lon="129.223543"/><trkpt lat="35.546428" lon="129.222995"/><trkpt lat="35.546504" lon="129.222928"/><trkpt lat="35.54655" lon="129.222893"/><trkpt lat="35.546727" lon="129.222777"/><trkpt lat="35.546771" lon="129.222744"/><trkpt lat="35.5468" lon="129.222716"/><trkpt lat="35.546817" lon="129.222681"/><trkpt lat="35.546834" lon="129.222638"/><trkpt lat="35.546857" lon="129.222623"/><trkpt lat="35.54689" lon="129.222624"/><trkpt lat="35.54694" lon="129.222635"/><trkpt lat="35.547056" lon="129.222665"/><trkpt lat="35.547091" lon="129.222677"/><trkpt lat="35.547119" lon="129.222696"/><trkpt lat="35.547141" lon="129.222726"/><trkpt lat="35.547169" lon="129.222747"/><trkpt lat="35.547216" lon="129.222769"/><trkpt lat="35.547344" lon="129.222817"/><trkpt lat="35.547379" lon="129.222835"/><trkpt lat="35.547406" lon="129.22286"/><trkpt lat="35.54742" lon="129.222898"/><trkpt lat="35.547432" lon="129.22297"/><trkpt lat="35.547446" lon="129.223003"/><trkpt lat="35.547475" lon="129.223015"/><trkpt lat="35.54755" lon="129.223041"/><trkpt lat="35.547708" lon="129.223183"/><trkpt lat="35.547723" lon="129.223241"/><trkpt lat="35.547737" lon="129.223267"/><trkpt lat="35.547765" lon="129.223275"/><trkpt lat="35.547799" lon="129.223271"/><trkpt lat="35.547834" lon="129.223255"/><trkpt lat="35.547868" lon="129.223231"/><trkpt lat="35.54799" lon="129.223132"/><trkpt lat="35.548067" lon="129.223071"/><trkpt lat="35.548102" lon="129.223049"/><trkpt lat="35.548151" lon="129.223025"/><trkpt lat="35.548338" lon="129.222945"/><trkpt lat="35.548374" lon="129.222927"/><trkpt lat="35.548408" lon="129.222903"/><trkpt lat="35.548438" lon="129.222872"/><trkpt lat="35.548541" lon="129.222748"/><trkpt lat="35.548579" lon="129.222705"/><trkpt lat="35.548611" lon="129.222677"/><trkpt lat="35.548646" lon="129.222658"/><trkpt lat="35.548696" lon="129.22264"/><trkpt lat="35.549121" lon="129.222508"/><trkpt lat="35.549158" lon="129.222494"/><trkpt lat="35.549188" lon="129.222475"/><trkpt lat="35.549202" lon="129.222442"/><trkpt lat="35.549204" lon="129.222399"/><trkpt lat="35.5492" lon="129.222335"/><trkpt lat="35.549176" lon="129.222029"/><trkpt lat="35.549172" lon="129.221949"/><trkpt lat="35.549182" lon="129.221672"/><trkpt lat="35.549191" lon="129.221461"/><trkpt lat="35.549197" lon="129.221417"/><trkpt lat="35.549215" lon="129.221384"/><trkpt lat="35.549247" lon="129.221365"/><trkpt lat="35.549297" lon="129.221347"/><trkpt lat="35.549937" lon="129.221154"/><trkpt lat="35.550029" lon="129.221125"/><trkpt lat="35.550066" lon="129.221109"/><trkpt lat="35.55012" lon="129.221077"/><trkpt lat="35.550148" lon="129.221066"/><trkpt lat="35.550179" lon="129.221068"/><trkpt lat="35.550206" lon="129.221054"/><trkpt lat="35.550264" lon="129.221001"/><trkpt lat="35.550294" lon="129.220977"/><trkpt lat="35.550325" lon="129.22097"/><trkpt lat="35.550356" lon="129.220982"/><trkpt lat="35.550385" lon="129.221006"/><trkpt lat="35.550407" lon="129.221037"/><trkpt lat="35.550439" lon="129.221093"/><trkpt lat="35.550468" lon="129.221123"/><trkpt lat="35.550514" lon="129.221156"/><trkpt lat="35.550838" lon="129.221363"/><trkpt lat="35.550885" lon="129.22139"/><trkpt lat="35.55092" lon="129.221402"/><trkpt lat="35.550952" lon="129.221396"/><trkpt lat="35.551004" lon="129.221368"/><trkpt lat="35.551039" lon="129.221358"/><trkpt lat="35.551078" lon="129.221358"/><trkpt lat="35.551171" lon="129.221368"/><trkpt lat="35.55121" lon="129.22137"/><trkpt lat="35.551243" lon="129.221364"/><trkpt lat="35.551266" lon="129.221339"/><trkpt lat="35.55128" lon="129.221297"/><trkpt lat="35.551294" lon="129.221234"/><trkpt lat="35.551323" lon="129.221089"/><trkpt lat="35.551336" lon="129.221043"/><trkpt lat="35.551355" lon="129.221002"/><trkpt lat="35.55138" lon="129.220964"/><trkpt lat="35.551595" lon="129.220671"/><trkpt lat="35.552201" lon="129.21984"/><trkpt lat="35.552239" lon="129.219793"/><trkpt lat="35.552269" lon="129.219762"/><trkpt lat="35.552334" lon="129.219706"/><trkpt lat="35.552675" lon="129.219425"/><trkpt lat="35.55272" lon="129.219391"/><trkpt lat="35.552756" lon="129.21937"/><trkpt lat="35.552793" lon="129.219356"/><trkpt lat="35.55296" lon="129.219306"/><trkpt lat="35.553038" lon="129.219282"/><trkpt lat="35.553075" lon="129.219266"/><trkpt lat="35.55311" lon="129.219246"/><trkpt lat="35.55318" lon="129.219211"/><trkpt lat="35.553229" lon="129.219257"/><trkpt lat="35.553248" lon="129.219293"/><trkpt lat="35.553283" lon="129.219339"/><trkpt lat="35.553671" lon="129.219796"/><trkpt lat="35.553865" lon="129.220025"/><trkpt lat="35.553905" lon="129.220068"/><trkpt lat="35.553938" lon="129.220093"/><trkpt lat="35.553973" lon="129.220109"/><trkpt lat="35.554009" lon="129.220117"/><trkpt lat="35.554046" lon="129.220113"/><trkpt lat="35.554104" lon="129.220094"/><trkpt lat="35.554134" lon="129.220086"/><trkpt lat="35.554157" lon="129.220087"/><trkpt lat="35.554181" lon="129.220073"/><trkpt lat="35.554254" lon="129.22001"/><trkpt lat="35.554287" lon="129.219983"/><trkpt lat="35.554323" lon="129.219963"/><trkpt lat="35.554373" lon="129.219943"/><trkpt lat="35.554424" lon="129.219927"/><trkpt lat="35.554462" lon="129.21992"/><trkpt lat="35.554497" lon="129.219925"/><trkpt lat="35.554531" lon="129.219945"/><trkpt lat="35.554574" lon="129.219981"/><trkpt lat="35.554723" lon="129.220114"/><trkpt lat="35.554762" lon="129.220153"/><trkpt lat="35.554786" lon="129.220183"/><trkpt lat="35.554812" lon="129.220218"/><trkpt lat="35.554841" lon="129.220233"/><trkpt lat="35.554884" lon="129.220251"/><trkpt lat="35.554915" lon="129.220275"/><trkpt lat="35.554945" lon="129.220307"/><trkpt lat="35.554993" lon="129.220363"/><trkpt lat="35.555025" lon="129.220387"/><trkpt lat="35.555062" lon="129.220402"/><trkpt lat="35.555177" lon="129.22043"/><trkpt lat="35.555228" lon="129.220444"/><trkpt lat="35.555265" lon="129.220459"/><trkpt lat="35.555301" lon="129.220481"/><trkpt lat="35.555451" lon="129.220591"/><trkpt lat="35.555613" lon="129.22071"/><trkpt lat="35.555648" lon="129.22073"/><trkpt lat="35.555682" lon="129.220738"/><trkpt lat="35.555712" lon="129.220726"/><trkpt lat="35.555762" lon="129.220689"/><trkpt lat="35.555791" lon="129.220677"/><trkpt lat="35.555816" lon="129.220683"/><trkpt lat="35.555842" lon="129.220717"/><trkpt lat="35.555865" lon="129.220745"/><trkpt lat="35.555895" lon="129.220768"/><trkpt lat="35.55596" lon="129.220813"/><trkpt lat="35.555991" lon="129.220842"/><trkpt lat="35.556186" lon="129.221065"/><trkpt lat="35.556245" lon="129.221131"/><trkpt lat="35.556277" lon="129.22116"/><trkpt lat="35.556312" lon="129.221182"/><trkpt lat="35.556388" lon="129.221211"/><trkpt lat="35.556425" lon="129.221227"/><trkpt lat="35.556456" lon="129.221252"/><trkpt lat="35.556481" lon="129.221285"/><trkpt lat="35.556532" lon="129.221372"/><trkpt lat="35.556555" lon="129.221406"/><trkpt lat="35.55658" lon="129.221431"/><trkpt lat="35.556602" lon="129.22145"/><trkpt lat="35.556618" lon="129.221485"/><trkpt lat="35.556626" lon="129.221529"/><trkpt lat="35.556651" lon="129.221721"/><trkpt lat="35.556702" lon="129.222124"/><trkpt lat="35.556711" lon="129.22217"/><trkpt lat="35.556726" lon="129.222211"/><trkpt lat="35.556752" lon="129.222243"/><trkpt lat="35.556784" lon="129.22227"/><trkpt lat="35.55715" lon="129.222535"/><trkpt lat="35.557217" lon="129.222586"/><trkpt lat="35.55726" lon="129.222626"/><trkpt lat="35.55736" lon="129.222734"/><trkpt lat="35.557409" lon="129.22279"/><trkpt lat="35.557433" lon="129.222828"/><trkpt lat="35.557453" lon="129.22287"/><trkpt lat="35.557533" lon="129.223075"/><trkpt lat="35.557692" lon="129.223489"/><trkpt lat="35.557717" lon="129.223545"/><trkpt lat="35.557741" lon="129.223581"/><trkpt lat="35.557769" lon="129.223609"/><trkpt lat="35.5578" lon="129.22363"/><trkpt lat="35.557829" lon="129.223642"/><trkpt lat="35.55786" lon="129.223644"/><trkpt lat="35.557877" lon="129.223663"/><trkpt lat="35.557887" lon="129.223701"/><trkpt lat="35.557902" lon="129.223794"/><trkpt lat="35.557913" lon="129.223858"/><trkpt lat="35.557926" lon="129.223903"/><trkpt lat="35.557947" lon="129.223943"/><trkpt lat="35.55799" lon="129.224005"/><trkpt lat="35.558153" lon="129.224221"/><trkpt lat="35.558191" lon="129.224267"/><trkpt lat="35.558223" lon="129.224295"/><trkpt lat="35.558305" lon="129.22435"/><trkpt lat="35.558401" lon="129.224409"/><trkpt lat="35.558438" lon="129.224428"/><trkpt lat="35.558476" lon="129.224442"/><trkpt lat="35.558605" lon="129.224475"/><trkpt lat="35.558668" lon="129.224489"/><trkpt lat="35.558703" lon="129.224491"/><trkpt lat="35.55873" lon="129.224477"/><trkpt lat="35.558906" lon="129.224382"/><trkpt lat="35.55907" lon="129.224262"/></trkseg>
<trkseg><trkpt lat="35.527498" lon="129.242613"/><trkpt lat="35.527508" lon="129.242598"/><trkpt lat="35.527535" lon="129.242571"/><trkpt lat="35.527573" lon="129.242555"/><trkpt lat="35.527611" lon="129.242553"/><trkpt lat="35.527648" lon="129.242548"/><trkpt lat="35.527711" lon="129.24253"/><trkpt lat="35.527749" lon="129.242521"/><trkpt lat="35.527787" lon="129.242522"/><trkpt lat="35.527824" lon="129.242536"/><trkpt lat="35.527859" lon="129.242556"/><trkpt lat="35.527892" lon="129.242581"/><trkpt lat="35.527914" lon="129.242614"/><trkpt lat="35.527925" lon="129.242658"/><trkpt lat="35.52793" lon="129.242706"/><trkpt lat="35.528005" lon="129.24297"/><trkpt lat="35.528013" lon="129.243034"/><trkpt lat="35.528027" lon="129.243075"/><trkpt lat="35.528052" lon="129.243106"/><trkpt lat="35.528084" lon="129.243132"/><trkpt lat="35.528211" lon="129.243218"/><trkpt lat="35.528246" lon="129.243238"/><trkpt lat="35.528279" lon="129.243251"/><trkpt lat="35.52831" lon="129.243246"/><trkpt lat="35.528349" lon="129.243229"/><trkpt lat="35.528386" lon="129.243221"/><trkpt lat="35.528426" lon="129.243219"/><trkpt lat="35.52856" lon="129.243221"/><trkpt lat="35.528598" lon="129.243217"/><trkpt lat="35.52863" lon="129.2432"/><trkpt lat="35.528656" lon="129.243167"/><trkpt lat="35.528694" lon="129.243099"/><trkpt lat="35.529485" lon="129.24162"/><trkpt lat="35.529617" lon="129.241369"/><trkpt lat="35.529641" lon="129.241332"/><trkpt lat="35.529668" lon="129.241304"/><trkpt lat="35.529703" lon="129.241295"/><trkpt lat="35.529741" lon="129.241296"/><trkpt lat="35.529874" lon="129.241311"/><trkpt lat="35.529914" lon="129.241312"/><trkpt lat="35.529951" lon="129.241304"/><trkpt lat="35.529987" lon="129.241285"/><trkpt lat="35.530058" lon="129.241238"/><trkpt lat="35.530115" lon="129.241196"/><trkpt lat="35.530146" lon="129.241168"/><trkpt lat="35.530169" lon="129.241134"/><trkpt lat="35.530182" lon="129.241092"/><trkpt lat="35.530203" lon="129.240985"/><trkpt lat="35.530213" lon="129.24094"/><trkpt lat="35.530228" lon="129.240896"/><trkpt lat="35.530253" lon="129.240838"/><trkpt lat="35.530422" lon="129.240488"/><trkpt lat="35.530549" lon="129.240221"/><trkpt lat="35.530571" lon="129.240182"/><trkpt lat="35.530597" lon="129.240151"/><trkpt lat="35.530627" lon="129.240134"/><trkpt lat="35.530671" lon="129.240116"/><trkpt lat="35.530704" lon="129.240093"/><trkpt lat="35.530758" lon="129.240044"/><trkpt lat="35.531361" lon="129.239448"/><trkpt lat="35.531425" lon="129.239388"/><trkpt lat="35.53148" lon="129.239343"/><trkpt lat="35.531615" lon="129.239239"/><trkpt lat="35.53165" lon="129.239215"/><trkpt lat="35.531685" lon="129.239198"/><trkpt lat="35.531744" lon="129.239179"/><trkpt lat="35.531776" lon="129.239162"/><trkpt lat="35.531803" lon="129.239132"/><trkpt lat="35.531826" lon="129.239094"/><trkpt lat="35.531946" lon="129.238863"/><trkpt lat="35.532024" lon="129.238713"/><trkpt lat="35.532041" lon="129.238672"/><trkpt lat="35.53205" lon="129.238628"/><trkpt lat="35.53205" lon="129.238584"/><trkpt lat="35.532043" lon="129.238509"/><trkpt lat="35.532042" lon="129.238464"/><trkpt lat="35.532049" lon="129.238418"/><trkpt lat="35.532067" lon="129.238358"/><trkpt lat="35.532175" lon="129.238074"/><trkpt lat="35.532227" lon="129.237928"/><trkpt lat="35.532236" lon="129.237895"/><trkpt lat="35.532236" lon="129.237881"/><trkpt lat="35.532241" lon="129.237873"/><trkpt lat="35.532292" lon="129.237835"/><trkpt lat="35.532333" lon="129.237802"/><trkpt lat="35.532357" lon="129.237772"/><trkpt lat="35.53237" lon="129.237731"/><trkpt lat="35.532376" lon="129.237685"/><trkpt lat="35.532385" lon="129.237607"/><trkpt lat="35.532395" lon="129.23756"/><trkpt lat="35.532423" lon="129.237469"/><trkpt lat="35.53253" lon="129.237153"/><trkpt lat="35.532549" lon="129.237111"/><trkpt lat="35.532588" lon="129.237044"/><trkpt lat="35.532829" lon="129.236669"/><trkpt lat="35.532863" lon="129.236619"/><trkpt lat="35.532892" lon="129.236587"/><trkpt lat="35.532936" lon="129.236552"/><trkpt lat="35.533027" lon="129.23649"/><trkpt lat="35.533063" lon="129.236473"/><trkpt lat="35.533101" lon="129.236465"/><trkpt lat="35.533141" lon="129.236466"/><trkpt lat="35.533248" lon="129.236478"/><trkpt lat="35.533302" lon="129.236488"/><trkpt lat="35.53334" lon="129.236499"/><trkpt lat="35.533416" lon="129.236531"/><trkpt lat="35.533917" lon="129.236758"/><trkpt lat="35.534054" lon="129.236821"/><trkpt lat="35.53409" lon="129.236833"/><trkpt lat="35.53412" lon="129.236831"/><trkpt lat="35.53414" lon="129.236809"/><trkpt lat="35.534168" lon="129.236769"/><trkpt lat="35.534199" lon="129.236741"/><trkpt lat="35.534233" lon="129.236717"/><trkpt lat="35.534387" lon="129.236617"/><trkpt lat="35.534457" lon="129.236569"/><trkpt lat="35.534487" lon="129.236542"/><trkpt lat="35.534509" lon="129.236511"/><trkpt lat="35.534532" lon="129.236475"/><trkpt lat="35.534557" lon="129.236462"/><trkpt lat="35.534576" lon="129.236435"/><trkpt lat="35.5346" lon="129.236383"/><trkpt lat="35.534646" lon="129.236266"/><trkpt lat="35.534666" lon="129.236225"/><trkpt lat="35.534691" lon="129.236189"/><trkpt lat="35.534751" lon="129.236127"/><trkpt lat="35.534779" lon="129.236096"/><trkpt lat="35.534802" lon="129.236061"/><trkpt lat="35.534815" lon="129.236019"/><trkpt lat="35.534824" lon="129.235958"/><trkpt lat="35.534836" lon="129.235866"/><trkpt lat="35.534847" lon="129.235826"/><trkpt lat="35.534866" lon="129.235799"/><trkpt lat="35.534896" lon="129.235768"/><trkpt lat="35.534922" lon="129.235724"/><trkpt lat="35.534949" lon="129.235691"/><trkpt lat="35.534991" lon="129.23565"/><trkpt lat="35.536123" lon="129.234642"/></trkseg>
<trkseg><trkpt lat="35.529892" lon="129.217876"/><trkpt lat="35.529909" lon="129.217882"/><trkpt lat="35.529944" lon="129.217868"/><trkpt lat="35.529978" lon="129.217835"/><trkpt lat="35.530003" lon="129.217781"/><trkpt lat="35.530022" lon="129.217745"/><trkpt lat="35.53005" lon="129.217721"/><trkpt lat="35.530086" lon="129.217708"/><trkpt lat="35.530217" lon="129.217679"/><trkpt lat="35.530256" lon="129.217668"/><trkpt lat="35.530293" lon="129.217652"/><trkpt lat="35.530342" lon="129.217625"/><trkpt lat="35.530412" lon="129.217579"/><trkpt lat="35.530445" lon="129.217551"/><trkpt lat="35.530475" lon="129.21752"/><trkpt lat="35.530764" lon="129.217178"/><trkpt lat="35.530801" lon="129.217131"/><trkpt lat="35.530824" lon="129.217093"/><trkpt lat="35.53084" lon="129.217051"/><trkpt lat="35.530863" lon="129.216964"/><trkpt lat="35.530877" lon="129.216922"/><trkpt lat="35.530897" lon="129.216883"/><trkpt lat="35.530951" lon="129.216799"/><trkpt lat="35.530973" lon="129.216761"/><trkpt lat="35.530991" lon="129.216721"/><trkpt lat="35.531026" lon="129.216624"/><trkpt lat="35.531043" lon="129.216586"/><trkpt lat="35.531073" lon="129.216548"/><trkpt lat="35.531091" lon="129.216517"/><trkpt lat="35.531097" lon="129.216474"/><trkpt lat="35.531099" lon="129.216411"/><trkpt lat="35.531094" lon="129.216151"/><trkpt lat="35.53109" lon="129.215841"/><trkpt lat="35.531087" lon="129.215777"/><trkpt lat="35.53108" lon="129.21573"/><trkpt lat="35.531064" lon="129.215669"/><trkpt lat="35.530988" lon="129.215429"/><trkpt lat="35.530971" lon="129.215369"/><trkpt lat="35.530962" lon="129.215324"/><trkpt lat="35.530963" lon="129.215278"/><trkpt lat="35.530971" lon="129.215232"/><trkpt lat="35.530991" lon="129.215155"/><trkpt lat="35.531079" lon="129.214831"/><trkpt lat="35.531089" lon="129.214786"/><trkpt lat="35.531091" lon="129.214745"/><trkpt lat="35.531076" lon="129.214713"/><trkpt lat="35.531047" lon="129.214688"/><trkpt lat="35.530989" lon="129.21465"/><trkpt lat="35.530956" lon="129.214626"/><trkpt lat="35.530929" lon="129.214597"/><trkpt lat="35.530913" lon="129.214558"/><trkpt lat="35.530902" lon="129.214498"/><trkpt lat="35.530887" lon="129.214374"/><trkpt lat="35.530884" lon="129.214327"/><trkpt lat="35.530885" lon="129.214279"/><trkpt lat="35.530895" lon="129.214198"/><trkpt lat="35.530913" lon="129.214085"/><trkpt lat="35.530923" lon="129.214042"/><trkpt lat="35.530941" lon="129.21401"/><trkpt lat="35.530971" lon="129.214002"/><trkpt lat="35.531008" lon="129.214007"/><trkpt lat="35.531043" lon="129.21402"/><trkpt lat="35.531069" lon="129.214044"/><trkpt lat="35.531079" lon="129.214078"/><trkpt lat="35.531078" lon="129.214127"/><trkpt lat="35.53109" lon="129.214163"/><trkpt lat="35.531112" lon="129.214198"/><trkpt lat="35.531139" lon="129.214232"/><trkpt lat="35.531168" lon="129.214261"/><trkpt lat="35.531203" lon="129.214277"/><trkpt lat="35.531242" lon="129.214285"/><trkpt lat="35.531417" lon="129.214297"/><trkpt lat="35.53226" lon="129.214358"/><trkpt lat="35.532328" lon="129.214361"/><trkpt lat="35.532366" lon="129.214357"/><trkpt lat="35.532417" lon="129.214347"/><trkpt lat="35.532466" lon="129.214333"/><trkpt lat="35.532499" lon="129.214317"/><trkpt lat="35.532524" lon="129.21429"/><trkpt lat="35.532556" lon="129.214231"/><trkpt lat="35.532578" lon="129.214198"/><trkpt lat="35.532627" lon="129.214155"/><trkpt lat="35.532654" lon="129.214126"/><trkpt lat="35.532674" lon="129.214087"/><trkpt lat="35.5327" lon="129.214015"/><trkpt lat="35.532771" lon="129.213805"/><trkpt lat="35.532792" lon="129.213749"/><trkpt lat="35.532812" lon="129.213716"/><trkpt lat="35.532841" lon="129.213702"/><trkpt lat="35.532887" lon="129.2137"/><trkpt lat="35.532922" lon="129.213693"/><trkpt lat="35.532964" lon="129.21368"/><trkpt lat="35.532995" lon="129.21369"/><trkpt lat="35.533025" lon="129.213715"/><trkpt lat="35.533073" lon="129.213768"/><trkpt lat="35.533256" lon="129.21398"/><trkpt lat="35.533286" lon="129.21401"/><trkpt lat="35.533319" lon="129.214035"/><trkpt lat="35.533355" lon="129.214053"/><trkpt lat="35.533417" lon="129.214076"/><trkpt lat="35.533454" lon="129.214085"/><trkpt lat="35.533491" lon="129.214083"/><trkpt lat="35.533528" lon="129.214068"/><trkpt lat="35.533587" lon="129.214033"/><trkpt lat="35.533706" lon="129.213959"/><trkpt lat="35.533741" lon="129.213942"/><trkpt lat="35.533773" lon="129.213937"/><trkpt lat="35.533812" lon="129.213956"/><trkpt lat="35.533847" lon="129.213968"/><trkpt lat="35.53396" lon="129.213997"/><trkpt lat="35.533997" lon="129.214011"/><trkpt lat="35.534033" lon="129.21403"/><trkpt lat="35.534091" lon="129.214067"/><trkpt lat="35.534123" lon="129.214093"/><trkpt lat="35.534149" lon="129.214125"/><trkpt lat="35.534166" lon="129.214167"/><trkpt lat="35.534187" lon="129.214244"/><trkpt lat="35.534283" lon="129.214602"/><trkpt lat="35.534337" lon="129.214803"/><trkpt lat="35.534343" lon="129.214847"/><trkpt lat="35.534337" lon="129.214885"/><trkpt lat="35.534318" lon="129.214916"/><trkpt lat="35.534276" lon="129.214985"/><trkpt lat="35.534279" lon="129.21503"/><trkpt lat="35.53429" lon="129.215075"/><trkpt lat="35.534344" lon="129.215223"/><trkpt lat="35.53437" lon="129.21533"/><trkpt lat="35.534378" lon="129.215374"/><trkpt lat="35.53437" lon="129.215448"/><trkpt lat="35.534237" lon="129.215597"/></trkseg>
<trkseg><trkpt lat="35.535421" lon="129.221698"/><trkpt lat="35.535469" lon="129.221231"/><trkpt lat="35.535471" lon="129.221183"/><trkpt lat="35.535469" lon="129.221135"/><trkpt lat="35.535461" lon="129.221071"/><trkpt lat="35.535419" lon="129.220797"/><trkpt lat="35.535412" lon="129.220733"/><trkpt lat="35.535411" lon="129.220685"/><trkpt lat="35.535418" lon="129.220642"/><trkpt lat="35.535442" lon="129.220556"/><trkpt lat="35.53545" lon="129.220513"/><trkpt lat="35.535451" lon="129.220468"/><trkpt lat="35.535444" lon="129.220423"/><trkpt lat="35.535423" lon="129.220318"/><trkpt lat="35.535418" lon="129.220272"/><trkpt lat="35.535421" lon="129.220227"/><trkpt lat="35.535429" lon="129.220137"/><trkpt lat="35.535425" lon="129.220091"/><trkpt lat="35.535409" lon="129.220029"/><trkpt lat="35.535379" lon="129.219937"/><trkpt lat="35.535362" lon="129.219895"/><trkpt lat="35.53534" lon="129.219862"/><trkpt lat="35.535308" lon="129.219845"/><trkpt lat="35.535248" lon="129.219823"/><trkpt lat="35.535221" lon="129.219801"/><trkpt lat="35.535197" lon="129.219772"/><trkpt lat="35.535175" lon="129.219733"/><trkpt lat="35.535149" lon="129.219676"/><trkpt lat="35.534947" lon="129.219216"/><trkpt lat="35.534923" lon="129.219157"/><trkpt lat="35.534909" lon="129.219112"/><trkpt lat="35.534873" lon="129.21896"/><trkpt lat="35.534853" lon="129.218885"/><trkpt lat="35.534838" lon="129.218843"/><trkpt lat="35.534816" lon="129.218808"/><trkpt lat="35.534785" lon="129.218764"/><trkpt lat="35.53477" lon="129.218722"/><trkpt lat="35.534759" lon="129.218659"/><trkpt lat="35.534727" lon="129.218414"/><trkpt lat="35.534721" lon="129.218349"/><trkpt lat="35.534722" lon="129.218303"/><trkpt lat="35.534736" lon="129.218264"/><trkpt lat="35.534761" lon="129.218229"/><trkpt lat="35.534902" lon="129.218076"/><trkpt lat="35.535022" lon="129.217945"/></trkseg>
<trkseg><trkpt lat="35.536231" lon="129.220986"/><trkpt lat="35.536081" lon="129.219713"/><trkpt lat="35.536065" lon="129.219617"/><trkpt lat="35.536028" lon="129.219463"/><trkpt lat="35.536007" lon="129.219387"/><trkpt lat="35.535991" lon="129.219343"/><trkpt lat="35.535958" lon="129.219271"/><trkpt lat="35.535658" lon="129.218651"/><trkpt lat="35.535629" lon="129.218596"/><trkpt lat="35.535602" lon="129.21856"/><trkpt lat="35.535553" lon="129.218505"/><trkpt lat="35.535022" lon="129.217945"/></trkseg>
<trkseg><trkpt lat="35.534237" lon="129.215597"/><trkpt lat="35.534277" lon="129.215677"/><trkpt lat="35.534298" lon="129.215728"/><trkpt lat="35.53431" lon="129.215772"/><trkpt lat="35.534323" lon="129.215848"/><trkpt lat="35.534342" lon="129.215885"/><trkpt lat="35.53437" lon="129.215917"/><trkpt lat="35.534412" lon="129.215956"/><trkpt lat="35.534445" lon="129.215982"/><trkpt lat="35.53448" lon="129.216002"/><trkpt lat="35.534543" lon="129.216028"/><trkpt lat="35.534911" lon="129.216164"/><trkpt lat="35.534949" lon="129.216174"/><trkpt lat="35.534987" lon="129.216178"/><trkpt lat="35.535025" lon="129.216172"/><trkpt lat="35.535125" lon="129.216144"/><trkpt lat="35.535175" lon="129.216132"/><trkpt lat="35.535213" lon="129.216128"/><trkpt lat="35.535251" lon="129.216135"/><trkpt lat="35.535289" lon="129.21615"/><trkpt lat="35.535325" lon="129.21617"/><trkpt lat="35.535368" lon="129.216206"/><trkpt lat="35.535546" lon="129.216371"/><trkpt lat="35.535585" lon="129.216413"/><trkpt lat="35.53561" lon="129.216447"/><trkpt lat="35.535661" lon="129.216533"/><trkpt lat="35.535685" lon="129.216567"/><trkpt lat="35.535716" lon="129.216597"/><trkpt lat="35.535773" lon="129.21664"/><trkpt lat="35.53582" lon="129.216671"/><trkpt lat="35.535858" lon="129.216687"/><trkpt lat="35.53591" lon="129.216699"/><trkpt lat="35.536179" lon="129.216738"/><trkpt lat="35.536245" lon="129.216749"/><trkpt lat="35.536284" lon="129.21676"/><trkpt lat="35.536319" lon="129.21678"/><trkpt lat="35.536351" lon="129.216808"/><trkpt lat="35.53656" lon="129.217015"/><trkpt lat="35.5366" lon="129.217057"/><trkpt lat="35.536629" lon="129.217092"/><trkpt lat="35.536671" lon="129.217155"/><trkpt lat="35.536816" lon="129.217392"/><trkpt lat="35.536842" lon="129.21743"/><trkpt lat="35.53687" lon="129.217463"/><trkpt lat="35.536902" lon="129.217489"/><trkpt lat="35.537014" lon="129.21757"/><trkpt lat="35.537046" lon="129.217596"/><trkpt lat="35.537074" lon="129.217626"/><trkpt lat="35.537094" lon="129.217663"/><trkpt lat="35.53712" lon="129.217731"/><trkpt lat="35.537139" lon="129.217769"/><trkpt lat="35.537165" lon="129.2178"/><trkpt lat="35.537198" lon="129.217824"/><trkpt lat="35.537379" lon="129.217929"/><trkpt lat="35.537729" lon="129.218132"/><trkpt lat="35.537787" lon="129.218169"/><trkpt lat="35.537819" lon="129.218196"/><trkpt lat="35.537857" lon="129.218249"/><trkpt lat="35.537881" lon="129.218279"/><trkpt lat="35.537913" lon="129.218303"/><trkpt lat="35.537959" lon="129.218327"/><trkpt lat="35.538054" lon="129.218372"/><trkpt lat="35.538089" lon="129.218393"/><trkpt lat="35.538153" lon="129.218446"/><trkpt lat="35.538248" lon="129.21853"/><trkpt lat="35.538281" lon="129.218554"/><trkpt lat="35.538318" lon="129.218573"/><trkpt lat="35.538703" lon="129.21872"/><trkpt lat="35.538896" lon="129.218794"/><trkpt lat="35.538932" lon="129.218814"/><trkpt lat="35.538966" lon="129.218839"/><trkpt lat="35.539165" lon="129.219026"/><trkpt lat="35.539206" lon="129.219067"/><trkpt lat="35.539233" lon="129.2191"/><trkpt lat="35.539257" lon="129.219135"/><trkpt lat="35.539279" lon="129.219172"/><trkpt lat="35.539296" lon="129.219211"/><trkpt lat="35.53931" lon="129.219263"/><trkpt lat="35.539321" lon="129.219299"/><trkpt lat="35.539345" lon="129.219327"/><trkpt lat="35.539397" lon="129.219364"/><trkpt lat="35.539427" lon="129.219387"/><trkpt lat="35.539448" lon="129.219418"/><trkpt lat="35.539464" lon="129.219484"/><trkpt lat="35.539476" lon="129.219521"/><trkpt lat="35.539499" lon="129.219551"/><trkpt lat="35.539534" lon="129.219589"/><trkpt lat="35.539552" lon="129.219626"/><trkpt lat="35.539566" lon="129.219669"/><trkpt lat="35.539576" lon="129.219713"/><trkpt lat="35.539581" lon="129.21976"/><trkpt lat="35.539582" lon="129.219841"/><trkpt lat="35.539578" lon="129.220004"/></trkseg>
<trkseg><trkpt lat="35.537594" lon="129.22945"/><trkpt lat="35.537363" lon="129.22909"/><trkpt lat="35.537329" lon="129.229041"/><trkpt lat="35.537301" lon="129.229011"/><trkpt lat="35.53727" lon="129.228994"/><trkpt lat="35.537215" lon="129.228977"/><trkpt lat="35.537185" lon="129.228951"/><trkpt lat="35.537158" lon="129.228917"/><trkpt lat="35.537028" lon="129.228728"/><trkpt lat="35.536784" lon="129.228377"/><trkpt lat="35.536742" lon="129.228314"/><trkpt lat="35.536722" lon="129.228274"/><trkpt lat="35.536712" lon="129.228232"/><trkpt lat="35.536709" lon="129.228186"/><trkpt lat="35.53671" lon="129.228093"/><trkpt lat="35.536708" lon="129.228046"/><trkpt lat="35.536699" lon="129.227981"/><trkpt lat="35.536539" lon="129.227028"/><trkpt lat="35.536485" lon="129.226705"/><trkpt lat="35.536478" lon="129.226656"/><trkpt lat="35.536477" lon="129.226608"/><trkpt lat="35.536483" lon="129.226564"/><trkpt lat="35.536509" lon="129.226462"/><trkpt lat="35.536519" lon="129.226417"/><trkpt lat="35.536524" lon="129.22637"/><trkpt lat="35.536524" lon="129.226271"/><trkpt lat="35.536519" lon="129.226156"/><trkpt lat="35.536514" lon="129.226108"/><trkpt lat="35.5365" lon="129.226064"/><trkpt lat="35.536472" lon="129.226009"/><trkpt lat="35.536182" lon="129.225496"/><trkpt lat="35.536053" lon="129.225267"/><trkpt lat="35.536035" lon="129.225224"/><trkpt lat="35.536023" lon="129.225178"/><trkpt lat="35.536005" lon="129.225065"/><trkpt lat="35.535988" lon="129.224935"/><trkpt lat="35.535986" lon="129.224886"/><trkpt lat="35.535991" lon="129.22481"/><trkpt lat="35.535991" lon="129.224774"/><trkpt lat="35.535979" lon="129.224758"/><trkpt lat="35.535966" lon="129.224749"/><trkpt lat="35.535966" lon="129.224728"/><trkpt lat="35.535963" lon="129.224693"/><trkpt lat="35.535952" lon="129.22465"/><trkpt lat="35.535717" lon="129.223964"/><trkpt lat="35.535622" lon="129.22369"/><trkpt lat="35.535609" lon="129.223644"/><trkpt lat="35.535603" lon="129.223598"/><trkpt lat="35.535609" lon="129.223555"/><trkpt lat="35.535637" lon="129.223469"/><trkpt lat="35.53565" lon="129.223425"/><trkpt lat="35.535658" lon="129.223379"/><trkpt lat="35.535661" lon="129.223332"/><trkpt lat="35.535661" lon="129.223285"/><trkpt lat="35.535656" lon="129.22324"/><trkpt lat="35.535642" lon="129.223195"/><trkpt lat="35.535618" lon="129.223138"/><trkpt lat="35.535569" lon="129.223023"/><trkpt lat="35.535556" lon="129.222978"/><trkpt lat="35.535546" lon="129.222914"/><trkpt lat="35.535421" lon="129.221698"/></trkseg>
<trkseg><trkpt lat="35.536231" lon="129.220986"/><trkpt lat="35.536311" lon="129.220992"/><trkpt lat="35.536372" lon="129.220994"/><trkpt lat="35.536409" lon="129.22099"/><trkpt lat="35.536446" lon="129.220976"/><trkpt lat="35.536519" lon="129.220938"/><trkpt lat="35.536578" lon="129.220904"/><trkpt lat="35.536611" lon="129.22088"/><trkpt lat="35.536637" lon="129.220848"/><trkpt lat="35.536654" lon="129.220807"/><trkpt lat="35.536676" lon="129.22073"/><trkpt lat="35.536849" lon="129.220094"/><trkpt lat="35.536913" lon="129.219861"/><trkpt lat="35.536929" lon="129.219818"/><trkpt lat="35.536952" lon="129.219783"/><trkpt lat="35.536983" lon="129.219757"/><trkpt lat="35.53703" lon="129.219729"/><trkpt lat="35.537091" lon="129.219697"/><trkpt lat="35.537125" lon="129.219686"/><trkpt lat="35.537157" lon="129.219691"/><trkpt lat="35.537184" lon="129.219717"/><trkpt lat="35.537217" lon="129.219764"/><trkpt lat="35.537323" lon="129.219929"/><trkpt lat="35.537349" lon="129.219964"/><trkpt lat="35.537379" lon="129.219996"/><trkpt lat="35.537422" lon="129.220034"/><trkpt lat="35.537602" lon="129.220177"/><trkpt lat="35.537637" lon="129.220201"/><trkpt lat="35.537673" lon="129.22022"/><trkpt lat="35.537724" lon="129.22024"/><trkpt lat="35.53789" lon="129.220296"/><trkpt lat="35.537941" lon="129.220309"/><trkpt lat="35.53798" lon="129.220311"/><trkpt lat="35.538018" lon="129.220302"/><trkpt lat="35.538069" lon="129.220285"/><trkpt lat="35.538326" lon="129.220191"/><trkpt lat="35.538364" lon="129.220175"/><trkpt lat="35.5384" lon="129.220154"/><trkpt lat="35.538459" lon="129.220114"/><trkpt lat="35.538678" lon="129.219953"/><trkpt lat="35.538714" lon="129.21993"/><trkpt lat="35.53875" lon="129.219913"/><trkpt lat="35.538789" lon="129.219909"/><trkpt lat="35.538842" lon="129.219913"/><trkpt lat="35.539578" lon="129.220004"/></trkseg>
<trkseg><trkpt lat="35.535421" lon="129.221698"/><trkpt lat="35.535575" lon="129.221582"/><trkpt lat="35.535606" lon="129.221555"/><trkpt lat="35.535633" lon="129.221523"/><trkpt lat="35.535656" lon="129.221483"/><trkpt lat="35.535689" lon="129.221413"/><trkpt lat="35.535788" lon="129.221199"/><trkpt lat="35.53581" lon="129.22116"/><trkpt lat="35.535838" lon="129.221132"/><trkpt lat="35.535874" lon="129.221115"/><trkpt lat="35.535925" lon="129.2211"/><trkpt lat="35.536111" lon="129.221055"/><trkpt lat="35.536156" lon="129.221039"/><trkpt lat="35.536201" lon="129.221014"/><trkpt lat="35.536226" lon="129.220992"/><trkpt lat="35.536231" lon="129.220986"/></trkseg>
<trkseg><trkpt lat="35.535022" lon="129.217945"/><trkpt lat="35.534875" lon="129.217778"/><trkpt lat="35.534848" lon="129.217743"/><trkpt lat="35.534824" lon="129.217707"/><trkpt lat="35.534805" lon="129.217657"/><trkpt lat="35.534788" lon="129.217625"/><trkpt lat="35.534758" lon="129.217599"/><trkpt lat="35.534711" lon="129.217571"/><trkpt lat="35.534329" lon="129.217366"/><trkpt lat="35.534295" lon="129.217344"/><trkpt lat="35.534268" lon="129.217315"/><trkpt lat="35.534256" lon="129.217275"/><trkpt lat="35.534251" lon="129.21723"/><trkpt lat="35.534244" lon="129.21702"/><trkpt lat="35.53424" lon="129.216924"/><trkpt lat="35.534233" lon="129.216878"/><trkpt lat="35.53422" lon="129.216834"/><trkpt lat="35.534192" lon="129.21678"/><trkpt lat="35.534009" lon="129.21646"/><trkpt lat="35.53398" lon="129.216406"/><trkpt lat="35.533962" lon="129.216365"/><trkpt lat="35.533955" lon="129.21632"/><trkpt lat="35.533956" lon="129.216272"/><trkpt lat="35.533965" lon="129.21616"/><trkpt lat="35.533972" lon="129.216113"/><trkpt lat="35.533984" lon="129.216069"/><trkpt lat="35.534006" lon="129.21603"/><trkpt lat="35.534032" lon="129.215994"/><trkpt lat="35.534167" lon="129.215834"/><trkpt lat="35.534204" lon="129.215788"/><trkpt lat="35.534227" lon="129.215751"/><trkpt lat="35.534239" lon="129.215698"/><trkpt lat="35.534239" lon="129.215638"/><trkpt lat="35.534237" lon="129.215597"/></trkseg>
<trkseg><trkpt lat="35.536123" lon="129.234642"/><trkpt lat="35.536173" lon="129.234814"/><trkpt lat="35.536189" lon="129.234859"/><trkpt lat="35.536209" lon="129.234901"/><trkpt lat="35.536241" lon="129.23495"/><trkpt lat="35.536257" lon="129.234986"/><trkpt lat="35.536255" lon="129.235022"/><trkpt lat="35.536226" lon="129.235082"/><trkpt lat="35.536213" lon="129.235118"/><trkpt lat="35.536218" lon="129.235154"/><trkpt lat="35.536237" lon="129.23519"/><trkpt lat="35.536272" lon="129.235237"/><trkpt lat="35.536337" lon="129.23532"/><trkpt lat="35.536366" lon="129.235352"/><trkpt lat="35.536418" lon="129.235397"/><trkpt lat="35.536444" lon="129.235423"/><trkpt lat="35.536453" lon="129.235451"/><trkpt lat="35.536459" lon="129.235478"/><trkpt lat="35.536478" lon="129.235501"/><trkpt lat="35.536507" lon="129.235508"/><trkpt lat="35.536542" lon="129.235496"/><trkpt lat="35.536602" lon="129.235463"/><trkpt lat="35.536638" lon="129.235451"/><trkpt lat="35.53667" lon="129.235453"/><trkpt lat="35.536696" lon="129.235467"/><trkpt lat="35.536707" lon="129.235495"/><trkpt lat="35.536715" lon="129.235542"/><trkpt lat="35.536736" lon="129.235571"/><trkpt lat="35.536768" lon="129.235595"/><trkpt lat="35.536835" lon="129.235641"/><trkpt lat="35.536862" lon="129.235669"/><trkpt lat="35.536886" lon="129.235708"/><trkpt lat="35.536915" lon="129.235733"/><trkpt lat="35.53695" lon="129.235751"/><trkpt lat="35.537076" lon="129.235804"/><trkpt lat="35.537125" lon="129.235826"/><trkpt lat="35.53716" lon="129.235847"/><trkpt lat="35.53719" lon="129.235877"/><trkpt lat="35.537214" lon="129.235914"/><trkpt lat="35.537269" lon="129.236006"/><trkpt lat="35.537294" lon="129.23604"/><trkpt lat="35.537323" lon="129.236061"/><trkpt lat="35.537378" lon="129.236074"/><trkpt lat="35.537408" lon="129.236094"/><trkpt lat="35.537432" lon="129.236127"/><trkpt lat="35.537447" lon="129.236162"/><trkpt lat="35.537457" lon="129.23619"/><trkpt lat="35.537477" lon="129.236199"/><trkpt lat="35.537529" lon="129.236188"/><trkpt lat="35.537557" lon="129.236194"/><trkpt lat="35.537577" lon="129.236215"/><trkpt lat="35.53759" lon="129.236252"/><trkpt lat="35.537597" lon="129.236299"/><trkpt lat="35.53762" lon="129.236597"/><trkpt lat="35.537732" lon="129.238045"/><trkpt lat="35.537738" lon="129.238109"/><trkpt lat="35.537746" lon="129.238149"/><trkpt lat="35.537763" lon="129.23817"/><trkpt lat="35.537796" lon="129.238176"/><trkpt lat="35.537817" lon="129.238189"/><trkpt lat="35.537829" lon="129.238211"/><trkpt lat="35.537834" lon="129.238237"/><trkpt lat="35.537845" lon="129.238246"/><trkpt lat="35.537863" lon="129.238253"/><trkpt lat="35.537862" lon="129.23828"/><trkpt lat="35.537844" lon="129.238349"/><trkpt lat="35.537838" lon="129.238394"/><trkpt lat="35.537844" lon="129.238441"/><trkpt lat="35.537857" lon="129.238486"/><trkpt lat="35.537874" lon="129.23853"/><trkpt lat="35.537898" lon="129.238567"/><trkpt lat="35.537928" lon="129.238601"/><trkpt lat="35.538145" lon="129.23882"/><trkpt lat="35.538825" lon="129.239509"/><trkpt lat="35.538867" lon="129.239549"/><trkpt lat="35.538912" lon="129.239582"/><trkpt lat="35.53918" lon="129.239762"/><trkpt lat="35.539249" lon="129.239811"/><trkpt lat="35.53928" lon="129.239839"/><trkpt lat="35.539306" lon="129.239873"/><trkpt lat="35.539328" lon="129.239911"/><trkpt lat="35.539345" lon="129.239951"/><trkpt lat="35.539359" lon="129.240016"/><trkpt lat="35.539369" lon="129.240042"/><trkpt lat="35.539394" lon="129.240048"/><trkpt lat="35.539436" lon="129.240043"/><trkpt lat="35.539467" lon="129.240047"/><trkpt lat="35.539493" lon="129.240073"/><trkpt lat="35.539514" lon="129.24011"/><trkpt lat="35.539594" lon="129.240281"/><trkpt lat="35.540017" lon="129.241191"/><trkpt lat="35.540049" lon="129.241263"/><trkpt lat="35.540064" lon="129.241308"/><trkpt lat="35.540074" lon="129.241354"/><trkpt lat="35.540089" lon="129.241449"/><trkpt lat="35.5401" lon="129.241495"/><trkpt lat="35.540119" lon="129.241535"/><trkpt lat="35.540144" lon="129.24157"/><trkpt lat="35.540208" lon="129.241648"/><trkpt lat="35.540244" lon="129.241694"/><trkpt lat="35.540268" lon="129.241731"/><trkpt lat="35.540295" lon="129.241785"/><trkpt lat="35.54037" lon="129.241954"/><trkpt lat="35.540397" lon="129.242008"/><trkpt lat="35.54042" lon="129.242044"/><trkpt lat="35.540456" lon="129.242082"/><trkpt lat="35.540478" lon="129.24211"/><trkpt lat="35.540488" lon="129.24214"/><trkpt lat="35.540508" lon="129.242172"/><trkpt lat="35.540539" lon="129.242217"/><trkpt lat="35.540555" lon="129.242256"/><trkpt lat="35.540572" lon="129.242326"/><trkpt lat="35.540586" lon="129.242365"/><trkpt lat="35.54061" lon="129.242398"/><trkpt lat="35.540641" lon="129.242427"/><trkpt lat="35.540849" lon="129.242595"/><trkpt lat="35.540895" lon="129.242626"/><trkpt lat="35.540981" lon="129.242672"/><trkpt lat="35.541167" lon="129.242764"/><trkpt lat="35.541201" lon="129.242787"/><trkpt lat="35.541232" lon="129.242817"/><trkpt lat="35.541267" lon="129.242865"/><trkpt lat="35.541427" lon="129.24311"/><trkpt lat="35.541475" lon="129.243188"/><trkpt lat="35.541496" lon="129.243228"/><trkpt lat="35.541517" lon="129.243285"/><trkpt lat="35.541539" lon="129.243321"/><trkpt lat="35.541596" lon="129.243386"/><trkpt lat="35.541623" lon="129.24342"/><trkpt lat="35.541644" lon="129.243458"/><trkpt lat="35.541661" lon="129.243499"/><trkpt lat="35.541696" lon="129.243598"/><trkpt lat="35.541714" lon="129.243638"/><trkpt lat="35.54174" lon="129.243672"/><trkpt lat="35.541771" lon="129.243701"/><trkpt lat="35.541966" lon="129.243849"/><trkpt lat="35.542013" lon="129.24388"/><trkpt lat="35.54205" lon="129.243896"/><trkpt lat="35.542101" lon="129.24391"/><trkpt lat="35.54223" lon="129.243939"/><trkpt lat="35.542267" lon="129.243952"/><trkpt lat="35.542303" lon="129.243971"/><trkpt lat="35.542468" lon="129.244078"/><trkpt lat="35.5427" lon="129.244254"/><trkpt lat="35.542784" lon="129.244615"/><trkpt lat="35.542749" lon="129.245174"/><trkpt lat="35.542797" lon="129.245756"/><trkpt lat="35.542827" lon="129.245865"/><trkpt lat="35.542991" lon="129.246336"/><trkpt lat="35.543024" lon="129.246426"/><trkpt lat="35.543046" lon="129.246466"/><trkpt lat="35.543074" lon="129.246498"/><trkpt lat="35.543139" lon="129.246554"/><trkpt lat="35.543485" lon="129.246835"/><trkpt lat="35.543515" lon="129.246865"/><trkpt lat="35.543538" lon="129.246903"/><trkpt lat="35.543556" lon="129.246946"/><trkpt lat="35.543671" lon="129.247293"/><trkpt lat="35.543777" lon="129.24761"/><trkpt lat="35.54379" lon="129.247656"/><trkpt lat="35.543795" lon="129.247701"/><trkpt lat="35.543788" lon="129.247744"/><trkpt lat="35.543775" lon="129.247787"/><trkpt lat="35.543752" lon="129.24786"/><trkpt lat="35.543744" lon="129.247903"/><trkpt lat="35.543749" lon="129.247948"/><trkpt lat="35.54376" lon="129.247992"/><trkpt lat="35.543777" lon="129.248034"/><trkpt lat="35.5438" lon="129.248072"/><trkpt lat="35.543828" lon="129.248107"/><trkpt lat="35.544089" lon="129.248392"/><trkpt lat="35.54416" lon="129.248467"/><trkpt lat="35.544189" lon="129.248494"/><trkpt lat="35.544219" lon="129.248517"/><trkpt lat="35.544236" lon="129.248547"/><trkpt lat="35.544254" lon="129.248599"/><trkpt lat="35.544275" lon="129.248638"/><trkpt lat="35.54431" lon="129.248685"/><trkpt lat="35.544386" lon="129.248775"/><trkpt lat="35.544417" lon="129.248804"/><trkpt lat="35.544452" lon="129.248827"/><trkpt lat="35.544488" lon="129.248844"/><trkpt lat="35.544526" lon="129.248853"/><trkpt lat="35.544566" lon="129.248854"/><trkpt lat="35.544713" lon="129.248842"/><trkpt lat="35.544753" lon="129.248842"/><trkpt lat="35.544792" lon="129.248846"/><trkpt lat="35.545038" lon="129.248913"/><trkpt lat="35.54522" lon="129.248963"/><trkpt lat="35.545259" lon="129.248969"/><trkpt lat="35.545294" lon="129.248968"/><trkpt lat="35.545327" lon="129.24896"/><trkpt lat="35.545356" lon="129.248943"/><trkpt lat="35.545377" lon="129.248911"/><trkpt lat="35.545408" lon="129.248855"/><trkpt lat="35.545437" lon="129.248839"/><trkpt lat="35.545473" lon="129.248838"/><trkpt lat="35.545526" lon="129.248846"/><trkpt lat="35.546035" lon="129.248934"/><trkpt lat="35.546316" lon="129.248982"/><trkpt lat="35.54639" lon="129.249003"/><trkpt lat="35.546425" lon="129.249017"/><trkpt lat="35.546458" lon="129.249037"/><trkpt lat="35.54649" lon="129.249065"/><trkpt lat="35.546582" lon="129.249161"/><trkpt lat="35.546631" lon="129.249217"/><trkpt lat="35.546656" lon="129.249254"/><trkpt lat="35.546682" lon="129.249311"/><trkpt lat="35.546813" lon="129.249637"/><trkpt lat="35.54743" lon="129.25118"/><trkpt lat="35.547608" lon="129.251844"/><trkpt lat="35.547524" lon="129.252224"/><trkpt lat="35.547591" lon="129.25276"/><trkpt lat="35.547647" lon="129.253549"/><trkpt lat="35.547546" lon="129.254109"/></trkseg>
<trkseg><trkpt lat="35.557331" lon="129.254724"/><trkpt lat="35.557316" lon="129.254731"/><trkpt lat="35.557279" lon="129.254742"/><trkpt lat="35.55723" lon="129.254743"/><trkpt lat="35.557163" lon="129.254727"/><trkpt lat="35.557113" lon="129.254715"/><trkpt lat="35.557078" lon="129.254714"/><trkpt lat="35.557038" lon="129.254724"/><trkpt lat="35.557015" lon="129.254719"/><trkpt lat="35.556989" lon="129.254692"/><trkpt lat="35.556957" lon="129.254677"/><trkpt lat="35.556921" lon="129.254667"/><trkpt lat="35.556842" lon="129.254655"/><trkpt lat="35.556553" lon="129.254611"/><trkpt lat="35.556518" lon="129.254601"/><trkpt lat="35.556485" lon="129.25458"/><trkpt lat="35.556457" lon="129.254569"/><trkpt lat="35.556421" lon="129.254567"/><trkpt lat="35.556045" lon="129.254595"/><trkpt lat="35.555964" lon="129.254599"/><trkpt lat="35.555925" lon="129.254596"/><trkpt lat="35.555887" lon="129.254585"/><trkpt lat="35.555812" lon="129.254552"/><trkpt lat="35.555386" lon="129.254486"/><trkpt lat="35.555336" lon="129.254466"/><trkpt lat="35.555298" lon="129.254456"/><trkpt lat="35.555239" lon="129.254448"/><trkpt lat="35.555206" lon="129.254437"/><trkpt lat="35.555175" lon="129.254412"/><trkpt lat="35.555148" lon="129.254379"/><trkpt lat="35.555092" lon="129.25431"/><trkpt lat="35.555062" lon="129.25428"/><trkpt lat="35.555028" lon="129.254255"/><trkpt lat="35.554971" lon="129.254217"/><trkpt lat="35.554943" lon="129.254191"/><trkpt lat="35.554923" lon="129.254152"/><trkpt lat="35.554908" lon="129.254125"/><trkpt lat="35.55488" lon="129.254103"/><trkpt lat="35.554837" lon="129.254075"/><trkpt lat="35.55481" lon="129.254045"/><trkpt lat="35.55478" lon="129.253997"/><trkpt lat="35.554729" lon="129.253907"/><trkpt lat="35.554704" lon="129.253871"/><trkpt lat="35.554675" lon="129.253838"/><trkpt lat="35.554497" lon="129.253661"/><trkpt lat="35.554436" lon="129.253598"/><trkpt lat="35.554411" lon="129.253565"/><trkpt lat="35.554393" lon="129.253528"/><trkpt lat="35.554369" lon="129.253499"/><trkpt lat="35.554326" lon="129.253465"/><trkpt lat="35.553998" lon="129.253236"/><trkpt lat="35.553927" lon="129.253189"/><trkpt lat="35.55389" lon="129.253169"/><trkpt lat="35.553831" lon="129.253147"/><trkpt lat="35.553798" lon="129.253129"/><trkpt lat="35.553766" lon="129.253103"/><trkpt lat="35.553707" lon="129.253044"/><trkpt lat="35.55365" lon="129.252981"/><trkpt lat="35.553614" lon="129.252933"/><trkpt lat="35.553332" lon="129.252512"/><trkpt lat="35.553288" lon="129.25245"/><trkpt lat="35.553258" lon="129.252418"/><trkpt lat="35.553213" lon="129.252383"/><trkpt lat="35.553" lon="129.252241"/><trkpt lat="35.552941" lon="129.2522"/><trkpt lat="35.552909" lon="129.252172"/><trkpt lat="35.552881" lon="129.252137"/><trkpt lat="35.552857" lon="129.252098"/><trkpt lat="35.552837" lon="129.252056"/><trkpt lat="35.552825" lon="129.252012"/><trkpt lat="35.552811" lon="129.251937"/><trkpt lat="35.552799" lon="129.251896"/><trkpt lat="35.552779" lon="129.251867"/><trkpt lat="35.552746" lon="129.251852"/><trkpt lat="35.552709" lon="129.251843"/><trkpt lat="35.552512" lon="129.251812"/><trkpt lat="35.552459" lon="129.251808"/><trkpt lat="35.55242" lon="129.251812"/><trkpt lat="35.552301" lon="129.251834"/><trkpt lat="35.552264" lon="129.251837"/><trkpt lat="35.552232" lon="129.25183"/><trkpt lat="35.5522" lon="129.251796"/><trkpt lat="35.552172" lon="129.251777"/><trkpt lat="35.552137" lon="129.251767"/><trkpt lat="35.55208" lon="129.251754"/><trkpt lat="35.552054" lon="129.251738"/><trkpt lat="35.552038" lon="129.251694"/><trkpt lat="35.552016" lon="129.251638"/><trkpt lat="35.551899" lon="129.251377"/><trkpt lat="35.551865" lon="129.251306"/><trkpt lat="35.551841" lon="129.251266"/><trkpt lat="35.551743" lon="129.251129"/><trkpt lat="35.551698" lon="129.251069"/><trkpt lat="35.551671" lon="129.251042"/><trkpt lat="35.551645" lon="129.251036"/><trkpt lat="35.551612" lon="129.251058"/><trkpt lat="35.551582" lon="129.251075"/><trkpt lat="35.551545" lon="129.251083"/><trkpt lat="35.551506" lon="129.251086"/><trkpt lat="35.5514" lon="129.251087"/><trkpt lat="35.551362" lon="129.251084"/><trkpt lat="35.551327" lon="129.251075"/><trkpt lat="35.551301" lon="129.251049"/><trkpt lat="35.551274" lon="129.250997"/><trkpt lat="35.551251" lon="129.250959"/><trkpt lat="35.551221" lon="129.250926"/><trkpt lat="35.551147" lon="129.250858"/><trkpt lat="35.551117" lon="129.250826"/><trkpt lat="35.551095" lon="129.250789"/><trkpt lat="35.551082" lon="129.250746"/><trkpt lat="35.551066" lon="129.250652"/><trkpt lat="35.551054" lon="129.25059"/><trkpt lat="35.55104" lon="129.250547"/><trkpt lat="35.551018" lon="129.250509"/><trkpt lat="35.550991" lon="129.250474"/><trkpt lat="35.550961" lon="129.250442"/><trkpt lat="35.55093" lon="129.250416"/><trkpt lat="35.550876" lon="129.250386"/><trkpt lat="35.550855" lon="129.250361"/><trkpt lat="35.550842" lon="129.25032"/><trkpt lat="35.550823" lon="129.250298"/><trkpt lat="35.550781" lon="129.250275"/><trkpt lat="35.550769" lon="129.250256"/><trkpt lat="35.550771" lon="129.250227"/><trkpt lat="35.550763" lon="129.250193"/><trkpt lat="35.550741" lon="129.250159"/><trkpt lat="35.550688" lon="129.250088"/><trkpt lat="35.550665" lon="129.25005"/><trkpt lat="35.550651" lon="129.250006"/><trkpt lat="35.550639" lon="129.249944"/><trkpt lat="35.550599" lon="129.24969"/><trkpt lat="35.55059" lon="129.249644"/><trkpt lat="35.550577" lon="129.249602"/><trkpt lat="35.550554" lon="129.249567"/><trkpt lat="35.550502" lon="129.249523"/><trkpt lat="35.550474" lon="129.249497"/><trkpt lat="35.550459" lon="129.249468"/><trkpt lat="35.550454" lon="129.249439"/><trkpt lat="35.550438" lon="129.249419"/><trkpt lat="35.550407" lon="129.249407"/><trkpt lat="35.550354" lon="129.249242"/><trkpt lat="35.550349" lon="129.249197"/><trkpt lat="35.550336" lon="129.24916"/><trkpt lat="35.550313" lon="129.249116"/><trkpt lat="35.550297" lon="129.24906"/><trkpt lat="35.550283" lon="129.249018"/><trkpt lat="35.550262" lon="129.248977"/><trkpt lat="35.550229" lon="129.248926"/><trkpt lat="35.549856" lon="129.248368"/><trkpt lat="35.54972" lon="129.248166"/><trkpt lat="35.549684" lon="129.248118"/><trkpt lat="35.549643" lon="129.248077"/><trkpt lat="35.549308" lon="129.247675"/><trkpt lat="35.549243" lon="129.247617"/><trkpt lat="35.549157" lon="129.247519"/><trkpt lat="35.549005" lon="129.247343"/><trkpt lat="35.548975" lon="129.247313"/><trkpt lat="35.548923" lon="129.247275"/><trkpt lat="35.548895" lon="129.247252"/><trkpt lat="35.548873" lon="129.247226"/><trkpt lat="35.548848" lon="129.247209"/><trkpt lat="35.54881" lon="129.247193"/><trkpt lat="35.548765" lon="129.247155"/><trkpt lat="35.548735" lon="129.247133"/><trkpt lat="35.548692" lon="129.247111"/><trkpt lat="35.548668" lon="129.24709"/><trkpt lat="35.548658" lon="129.247053"/><trkpt lat="35.548654" lon="129.24698"/><trkpt lat="35.54862" lon="129.246777"/><trkpt lat="35.5486" lon="129.246761"/><trkpt lat="35.548546" lon="129.246682"/><trkpt lat="35.548411" lon="129.24653"/><trkpt lat="35.548275" lon="129.246379"/><trkpt lat="35.548243" lon="129.24635"/><trkpt lat="35.548187" lon="129.246308"/><trkpt lat="35.548001" lon="129.24618"/><trkpt lat="35.54797" lon="129.246155"/><trkpt lat="35.547946" lon="129.246128"/><trkpt lat="35.547941" lon="129.246098"/><trkpt lat="35.547944" lon="129.246046"/><trkpt lat="35.547941" lon="129.245982"/><trkpt lat="35.547928" lon="129.245852"/><trkpt lat="35.547815" lon="129.245327"/><trkpt lat="35.547804" lon="129.245247"/><trkpt lat="35.547793" lon="129.245203"/><trkpt lat="35.547771" lon="129.245169"/><trkpt lat="35.54774" lon="129.245142"/><trkpt lat="35.54767" lon="129.245096"/><trkpt lat="35.547622" lon="129.24507"/><trkpt lat="35.547584" lon="129.245059"/><trkpt lat="35.547275" lon="129.244944"/><trkpt lat="35.546757" lon="129.244592"/><trkpt lat="35.54646" lon="129.244394"/><trkpt lat="35.546112" lon="129.244276"/><trkpt lat="35.545771" lon="129.244024"/><trkpt lat="35.545452" lon="129.243476"/><trkpt lat="35.545056" lon="129.242995"/><trkpt lat="35.544871" lon="129.242202"/><trkpt lat="35.544812" lon="129.241369"/><trkpt lat="35.545018" lon="129.2408"/><trkpt lat="35.54509" lon="129.240269"/><trkpt lat="35.545074" lon="129.239863"/><trkpt lat="35.544954" lon="129.239527"/><trkpt lat="35.544973" lon="129.239116"/><trkpt lat="35.54491" lon="129.238659"/><trkpt lat="35.544946" lon="129.238164"/><trkpt lat="35.544763" lon="129.237596"/><trkpt lat="35.544597" lon="129.237396"/><trkpt lat="35.544546" lon="129.237098"/><trkpt lat="35.544558" lon="129.236924"/><trkpt lat="35.544564" lon="129.236876"/><trkpt lat="35.544576" lon="129.236832"/><trkpt lat="35.544597" lon="129.236791"/><trkpt lat="35.544719" lon="129.236599"/><trkpt lat="35.544974" lon="129.236203"/><trkpt lat="35.545006" lon="129.236151"/><trkpt lat="35.545025" lon="129.23611"/><trkpt lat="35.545039" lon="129.236065"/><trkpt lat="35.545056" lon="129.235985"/><trkpt lat="35.545333" lon="129.234522"/><trkpt lat="35.545383" lon="129.234247"/><trkpt lat="35.545398" lon="129.234185"/><trkpt lat="35.545414" lon="129.234143"/><trkpt lat="35.545441" lon="129.234109"/><trkpt lat="35.545473" lon="129.234081"/><trkpt lat="35.545654" lon="129.233741"/><trkpt lat="35.545654" lon="129.233712"/><trkpt lat="35.545671" lon="129.233677"/><trkpt lat="35.545702" lon="129.233628"/><trkpt lat="35.545822" lon="129.233453"/><trkpt lat="35.545845" lon="129.233415"/><trkpt lat="35.545862" lon="129.233374"/><trkpt lat="35.545869" lon="129.233328"/><trkpt lat="35.545869" lon="129.23328"/><trkpt lat="35.54586" lon="129.233035"/><trkpt lat="35.545849" lon="129.232724"/><trkpt lat="35.545844" lon="129.232659"/><trkpt lat="35.545836" lon="129.232612"/><trkpt lat="35.545817" lon="129.232533"/><trkpt lat="35.54565" lon="129.231923"/><trkpt lat="35.545595" lon="129.231719"/><trkpt lat="35.545579" lon="129.231675"/><trkpt lat="35.545557" lon="129.231639"/><trkpt lat="35.545526" lon="129.231611"/><trkpt lat="35.545467" lon="129.231572"/><trkpt lat="35.545181" lon="129.23139"/><trkpt lat="35.545123" lon="129.23135"/><trkpt lat="35.545092" lon="129.231322"/><trkpt lat="35.545062" lon="129.231284"/><trkpt lat="35.545038" lon="129.231264"/><trkpt lat="35.545" lon="129.231242"/><trkpt lat="35.544962" lon="129.231204"/><trkpt lat="35.54475" lon="129.230958"/><trkpt lat="35.544714" lon="129.230913"/><trkpt lat="35.544692" lon="129.230877"/><trkpt lat="35.544676" lon="129.230819"/><trkpt lat="35.544661" lon="129.230783"/><trkpt lat="35.544636" lon="129.230749"/><trkpt lat="35.544498" lon="129.230599"/><trkpt lat="35.544359" lon="129.230449"/><trkpt lat="35.544327" lon="129.230423"/><trkpt lat="35.544291" lon="129.230406"/><trkpt lat="35.544252" lon="129.230397"/><trkpt lat="35.544105" lon="129.23038"/><trkpt lat="35.544025" lon="129.230368"/><trkpt lat="35.543988" lon="129.230355"/><trkpt lat="35.543955" lon="129.230336"/><trkpt lat="35.543924" lon="129.230314"/><trkpt lat="35.543894" lon="129.230286"/><trkpt lat="35.543845" lon="129.23023"/><trkpt lat="35.543498" lon="129.229792"/><trkpt lat="35.543405" lon="129.229672"/><trkpt lat="35.543376" lon="129.229641"/><trkpt lat="35.543345" lon="129.229623"/><trkpt lat="35.543312" lon="129.229628"/><trkpt lat="35.543277" lon="129.229645"/><trkpt lat="35.543111" lon="129.229748"/><trkpt lat="35.54304" lon="129.229789"/><trkpt lat="35.543005" lon="129.229802"/><trkpt lat="35.542969" lon="129.229798"/><trkpt lat="35.542933" lon="129.229782"/><trkpt lat="35.542789" lon="129.229692"/><trkpt lat="35.541814" lon="129.229092"/><trkpt lat="35.541756" lon="129.229055"/><trkpt lat="35.541726" lon="129.229031"/><trkpt lat="35.541708" lon="129.229002"/><trkpt lat="35.541694" lon="129.228972"/><trkpt lat="35.541668" lon="129.228944"/><trkpt lat="35.541636" lon="129.228918"/><trkpt lat="35.541439" lon="129.228774"/><trkpt lat="35.541335" lon="129.228698"/><trkpt lat="35.541301" lon="129.228677"/><trkpt lat="35.541267" lon="129.228668"/><trkpt lat="35.541234" lon="129.22868"/><trkpt lat="35.541202" lon="129.228705"/><trkpt lat="35.541095" lon="129.228803"/><trkpt lat="35.54102" lon="129.22887"/><trkpt lat="35.540986" lon="129.228896"/><trkpt lat="35.54095" lon="129.228917"/><trkpt lat="35.5407" lon="129.229037"/><trkpt lat="35.539973" lon="129.229384"/><trkpt lat="35.539923" lon="129.229406"/><trkpt lat="35.539886" lon="129.229414"/><trkpt lat="35.539854" lon="129.229408"/><trkpt lat="35.539813" lon="129.229389"/><trkpt lat="35.53978" lon="129.229381"/><trkpt lat="35.539742" lon="129.229385"/><trkpt lat="35.539692" lon="129.2294"/><trkpt lat="35.539577" lon="129.229439"/><trkpt lat="35.539538" lon="129.229447"/><trkpt lat="35.539498" lon="129.229449"/><trkpt lat="35.539242" lon="129.229431"/><trkpt lat="35.538648" lon="129.229388"/><trkpt lat="35.538568" lon="129.229389"/><trkpt lat="35.537594" lon="129.22945"/></trkseg>
<trkseg><trkpt lat="35.558557" lon="129.246372"/><trkpt lat="35.557999" lon="129.245869"/><trkpt lat="35.557349" lon="129.245732"/><trkpt lat="35.556844" lon="129.245589"/><trkpt lat="35.556552" lon="129.245774"/><trkpt lat="35.556279" lon="129.245565"/><trkpt lat="35.556003" lon="129.245513"/><trkpt lat="35.55571" lon="129.245209"/><trkpt lat="35.55525" lon="129.244258"/><trkpt lat="35.55447" lon="129.243379"/><trkpt lat="35.554115" lon="129.243077"/><trkpt lat="35.553719" lon="129.24271"/><trkpt lat="35.553459" lon="129.242493"/><trkpt lat="35.552918" lon="129.241684"/><trkpt lat="35.552536" lon="129.241183"/><trkpt lat="35.552252" lon="129.2407"/><trkpt lat="35.551814" lon="129.240314"/><trkpt lat="35.551422" lon="129.239568"/><trkpt lat="35.551181" lon="129.238567"/><trkpt lat="35.55104" lon="129.237804"/><trkpt lat="35.550824" lon="129.237372"/><trkpt lat="35.550392" lon="129.236523"/><trkpt lat="35.550157" lon="129.235939"/><trkpt lat="35.549794" lon="129.235471"/><trkpt lat="35.549541" lon="129.235201"/><trkpt lat="35.549188" lon="129.23506"/><trkpt lat="35.549138" lon="129.23507"/><trkpt lat="35.548962" lon="129.235066"/><trkpt lat="35.548858" lon="129.23501"/><trkpt lat="35.548717" lon="129.235033"/><trkpt lat="35.548564" lon="129.235063"/><trkpt lat="35.548505" lon="129.23483"/><trkpt lat="35.548552" lon="129.233931"/><trkpt lat="35.548554" lon="129.233865"/><trkpt lat="35.54855" lon="129.233818"/><trkpt lat="35.548538" lon="129.233772"/><trkpt lat="35.548515" lon="129.233714"/><trkpt lat="35.548205" lon="129.232986"/><trkpt lat="35.54817" lon="129.232899"/><trkpt lat="35.548157" lon="129.232855"/><trkpt lat="35.548154" lon="129.232814"/><trkpt lat="35.548159" lon="129.232762"/><trkpt lat="35.548148" lon="129.232723"/><trkpt lat="35.548128" lon="129.232685"/><trkpt lat="35.548097" lon="129.232634"/><trkpt lat="35.548064" lon="129.232584"/><trkpt lat="35.548036" lon="129.23255"/><trkpt lat="35.548006" lon="129.232519"/><trkpt lat="35.547951" lon="129.232472"/><trkpt lat="35.547418" lon="129.232035"/><trkpt lat="35.547284" lon="129.231926"/><trkpt lat="35.547255" lon="129.231896"/><trkpt lat="35.547234" lon="129.231859"/><trkpt lat="35.547225" lon="129.231814"/><trkpt lat="35.547219" lon="129.231749"/><trkpt lat="35.547208" lon="129.231619"/><trkpt lat="35.547199" lon="129.231575"/><trkpt lat="35.547178" lon="129.23154"/><trkpt lat="35.547148" lon="129.231512"/><trkpt lat="35.547058" lon="129.231446"/><trkpt lat="35.547026" lon="129.231419"/><trkpt lat="35.546995" lon="129.231387"/><trkpt lat="35.546936" lon="129.231319"/><trkpt lat="35.545652" lon="129.229784"/><trkpt lat="35.545617" lon="129.22974"/><trkpt lat="35.545601" lon="129.229713"/><trkpt lat="35.545603" lon="129.2297"/><trkpt lat="35.545605" lon="129.229692"/><trkpt lat="35.54557" lon="129.22968"/><trkpt lat="35.545143" lon="129.229553"/><trkpt lat="35.545079" lon="129.229532"/><trkpt lat="35.545042" lon="129.229516"/><trkpt lat="35.545009" lon="129.229492"/><trkpt lat="35.544969" lon="129.229451"/><trkpt lat="35.544765" lon="129.229216"/><trkpt lat="35.544728" lon="129.22917"/><trkpt lat="35.544702" lon="129.229133"/><trkpt lat="35.544678" lon="129.229093"/><trkpt lat="35.544604" lon="129.228954"/><trkpt lat="35.544582" lon="129.228918"/><trkpt lat="35.54456" lon="129.228892"/><trkpt lat="35.544538" lon="129.228891"/><trkpt lat="35.544516" lon="129.228898"/><trkpt lat="35.544489" lon="129.228884"/><trkpt lat="35.54446" lon="129.228856"/><trkpt lat="35.544257" lon="129.228614"/><trkpt lat="35.54355" lon="129.227772"/><trkpt lat="35.543503" lon="129.227713"/><trkpt lat="35.54348" lon="129.227676"/><trkpt lat="35.543468" lon="129.227633"/><trkpt lat="35.543464" lon="129.227586"/><trkpt lat="35.543468" lon="129.227372"/><trkpt lat="35.543488" lon="129.225994"/></trkseg>
<trkseg><trkpt lat="35.539578" lon="129.220004"/><trkpt lat="35.53961" lon="129.220708"/><trkpt lat="35.539617" lon="129.220805"/><trkpt lat="35.539626" lon="129.220852"/><trkpt lat="35.539643" lon="129.220894"/><trkpt lat="35.53969" lon="129.220973"/><trkpt lat="35.539869" lon="129.22126"/><trkpt lat="35.539891" lon="129.221301"/><trkpt lat="35.539907" lon="129.221345"/><trkpt lat="35.539925" lon="129.221406"/><trkpt lat="35.540046" lon="129.221904"/><trkpt lat="35.540071" lon="129.221997"/><trkpt lat="35.540088" lon="129.222039"/><trkpt lat="35.540111" lon="129.222075"/><trkpt lat="35.540148" lon="129.222119"/><trkpt lat="35.540226" lon="129.222202"/><trkpt lat="35.540257" lon="129.222229"/><trkpt lat="35.540291" lon="129.222251"/><trkpt lat="35.540347" lon="129.222284"/><trkpt lat="35.540374" lon="129.222315"/><trkpt lat="35.540397" lon="129.222354"/><trkpt lat="35.54049" lon="129.222554"/><trkpt lat="35.540529" lon="129.222641"/><trkpt lat="35.540549" lon="129.222701"/><trkpt lat="35.540643" lon="129.223042"/><trkpt lat="35.540719" lon="129.223322"/><trkpt lat="35.540728" lon="129.223369"/><trkpt lat="35.54073" lon="129.223416"/><trkpt lat="35.540724" lon="129.223479"/><trkpt lat="35.54069" lon="129.223715"/><trkpt lat="35.540681" lon="129.223794"/><trkpt lat="35.54068" lon="129.223842"/><trkpt lat="35.540686" lon="129.223906"/><trkpt lat="35.540719" lon="129.224149"/><trkpt lat="35.54073" lon="129.224205"/><trkpt lat="35.540742" lon="129.224227"/><trkpt lat="35.540759" lon="129.224214"/><trkpt lat="35.540786" lon="129.224171"/><trkpt lat="35.540821" lon="129.224105"/><trkpt lat="35.540838" lon="129.224064"/><trkpt lat="35.540847" lon="129.224021"/><trkpt lat="35.540858" lon="129.223951"/><trkpt lat="35.540889" lon="129.223867"/><trkpt lat="35.540899" lon="129.223828"/><trkpt lat="35.5409" lon="129.223782"/><trkpt lat="35.540909" lon="129.223744"/><trkpt lat="35.540925" lon="129.223704"/><trkpt lat="35.540958" lon="129.223639"/><trkpt lat="35.54098" lon="129.223602"/><trkpt lat="35.541008" lon="129.223568"/><trkpt lat="35.541279" lon="129.223285"/><trkpt lat="35.541359" lon="129.2232"/><trkpt lat="35.541397" lon="129.223154"/><trkpt lat="35.541615" lon="129.222861"/><trkpt lat="35.543905" lon="129.219779"/><trkpt lat="35.543944" lon="129.219733"/><trkpt lat="35.544006" lon="129.21967"/><trkpt lat="35.544102" lon="129.21958"/><trkpt lat="35.544135" lon="129.219553"/><trkpt lat="35.544183" lon="129.219523"/><trkpt lat="35.544605" lon="129.219274"/><trkpt lat="35.544654" lon="129.219248"/><trkpt lat="35.544691" lon="129.219235"/><trkpt lat="35.544729" lon="129.219234"/><trkpt lat="35.54478" lon="129.219242"/><trkpt lat="35.544922" lon="129.21927"/><trkpt lat="35.544973" lon="129.219277"/><trkpt lat="35.545011" lon="129.219274"/><trkpt lat="35.545049" lon="129.219262"/><trkpt lat="35.54526" lon="129.219168"/><trkpt lat="35.545321" lon="129.219138"/><trkpt lat="35.545355" lon="129.219117"/><trkpt lat="35.545383" lon="129.219089"/><trkpt lat="35.545425" lon="129.21904"/><trkpt lat="35.545456" lon="129.219019"/><trkpt lat="35.545492" lon="129.219006"/><trkpt lat="35.545594" lon="129.21898"/><trkpt lat="35.545631" lon="129.218968"/><trkpt lat="35.545666" lon="129.218947"/><trkpt lat="35.54571" lon="129.218911"/><trkpt lat="35.545752" lon="129.218871"/><trkpt lat="35.545779" lon="129.218838"/><trkpt lat="35.545797" lon="129.218801"/><trkpt lat="35.545812" lon="129.218729"/><trkpt lat="35.545827" lon="129.218685"/><trkpt lat="35.545846" lon="129.218644"/><trkpt lat="35.545973" lon="129.218396"/><trkpt lat="35.546009" lon="129.218329"/><trkpt lat="35.546034" lon="129.218294"/><trkpt lat="35.546066" lon="129.21827"/><trkpt lat="35.546103" lon="129.218255"/><trkpt lat="35.546391" lon="129.218174"/><trkpt lat="35.546587" lon="129.218119"/><trkpt lat="35.546627" lon="129.218111"/><trkpt lat="35.546667" lon="129.218109"/><trkpt lat="35.547002" lon="129.218118"/><trkpt lat="35.547189" lon="129.218124"/><trkpt lat="35.547228" lon="129.218122"/><trkpt lat="35.547266" lon="129.218111"/><trkpt lat="35.547301" lon="129.218089"/><trkpt lat="35.547346" lon="129.218053"/><trkpt lat="35.548508" lon="129.217101"/><trkpt lat="35.548765" lon="129.21689"/><trkpt lat="35.548807" lon="129.21685"/><trkpt lat="35.548864" lon="129.216786"/><trkpt lat="35.548957" lon="129.216673"/><trkpt lat="35.548983" lon="129.216637"/><trkpt lat="35.549014" lon="129.216585"/><trkpt lat="35.549127" lon="129.216386"/><trkpt lat="35.549151" lon="129.216349"/><trkpt lat="35.549178" lon="129.216319"/><trkpt lat="35.549213" lon="129.216301"/><trkpt lat="35.549251" lon="129.21629"/><trkpt lat="35.549328" lon="129.216271"/><trkpt lat="35.549362" lon="129.216255"/><trkpt lat="35.549387" lon="129.216226"/><trkpt lat="35.549416" lon="129.21616"/><trkpt lat="35.549434" lon="129.216122"/><trkpt lat="35.549458" lon="129.216095"/><trkpt lat="35.549491" lon="129.216082"/><trkpt lat="35.549565" lon="129.216067"/><trkpt lat="35.5496" lon="129.216054"/><trkpt lat="35.549631" lon="129.216029"/><trkpt lat="35.549659" lon="129.215998"/><trkpt lat="35.549724" lon="129.215921"/><trkpt lat="35.549753" lon="129.215891"/><trkpt lat="35.549786" lon="129.215868"/><trkpt lat="35.549823" lon="129.215854"/><trkpt lat="35.549994" lon="129.215817"/><trkpt lat="35.550841" lon="129.215503"/><trkpt lat="35.551103" lon="129.215517"/><trkpt lat="35.551338" lon="129.215561"/><trkpt lat="35.551675" lon="129.215994"/><trkpt lat="35.551983" lon="129.215888"/><trkpt lat="35.552411" lon="129.215658"/><trkpt lat="35.552642" lon="129.21581"/><trkpt lat="35.552856" lon="129.215688"/><trkpt lat="35.553259" lon="129.215819"/><trkpt lat="35.553648" lon="129.2162"/><trkpt lat="35.554011" lon="129.216539"/><trkpt lat="35.554171" lon="129.21692"/><trkpt lat="35.554265" lon="129.217247"/><trkpt lat="35.554705" lon="129.21746"/><trkpt lat="35.555278" lon="129.21808"/><trkpt lat="35.555756" lon="129.218539"/><trkpt lat="35.556089" lon="129.218939"/><trkpt lat="35.556184" lon="129.219359"/><trkpt lat="35.556952" lon="129.219701"/><trkpt lat="35.557492" lon="129.220046"/><trkpt lat="35.557747" lon="129.220041"/><trkpt lat="35.557857" lon="129.220149"/><trkpt lat="35.557798" lon="129.22041"/><trkpt lat="35.558003" lon="129.220544"/><trkpt lat="35.558692" lon="129.220377"/><trkpt lat="35.559228" lon="129.22031"/><trkpt lat="35.559604" lon="129.220081"/><trkpt lat="35.559918" lon="129.219833"/><trkpt lat="35.560208" lon="129.219526"/></trkseg>
</trk>
</gpx>
