<?xml version="1.0" encoding="UTF-8"?>
<gpx version="1.1" creator="letnaturechoose" xmlns="http://www.topografix.com/GPX/1/1">
<metadata><name>장령산 등산로</name></metadata>
<trk><name>장령산</name>
<trkseg><trkpt lat="37.70902" lon="126.874938"/><trkpt lat="37.708939" lon="126.875268"/><trkpt lat="37.708807" lon="126.875483"/><trkpt lat="37.708797" lon="126.875912"/><trkpt lat="37.708773" lon="126.876474"/><trkpt lat="37.708649" lon="126.876727"/><trkpt lat="37.708498" lon="126.876882"/><trkpt lat="37.708393" lon="126.877024"/><trkpt lat="37.708336" lon="126.877147"/><trkpt lat="37.708272" lon="126.87727"/><trkpt lat="37.708361" lon="126.877445"/><trkpt lat="37.708462" lon="126.877566"/><trkpt lat="37.708597" lon="126.877745"/><trkpt lat="37.708655" lon="126.877886"/><trkpt lat="37.708739" lon="126.878103"/><trkpt lat="37.708679" lon="126.878375"/><trkpt lat="37.708604" lon="126.878418"/></trkseg>
<trkseg><trkpt lat="37.712136" lon="126.876147"/><trkpt lat="37.711915" lon="126.876393"/><trkpt lat="37.711758" lon="126.876574"/><trkpt lat="37.711654" lon="126.876919"/><trkpt lat="37.711537" lon="126.877257"/><trkpt lat="37.711523" lon="126.877437"/></trkseg>
<trkseg><trkpt lat="37.714093" lon="126.878247"/><trkpt lat="37.71402" lon="126.878004"/><trkpt lat="37.714098" lon="126.877794"/><trkpt lat="37.714215" lon="126.877548"/><trkpt lat="37.714454" lon="126.877317"/><trkpt lat="37.714416" lon="126.876927"/><trkpt lat="37.714262" lon="126.876534"/><trkpt lat="37.713817" lon="126.876274"/><trkpt lat="37.713618" lon="126.876084"/><trkpt lat="37.713526" lon="126.875902"/><trkpt lat="37.713192" lon="126.875889"/><trkpt lat="37.712952" lon="126.875998"/><trkpt lat="37.712764" lon="126.876111"/><trkpt lat="37.712494" lon="126.876048"/><trkpt lat="37.712136" lon="126.876147"/></trkseg>
<trkseg><trkpt lat="37.70902" lon="126.874938"/><trkpt lat="37.709231" lon="126.874764"/><trkpt lat="37.709529" lon="126.874674"/><trkpt lat="37.709835" lon="126.874668"/><trkpt lat="37.710087" lon="126.874623"/><trkpt lat="37.710208" lon="126.874473"/><trkpt lat="37.710366" lon="126.874457"/><trkpt lat="37.710545" lon="126.874348"/><trkpt lat="37.710718" lon="126.874408"/></trkseg>
<trkseg><trkpt lat="37.708036" lon="126.858709"/><trkpt lat="37.707919" lon="126.858385"/><trkpt lat="37.707737" lon="126.857939"/><trkpt lat="37.707553" lon="126.857657"/><trkpt lat="37.707339" lon="126.85738"/><trkpt lat="37.707016" lon="126.85723"/><trkpt lat="37.706773" lon="126.857144"/><trkpt lat="37.706751" lon="126.857091"/></trkseg>
<trkseg><trkpt lat="37.707772" lon="126.859334"/><trkpt lat="37.707764" lon="126.858967"/><trkpt lat="37.708036" lon="126.858709"/></trkseg>
<trkseg><trkpt lat="37.707759" lon="126.860199"/><trkpt lat="37.707569" lon="126.859963"/><trkpt lat="37.707574" lon="126.859711"/><trkpt lat="37.70767" lon="126.859465"/><trkpt lat="37.707772" lon="126.859334"/></trkseg>
<trkseg><trkpt lat="37.707759" lon="126.860199"/><trkpt lat="37.707891" lon="126.86003"/><trkpt lat="37.707909" lon="126.859867"/><trkpt lat="37.707894" lon="126.85973"/><trkpt lat="37.707938" lon="126.859589"/><trkpt lat="37.707772" lon="126.859334"/></trkseg>
<trkseg><trkpt lat="37.708201" lon="126.861616"/><trkpt lat="37.708007" lon="126.861099"/><trkpt lat="37.707887" lon="126.860617"/><trkpt lat="37.707778" lon="126.86039"/><trkpt lat="37.707759" lon="126.860199"/></trkseg>
<trkseg><trkpt lat="37.708201" lon="126.861616"/><trkpt lat="37.70836" lon="126.861211"/><trkpt lat="37.708595" lon="126.860949"/><trkpt lat="37.708806" lon="126.860672"/><trkpt lat="37.708957" lon="126.860357"/><trkpt lat="37.708761" lon="126.860095"/><trkpt lat="37.708704" lon="126.859693"/><trkpt lat="37.708633" lon="126.859196"/><trkpt lat="37.708207" lon="126.858898"/><trkpt lat="37.708036" lon="126.858709"/></trkseg>
<trkseg><trkpt lat="37.70937" lon="126.866547"/><trkpt lat="37.709596" lon="126.866317"/><trkpt lat="37.709829" lon="126.86622"/><trkpt lat="37.710008" lon="126.866038"/><trkpt lat="37.710159" lon="126.865838"/><trkpt lat="37.710273" lon="126.865419"/><trkpt lat="37.710435" lon="126.865254"/><trkpt lat="37.710704" lon="126.865216"/><trkpt lat="37.71088" lon="126.865068"/><trkpt lat="37.710953" lon="126.86482"/><trkpt lat="37.711216" lon="126.864676"/><trkpt lat="37.711552" lon="126.864399"/><trkpt lat="37.71191" lon="126.864122"/></trkseg>
<trkseg><trkpt lat="37.709745" lon="126.868505"/><trkpt lat="37.709964" lon="126.868479"/><trkpt lat="37.710156" lon="126.868596"/><trkpt lat="37.710445" lon="126.86867"/><trkpt lat="37.710878" lon="126.868555"/><trkpt lat="37.711332" lon="126.868092"/><trkpt lat="37.711549" lon="126.867784"/><trkpt lat="37.711377" lon="126.867526"/><trkpt lat="37.711253" lon="126.867099"/></trkseg>
<trkseg><trkpt lat="37.708984" lon="126.864848"/><trkpt lat="37.708788" lon="126.864494"/><trkpt lat="37.708743" lon="126.864066"/><trkpt lat="37.708722" lon="126.863539"/><trkpt lat="37.708773" lon="126.863022"/><trkpt lat="37.708687" lon="126.862776"/><trkpt lat="37.708547" lon="126.862585"/><trkpt lat="37.70842" lon="126.862317"/><trkpt lat="37.708294" lon="126.862043"/><trkpt lat="37.708201" lon="126.861616"/></trkseg>
<trkseg><trkpt lat="37.707881" lon="126.864911"/><trkpt lat="37.707646" lon="126.864664"/><trkpt lat="37.707554" lon="126.86452"/><trkpt lat="37.707425" lon="126.864295"/><trkpt lat="37.707281" lon="126.863991"/><trkpt lat="37.707085" lon="126.863794"/><trkpt lat="37.706898" lon="126.863367"/><trkpt lat="37.706671" lon="126.863021"/><trkpt lat="37.706441" lon="126.86261"/><trkpt lat="37.706241" lon="126.862229"/><trkpt lat="37.706104" lon="126.862081"/><trkpt lat="37.705954" lon="126.861818"/><trkpt lat="37.705854" lon="126.861475"/><trkpt lat="37.705625" lon="126.861167"/><trkpt lat="37.705442" lon="126.860974"/><trkpt lat="37.70527" lon="126.860711"/><trkpt lat="37.705065" lon="126.860484"/></trkseg>
<trkseg><trkpt lat="37.707881" lon="126.864911"/><trkpt lat="37.707593" lon="126.865055"/><trkpt lat="37.707406" lon="126.865125"/><trkpt lat="37.707118" lon="126.864788"/><trkpt lat="37.706944" lon="126.864682"/><trkpt lat="37.706655" lon="126.864558"/><trkpt lat="37.706414" lon="126.864365"/><trkpt lat="37.706139" lon="126.864043"/><trkpt lat="37.705869" lon="126.86367"/><trkpt lat="37.705722" lon="126.863392"/><trkpt lat="37.705551" lon="126.863252"/><trkpt lat="37.705437" lon="126.862905"/><trkpt lat="37.705397" lon="126.862787"/></trkseg>
<trkseg><trkpt lat="37.708984" lon="126.864848"/><trkpt lat="37.708786" lon="126.864831"/><trkpt lat="37.70855" lon="126.864875"/><trkpt lat="37.708389" lon="126.864979"/><trkpt lat="37.708152" lon="126.864943"/><trkpt lat="37.708009" lon="126.864879"/><trkpt lat="37.707881" lon="126.864911"/></trkseg>
<trkseg><trkpt lat="37.70937" lon="126.866547"/><trkpt lat="37.709423" lon="126.866179"/><trkpt lat="37.709455" lon="126.865884"/><trkpt lat="37.709351" lon="126.865553"/><trkpt lat="37.709184" lon="126.865267"/><trkpt lat="37.709039" lon="126.864947"/><trkpt lat="37.708984" lon="126.864848"/></trkseg>
<trkseg><trkpt lat="37.709745" lon="126.868505"/><trkpt lat="37.709694" lon="126.868321"/><trkpt lat="37.709581" lon="126.868166"/><trkpt lat="37.709435" lon="126.867911"/><trkpt lat="37.7094" lon="126.867682"/><trkpt lat="37.709262" lon="126.86737"/><trkpt lat="37.709168" lon="126.866877"/><trkpt lat="37.709229" lon="126.866677"/><trkpt lat="37.70937" lon="126.866547"/></trkseg>
<trkseg><trkpt lat="37.712072" lon="126.872478"/><trkpt lat="37.711976" lon="126.872299"/><trkpt lat="37.711843" lon="126.872234"/><trkpt lat="37.711757" lon="126.871969"/><trkpt lat="37.71171" lon="126.871774"/><trkpt lat="37.711725" lon="126.871523"/><trkpt lat="37.711583" lon="126.871311"/><trkpt lat="37.71129" lon="126.871146"/><trkpt lat="37.711091" lon="126.870996"/><trkpt lat="37.711" lon="126.870794"/><trkpt lat="37.710918" lon="126.870649"/><trkpt lat="37.710815" lon="126.870442"/><trkpt lat="37.710726" lon="126.870176"/><trkpt lat="37.710487" lon="126.869792"/><trkpt lat="37.710295" lon="126.869694"/><trkpt lat="37.710005" lon="126.869455"/><trkpt lat="37.709859" lon="126.869311"/><trkpt lat="37.709765" lon="126.868861"/><trkpt lat="37.709745" lon="126.868505"/></trkseg>
<trkseg><trkpt lat="37.712072" lon="126.872478"/><trkpt lat="37.712393" lon="126.872552"/><trkpt lat="37.712563" lon="126.872735"/><trkpt lat="37.712576" lon="126.873016"/><trkpt lat="37.712699" lon="126.873131"/><trkpt lat="37.712993" lon="126.873037"/><trkpt lat="37.71326" lon="126.872981"/><trkpt lat="37.713479" lon="126.873002"/><trkpt lat="37.713886" lon="126.872829"/><trkpt lat="37.714366" lon="126.872445"/><trkpt lat="37.714587" lon="126.872186"/><trkpt lat="37.714948" lon="126.872025"/><trkpt lat="37.715214" lon="126.871997"/><trkpt lat="37.715349" lon="126.871894"/></trkseg>
<trkseg><trkpt lat="37.710718" lon="126.874408"/><trkpt lat="37.71078" lon="126.874084"/><trkpt lat="37.710929" lon="126.873953"/><trkpt lat="37.711201" lon="126.873847"/><trkpt lat="37.711346" lon="126.873613"/><trkpt lat="37.711581" lon="126.873286"/><trkpt lat="37.711808" lon="126.87302"/><trkpt lat="37.711924" lon="126.872682"/><trkpt lat="37.712072" lon="126.872478"/></trkseg>
<trkseg><trkpt lat="37.70902" lon="126.874938"/><trkpt lat="37.708901" lon="126.874863"/><trkpt lat="37.708763" lon="126.874585"/><trkpt lat="37.708656" lon="126.874486"/><trkpt lat="37.708366" lon="126.874355"/><trkpt lat="37.708105" lon="126.874323"/><trkpt lat="37.707916" lon="126.874301"/><trkpt lat="37.707762" lon="126.874341"/><trkpt lat="37.707671" lon="126.874468"/><trkpt lat="37.707588" lon="126.874893"/><trkpt lat="37.707444" lon="126.875166"/></trkseg>
<trkseg><trkpt lat="37.712136" lon="126.876147"/><trkpt lat="37.712263" lon="126.87586"/><trkpt lat="37.712268" lon="126.87568"/><trkpt lat="37.71224" lon="126.875466"/><trkpt lat="37.711932" lon="126.875342"/><trkpt lat="37.711622" lon="126.875192"/><trkpt lat="37.711393" lon="126.875014"/><trkpt lat="37.711033" lon="126.874784"/><trkpt lat="37.710761" lon="126.874514"/><trkpt lat="37.710718" lon="126.874408"/></trkseg>
<trkseg><trkpt lat="37.716541" lon="126.897023"/><trkpt lat="37.716685" lon="126.897309"/><trkpt lat="37.716759" lon="126.897561"/><trkpt lat="37.716836" lon="126.897828"/><trkpt lat="37.716967" lon="126.897926"/><trkpt lat="37.71706" lon="126.898121"/><trkpt lat="37.717052" lon="126.898373"/><trkpt lat="37.717128" lon="126.898487"/><trkpt lat="37.717225" lon="126.898337"/><trkpt lat="37.717272" lon="126.898146"/><trkpt lat="37.717325" lon="126.897816"/><trkpt lat="37.717272" lon="126.89748"/><trkpt lat="37.717276" lon="126.897147"/><trkpt lat="37.717425" lon="126.896993"/><trkpt lat="37.717448" lon="126.896878"/><trkpt lat="37.717374" lon="126.896714"/><trkpt lat="37.717509" lon="126.89664"/><trkpt lat="37.71757" lon="126.896451"/><trkpt lat="37.717642" lon="126.896255"/><trkpt lat="37.71764" lon="126.89598"/><trkpt lat="37.717431" lon="126.895827"/><trkpt lat="37.717108" lon="126.895665"/><trkpt lat="37.716967" lon="126.895555"/></trkseg>
<trkseg><trkpt lat="37.714234" lon="126.896441"/><trkpt lat="37.714142" lon="126.896786"/><trkpt lat="37.714252" lon="126.896908"/><trkpt lat="37.714325" lon="126.897129"/><trkpt lat="37.71416" lon="126.897287"/><trkpt lat="37.713815" lon="126.897573"/><trkpt lat="37.713495" lon="126.898081"/><trkpt lat="37.713346" lon="126.898744"/><trkpt lat="37.713113" lon="126.89973"/><trkpt lat="37.712963" lon="126.899968"/><trkpt lat="37.712472" lon="126.900231"/><trkpt lat="37.71183" lon="126.900473"/><trkpt lat="37.711466" lon="126.900453"/><trkpt lat="37.711253" lon="126.900393"/></trkseg>
<trkseg><trkpt lat="37.711253" lon="126.900393"/><trkpt lat="37.711275" lon="126.900045"/><trkpt lat="37.711204" lon="126.899824"/><trkpt lat="37.710957" lon="126.899658"/><trkpt lat="37.710846" lon="126.899295"/><trkpt lat="37.710911" lon="126.898885"/><trkpt lat="37.71084" lon="126.898618"/><trkpt lat="37.71077" lon="126.898118"/><trkpt lat="37.710876" lon="126.897497"/><trkpt lat="37.711081" lon="126.897125"/><trkpt lat="37.711292" lon="126.896855"/><trkpt lat="37.711371" lon="126.896558"/><trkpt lat="37.711499" lon="126.896269"/><trkpt lat="37.71152" lon="126.896196"/></trkseg>
<trkseg><trkpt lat="37.715206" lon="126.89804"/><trkpt lat="37.715339" lon="126.897848"/><trkpt lat="37.71552" lon="126.89767"/><trkpt lat="37.715683" lon="126.897462"/><trkpt lat="37.715686" lon="126.896919"/><trkpt lat="37.71563" lon="126.89666"/></trkseg>
<trkseg><trkpt lat="37.714825" lon="126.896647"/><trkpt lat="37.7148" lon="126.896942"/><trkpt lat="37.714715" lon="126.897167"/><trkpt lat="37.714816" lon="126.897324"/><trkpt lat="37.714956" lon="126.897645"/><trkpt lat="37.715007" lon="126.897854"/><trkpt lat="37.71502" lon="126.898008"/><trkpt lat="37.715032" lon="126.89827"/><trkpt lat="37.715139" lon="126.89858"/><trkpt lat="37.715239" lon="126.898708"/></trkseg>
<trkseg><trkpt lat="37.709019" lon="126.895451"/><trkpt lat="37.709135" lon="126.895717"/><trkpt lat="37.709291" lon="126.895894"/><trkpt lat="37.709355" lon="126.896085"/><trkpt lat="37.709427" lon="126.896306"/><trkpt lat="37.709439" lon="126.896458"/><trkpt lat="37.709387" lon="126.896718"/><trkpt lat="37.709425" lon="126.897039"/><trkpt lat="37.709418" lon="126.897513"/><trkpt lat="37.709428" lon="126.897712"/><trkpt lat="37.709491" lon="126.898113"/><trkpt lat="37.709516" lon="126.898477"/><trkpt lat="37.709589" lon="126.898758"/><trkpt lat="37.709673" lon="126.899129"/><trkpt lat="37.709547" lon="126.899573"/><trkpt lat="37.709588" lon="126.899906"/><trkpt lat="37.709426" lon="126.900186"/><trkpt lat="37.709208" lon="126.900395"/><trkpt lat="37.709" lon="126.900618"/><trkpt lat="37.708794" lon="126.900784"/><trkpt lat="37.708686" lon="126.90103"/><trkpt lat="37.708586" lon="126.901107"/><trkpt lat="37.708618" lon="126.901405"/><trkpt lat="37.708641" lon="126.901822"/><trkpt lat="37.708684" lon="126.901929"/></trkseg>
<trkseg><trkpt lat="37.706044" lon="126.899063"/><trkpt lat="37.70613" lon="126.899431"/><trkpt lat="37.706412" lon="126.899428"/><trkpt lat="37.706613" lon="126.899488"/><trkpt lat="37.706802" lon="126.899324"/><trkpt lat="37.706957" lon="126.89922"/><trkpt lat="37.707023" lon="126.899089"/><trkpt lat="37.707167" lon="126.898721"/><trkpt lat="37.70729" lon="126.898398"/><trkpt lat="37.707367" lon="126.898188"/><trkpt lat="37.707376" lon="126.898013"/><trkpt lat="37.707524" lon="126.897808"/><trkpt lat="37.707564" lon="126.897322"/><trkpt lat="37.707508" lon="126.897013"/><trkpt lat="37.707537" lon="126.896867"/></trkseg>
<trkseg><trkpt lat="37.709314" lon="126.894309"/><trkpt lat="37.7093" lon="126.894512"/><trkpt lat="37.709208" lon="126.894648"/><trkpt lat="37.709202" lon="126.894824"/><trkpt lat="37.70911" lon="126.894964"/><trkpt lat="37.709078" lon="126.895187"/><trkpt lat="37.708997" lon="126.895344"/><trkpt lat="37.709019" lon="126.895451"/></trkseg>
<trkseg><trkpt lat="37.70899" lon="126.891179"/><trkpt lat="37.709047" lon="126.891416"/><trkpt lat="37.709123" lon="126.891553"/><trkpt lat="37.70923" lon="126.891713"/><trkpt lat="37.709289" lon="126.891946"/><trkpt lat="37.70925" lon="126.892065"/><trkpt lat="37.709129" lon="126.892177"/><trkpt lat="37.709094" lon="126.892429"/><trkpt lat="37.709174" lon="126.89252"/><trkpt lat="37.709244" lon="126.892669"/><trkpt lat="37.709324" lon="126.892821"/><trkpt lat="37.709431" lon="126.892889"/><trkpt lat="37.70939" lon="126.893199"/><trkpt lat="37.709243" lon="126.893522"/><trkpt lat="37.709133" lon="126.894024"/><trkpt lat="37.709208" lon="126.894158"/><trkpt lat="37.709314" lon="126.894309"/></trkseg>
<trkseg><trkpt lat="37.711586" lon="126.896673"/><trkpt lat="37.711536" lon="126.89636"/><trkpt lat="37.71152" lon="126.896196"/></trkseg>
<trkseg><trkpt lat="37.713986" lon="126.894757"/><trkpt lat="37.7135" lon="126.894784"/><trkpt lat="37.713257" lon="126.894832"/><trkpt lat="37.712977" lon="126.894757"/><trkpt lat="37.712685" lon="126.894607"/><trkpt lat="37.71246" lon="126.894586"/><trkpt lat="37.712299" lon="126.894683"/></trkseg>
<trkseg><trkpt lat="37.715321" lon="126.895534"/><trkpt lat="37.715336" lon="126.89501"/><trkpt lat="37.71524" lon="126.894601"/><trkpt lat="37.715257" lon="126.894414"/><trkpt lat="37.71539" lon="126.894248"/><trkpt lat="37.715672" lon="126.894051"/><trkpt lat="37.715813" lon="126.893858"/><trkpt lat="37.715888" lon="126.89367"/><trkpt lat="37.716072" lon="126.893409"/></trkseg>
<trkseg><trkpt lat="37.715904" lon="126.896133"/><trkpt lat="37.716066" lon="126.895773"/><trkpt lat="37.716314" lon="126.895568"/><trkpt lat="37.716483" lon="126.895222"/><trkpt lat="37.716627" lon="126.894965"/><trkpt lat="37.716608" lon="126.894709"/><trkpt lat="37.71657" lon="126.894537"/><trkpt lat="37.716703" lon="126.89431"/><trkpt lat="37.716863" lon="126.894186"/></trkseg>
<trkseg><trkpt lat="37.714093" lon="126.878247"/><trkpt lat="37.713983" lon="126.878388"/><trkpt lat="37.714137" lon="126.878773"/><trkpt lat="37.714262" lon="126.879005"/><trkpt lat="37.71423" lon="126.879126"/><trkpt lat="37.714371" lon="126.879421"/><trkpt lat="37.71461" lon="126.879732"/><trkpt lat="37.714765" lon="126.879769"/><trkpt lat="37.714853" lon="126.879883"/><trkpt lat="37.71503" lon="126.879939"/><trkpt lat="37.715128" lon="126.880065"/><trkpt lat="37.715333" lon="126.880442"/><trkpt lat="37.715359" lon="126.880763"/><trkpt lat="37.715371" lon="126.881164"/><trkpt lat="37.715439" lon="126.88145"/><trkpt lat="37.715484" lon="126.881572"/></trkseg>
<trkseg><trkpt lat="37.710482" lon="126.8801"/><trkpt lat="37.710769" lon="126.880265"/><trkpt lat="37.710957" lon="126.880229"/><trkpt lat="37.711117" lon="126.879957"/><trkpt lat="37.711209" lon="126.87952"/><trkpt lat="37.711402" lon="126.879346"/><trkpt lat="37.711493" lon="126.879234"/><trkpt lat="37.711431" lon="126.879044"/><trkpt lat="37.711448" lon="126.878787"/><trkpt lat="37.711476" lon="126.87842"/><trkpt lat="37.711481" lon="126.878187"/><trkpt lat="37.711434" lon="126.877942"/><trkpt lat="37.711466" lon="126.877713"/><trkpt lat="37.711523" lon="126.877437"/></trkseg>
<trkseg><trkpt lat="37.716065" lon="126.879824"/><trkpt lat="37.715932" lon="126.879741"/><trkpt lat="37.71586" lon="126.879519"/><trkpt lat="37.71572" lon="126.879341"/><trkpt lat="37.715497" lon="126.879136"/><trkpt lat="37.715416" lon="126.878896"/><trkpt lat="37.715302" lon="126.87861"/><trkpt lat="37.715101" lon="126.878401"/><trkpt lat="37.714884" lon="126.878242"/><trkpt lat="37.71465" lon="126.878149"/><trkpt lat="37.71436" lon="126.878126"/><trkpt lat="37.714279" lon="126.878169"/><trkpt lat="37.714202" lon="126.878121"/><trkpt lat="37.7141" lon="126.87824"/><trkpt lat="37.714093" lon="126.878247"/></trkseg>
<trkseg><trkpt lat="37.716349" lon="126.88007"/><trkpt lat="37.716441" lon="126.879907"/><trkpt lat="37.716539" lon="126.879801"/><trkpt lat="37.716675" lon="126.879697"/><trkpt lat="37.716774" lon="126.87948"/><trkpt lat="37.716776" lon="126.879205"/><trkpt lat="37.716905" lon="126.879075"/><trkpt lat="37.717235" lon="126.878935"/><trkpt lat="37.717408" lon="126.878804"/><trkpt lat="37.717534" lon="126.878665"/><trkpt lat="37.717645" lon="126.878237"/></trkseg>
<trkseg><trkpt lat="37.716065" lon="126.879824"/><trkpt lat="37.716136" lon="126.879633"/><trkpt lat="37.716157" lon="126.879416"/><trkpt lat="37.716149" lon="126.879185"/><trkpt lat="37.716146" lon="126.878946"/><trkpt lat="37.716048" lon="126.878932"/><trkpt lat="37.716043" lon="126.878783"/><trkpt lat="37.716047" lon="126.878692"/><trkpt lat="37.716114" lon="126.878396"/><trkpt lat="37.716067" lon="126.878213"/><trkpt lat="37.716106" lon="126.87803"/><trkpt lat="37.716093" lon="126.877824"/><trkpt lat="37.715983" lon="126.877726"/></trkseg>
<trkseg><trkpt lat="37.711523" lon="126.877437"/><trkpt lat="37.711353" lon="126.877599"/><trkpt lat="37.71115" lon="126.877555"/><trkpt lat="37.710912" lon="126.877438"/><trkpt lat="37.710702" lon="126.877405"/><trkpt lat="37.710477" lon="126.877426"/><trkpt lat="37.710434" lon="126.87732"/><trkpt lat="37.710467" lon="126.877097"/><trkpt lat="37.71042" lon="126.876888"/><trkpt lat="37.710282" lon="126.876724"/><trkpt lat="37.71018" lon="126.876517"/><trkpt lat="37.710083" lon="126.876486"/><trkpt lat="37.709905" lon="126.876636"/><trkpt lat="37.709852" lon="126.876919"/><trkpt lat="37.709843" lon="126.877254"/><trkpt lat="37.709739" lon="126.87749"/><trkpt lat="37.709629" lon="126.877894"/><trkpt lat="37.709631" lon="126.878215"/><trkpt lat="37.70961" lon="126.878483"/><trkpt lat="37.709406" lon="126.878451"/><trkpt lat="37.709074" lon="126.878616"/><trkpt lat="37.708883" lon="126.878736"/></trkseg>
<trkseg><trkpt lat="37.715484" lon="126.881572"/><trkpt lat="37.715695" lon="126.881412"/><trkpt lat="37.715871" lon="126.881249"/><trkpt lat="37.716057" lon="126.881048"/><trkpt lat="37.71609" lon="126.880855"/><trkpt lat="37.716061" lon="126.880719"/></trkseg>
<trkseg><trkpt lat="37.716061" lon="126.880719"/><trkpt lat="37.716084" lon="126.880447"/><trkpt lat="37.716114" lon="126.880244"/><trkpt lat="37.716286" lon="126.880093"/><trkpt lat="37.716349" lon="126.88007"/></trkseg>
<trkseg><trkpt lat="37.716061" lon="126.880719"/><trkpt lat="37.716363" lon="126.880888"/><trkpt lat="37.716563" lon="126.880901"/><trkpt lat="37.716625" lon="126.880986"/><trkpt lat="37.716719" lon="126.881134"/><trkpt lat="37.716751" lon="126.88134"/><trkpt lat="37.716708" lon="126.881535"/><trkpt lat="37.716823" lon="126.881749"/><trkpt lat="37.717096" lon="126.881651"/><trkpt lat="37.717397" lon="126.881725"/><trkpt lat="37.71767" lon="126.881696"/><trkpt lat="37.717947" lon="126.881573"/><trkpt lat="37.718072" lon="126.881733"/><trkpt lat="37.718119" lon="126.881847"/></trkseg>
<trkseg><trkpt lat="37.715484" lon="126.881572"/><trkpt lat="37.71532" lon="126.881643"/><trkpt lat="37.715156" lon="126.881621"/><trkpt lat="37.714988" lon="126.881554"/><trkpt lat="37.714813" lon="126.881639"/><trkpt lat="37.714552" lon="126.881756"/><trkpt lat="37.714373" lon="126.881872"/><trkpt lat="37.71416" lon="126.881821"/><trkpt lat="37.713993" lon="126.881742"/><trkpt lat="37.713779" lon="126.881606"/><trkpt lat="37.713644" lon="126.881366"/><trkpt lat="37.713558" lon="126.88116"/><trkpt lat="37.713508" lon="126.880855"/><trkpt lat="37.713465" lon="126.880675"/><trkpt lat="37.713397" lon="126.880561"/><trkpt lat="37.713269" lon="126.880421"/><trkpt lat="37.713174" lon="126.880272"/><trkpt lat="37.713079" lon="126.880219"/><trkpt lat="37.712974" lon="126.88032"/><trkpt lat="37.712798" lon="126.88039"/><trkpt lat="37.712652" lon="126.880361"/><trkpt lat="37.71252" lon="126.880255"/><trkpt lat="37.712371" lon="126.880156"/></trkseg>
<trkseg><trkpt lat="37.711948" lon="126.885216"/><trkpt lat="37.712379" lon="126.885098"/><trkpt lat="37.71269" lon="126.88485"/><trkpt lat="37.713082" lon="126.884706"/><trkpt lat="37.713452" lon="126.884672"/><trkpt lat="37.713805" lon="126.884692"/><trkpt lat="37.714137" lon="126.88485"/><trkpt lat="37.714501" lon="126.884889"/><trkpt lat="37.714848" lon="126.884909"/><trkpt lat="37.715182" lon="126.884937"/><trkpt lat="37.715749" lon="126.88528"/><trkpt lat="37.716037" lon="126.885656"/><trkpt lat="37.716164" lon="126.886252"/><trkpt lat="37.716585" lon="126.886559"/><trkpt lat="37.716738" lon="126.886695"/><trkpt lat="37.717185" lon="126.886882"/><trkpt lat="37.717316" lon="126.887159"/><trkpt lat="37.717583" lon="126.887334"/><trkpt lat="37.717875" lon="126.887519"/><trkpt lat="37.71828" lon="126.887657"/><trkpt lat="37.718532" lon="126.88796"/><trkpt lat="37.718533" lon="126.888454"/><trkpt lat="37.71863" lon="126.88879"/><trkpt lat="37.718894" lon="126.888857"/><trkpt lat="37.71919" lon="126.888985"/><trkpt lat="37.719564" lon="126.889119"/><trkpt lat="37.719775" lon="126.889347"/><trkpt lat="37.719992" lon="126.889571"/><trkpt lat="37.720215" lon="126.889617"/><trkpt lat="37.720449" lon="126.88942"/><trkpt lat="37.720711" lon="126.889383"/><trkpt lat="37.721096" lon="126.889271"/><trkpt lat="37.721417" lon="126.88907"/><trkpt lat="37.721419" lon="126.888894"/><trkpt lat="37.721415" lon="126.888649"/><trkpt lat="37.721268" lon="126.888537"/><trkpt lat="37.721085" lon="126.888292"/><trkpt lat="37.720878" lon="126.888198"/><trkpt lat="37.720598" lon="126.888101"/><trkpt lat="37.72042" lon="126.887854"/><trkpt lat="37.72025" lon="126.887752"/><trkpt lat="37.719933" lon="126.887671"/><trkpt lat="37.719681" lon="126.887604"/><trkpt lat="37.719409" lon="126.88738"/><trkpt lat="37.719239" lon="126.887151"/><trkpt lat="37.719061" lon="126.887043"/><trkpt lat="37.718881" lon="126.886838"/><trkpt lat="37.718737" lon="126.886598"/><trkpt lat="37.718544" lon="126.886397"/><trkpt lat="37.718525" lon="126.886259"/><trkpt lat="37.718454" lon="126.885962"/><trkpt lat="37.718394" lon="126.88574"/><trkpt lat="37.718348" lon="126.885582"/><trkpt lat="37.718288" lon="126.885284"/><trkpt lat="37.718157" lon="126.884943"/><trkpt lat="37.718058" lon="126.884718"/><trkpt lat="37.717909" lon="126.884604"/><trkpt lat="37.717795" lon="126.884399"/><trkpt lat="37.717612" lon="126.88411"/><trkpt lat="37.717397" lon="126.883832"/><trkpt lat="37.717215" lon="126.883803"/><trkpt lat="37.717063" lon="126.883713"/><trkpt lat="37.716773" lon="126.883482"/><trkpt lat="37.716532" lon="126.883247"/><trkpt lat="37.716297" lon="126.883187"/><trkpt lat="37.71616" lon="126.883081"/><trkpt lat="37.715846" lon="126.882912"/><trkpt lat="37.715679" lon="126.882894"/><trkpt lat="37.715736" lon="126.882745"/><trkpt lat="37.715668" lon="126.882447"/><trkpt lat="37.715636" lon="126.882271"/><trkpt lat="37.715601" lon="126.881858"/><trkpt lat="37.715505" lon="126.881611"/><trkpt lat="37.715484" lon="126.881572"/></trkseg>
<trkseg><trkpt lat="37.716967" lon="126.895555"/><trkpt lat="37.71688" lon="126.895758"/><trkpt lat="37.716795" lon="126.895867"/><trkpt lat="37.716802" lon="126.896029"/><trkpt lat="37.716698" lon="126.896268"/><trkpt lat="37.716623" lon="126.896472"/><trkpt lat="37.716599" lon="126.896679"/><trkpt lat="37.716583" lon="126.896931"/><trkpt lat="37.716541" lon="126.897023"/></trkseg>
<trkseg><trkpt lat="37.715904" lon="126.896133"/><trkpt lat="37.716003" lon="126.896412"/><trkpt lat="37.716004" lon="126.896756"/><trkpt lat="37.716187" lon="126.896904"/><trkpt lat="37.716324" lon="126.896952"/><trkpt lat="37.716477" lon="126.897047"/><trkpt lat="37.716541" lon="126.897023"/></trkseg>
<trkseg><trkpt lat="37.71563" lon="126.89666"/><trkpt lat="37.715809" lon="126.896586"/><trkpt lat="37.715859" lon="126.896306"/><trkpt lat="37.715904" lon="126.896133"/></trkseg>
<trkseg><trkpt lat="37.716863" lon="126.894186"/><trkpt lat="37.716973" lon="126.894434"/><trkpt lat="37.7171" lon="126.894689"/><trkpt lat="37.717035" lon="126.895069"/><trkpt lat="37.717003" lon="126.895428"/><trkpt lat="37.716967" lon="126.895555"/></trkseg>
<trkseg><trkpt lat="37.716072" lon="126.893409"/><trkpt lat="37.716283" lon="126.893572"/><trkpt lat="37.716429" lon="126.893743"/><trkpt lat="37.716432" lon="126.894144"/><trkpt lat="37.716678" lon="126.894188"/><trkpt lat="37.716863" lon="126.894186"/></trkseg>
<trkseg><trkpt lat="37.716072" lon="126.893409"/><trkpt lat="37.715916" lon="126.893238"/><trkpt lat="37.715712" lon="126.89301"/><trkpt lat="37.715549" lon="126.892759"/><trkpt lat="37.715402" lon="126.892412"/><trkpt lat="37.71523" lon="126.89205"/><trkpt lat="37.715095" lon="126.891803"/><trkpt lat="37.714941" lon="126.891498"/><trkpt lat="37.714806" lon="126.891231"/><trkpt lat="37.714477" lon="126.891039"/><trkpt lat="37.714244" lon="126.890718"/><trkpt lat="37.713946" lon="126.8903"/><trkpt lat="37.713648" lon="126.889952"/><trkpt lat="37.713401" lon="126.889755"/><trkpt lat="37.713251" lon="126.889596"/><trkpt lat="37.713081" lon="126.889563"/><trkpt lat="37.712932" lon="126.88951"/><trkpt lat="37.712849" lon="126.889347"/><trkpt lat="37.712691" lon="126.889279"/><trkpt lat="37.712663" lon="126.889157"/><trkpt lat="37.712713" lon="126.888958"/><trkpt lat="37.712782" lon="126.888781"/><trkpt lat="37.71287" lon="126.888662"/><trkpt lat="37.712827" lon="126.888548"/><trkpt lat="37.712814" lon="126.888398"/><trkpt lat="37.712891" lon="126.888157"/><trkpt lat="37.712832" lon="126.887828"/><trkpt lat="37.712692" lon="126.887629"/><trkpt lat="37.712322" lon="126.887401"/><trkpt lat="37.712119" lon="126.887372"/><trkpt lat="37.711808" lon="126.887152"/><trkpt lat="37.711621" lon="126.886997"/><trkpt lat="37.711526" lon="126.886913"/></trkseg>
<trkseg><trkpt lat="37.713986" lon="126.894757"/><trkpt lat="37.714258" lon="126.894449"/><trkpt lat="37.714387" lon="126.894199"/><trkpt lat="37.714514" lon="126.893999"/><trkpt lat="37.714686" lon="126.893833"/><trkpt lat="37.714929" lon="126.893873"/><trkpt lat="37.714978" lon="126.893653"/><trkpt lat="37.714985" lon="126.893437"/><trkpt lat="37.715142" lon="126.893294"/><trkpt lat="37.7153" lon="126.893289"/><trkpt lat="37.715445" lon="126.893207"/><trkpt lat="37.715816" lon="126.893258"/><trkpt lat="37.716072" lon="126.893409"/></trkseg>
<trkseg><trkpt lat="37.712299" lon="126.894683"/><trkpt lat="37.711903" lon="126.894671"/><trkpt lat="37.711642" lon="126.894694"/><trkpt lat="37.711378" lon="126.89461"/><trkpt lat="37.711149" lon="126.894355"/><trkpt lat="37.710887" lon="126.894239"/><trkpt lat="37.710579" lon="126.893958"/><trkpt lat="37.710357" lon="126.893899"/><trkpt lat="37.710117" lon="126.893989"/><trkpt lat="37.709975" lon="126.894155"/><trkpt lat="37.709811" lon="126.894129"/><trkpt lat="37.709423" lon="126.894312"/><trkpt lat="37.709314" lon="126.894309"/></trkseg>
<trkseg><trkpt lat="37.714234" lon="126.896441"/><trkpt lat="37.714266" lon="126.895971"/><trkpt lat="37.714239" lon="126.895611"/><trkpt lat="37.714134" lon="126.895299"/><trkpt lat="37.714067" lon="126.895093"/><trkpt lat="37.713986" lon="126.894757"/></trkseg>
<trkseg><trkpt lat="37.715321" lon="126.895534"/><trkpt lat="37.715164" lon="126.895849"/><trkpt lat="37.715104" lon="126.895972"/><trkpt lat="37.715003" lon="126.89634"/><trkpt lat="37.714825" lon="126.896647"/></trkseg>
<trkseg><trkpt lat="37.71563" lon="126.89666"/><trkpt lat="37.715658" lon="126.896243"/><trkpt lat="37.715449" lon="126.895724"/><trkpt lat="37.715321" lon="126.895534"/></trkseg>
<trkseg><trkpt lat="37.714234" lon="126.896441"/><trkpt lat="37.714407" lon="126.896637"/><trkpt lat="37.714573" lon="126.89674"/><trkpt lat="37.714762" lon="126.896724"/><trkpt lat="37.714825" lon="126.896647"/></trkseg>
<trkseg><trkpt lat="37.709314" lon="126.894309"/><trkpt lat="37.709086" lon="126.894422"/><trkpt lat="37.708882" lon="126.894339"/><trkpt lat="37.708678" lon="126.894112"/><trkpt lat="37.708262" lon="126.894146"/><trkpt lat="37.707794" lon="126.894295"/><trkpt lat="37.707418" lon="126.894447"/><trkpt lat="37.707118" lon="126.894426"/><trkpt lat="37.706911" lon="126.894447"/><trkpt lat="37.706819" lon="126.894337"/></trkseg>
<trkseg><trkpt lat="37.71152" lon="126.896196"/><trkpt lat="37.711724" lon="126.895968"/><trkpt lat="37.711958" lon="126.895733"/><trkpt lat="37.712097" lon="126.895541"/><trkpt lat="37.712096" lon="126.895089"/><trkpt lat="37.712299" lon="126.894683"/></trkseg>
<trkseg><trkpt lat="37.707537" lon="126.896867"/><trkpt lat="37.707688" lon="126.896602"/><trkpt lat="37.70786" lon="126.896428"/><trkpt lat="37.7079" lon="126.896365"/><trkpt lat="37.707955" lon="126.896316"/><trkpt lat="37.707985" lon="126.896303"/><trkpt lat="37.708109" lon="126.896222"/><trkpt lat="37.708177" lon="126.896014"/><trkpt lat="37.708298" lon="126.895989"/><trkpt lat="37.708556" lon="126.895851"/><trkpt lat="37.708639" lon="126.895686"/><trkpt lat="37.708822" lon="126.89563"/><trkpt lat="37.708952" lon="126.89554"/><trkpt lat="37.709019" lon="126.895451"/></trkseg>
<trkseg><trkpt lat="37.707537" lon="126.896867"/><trkpt lat="37.707331" lon="126.896903"/><trkpt lat="37.707166" lon="126.896824"/><trkpt lat="37.706974" lon="126.896661"/><trkpt lat="37.706851" lon="126.896497"/><trkpt lat="37.706739" lon="126.896289"/><trkpt lat="37.706724" lon="126.895906"/><trkpt lat="37.706775" lon="126.895583"/><trkpt lat="37.706789" lon="126.895452"/></trkseg>
<trkseg><trkpt lat="37.717603" lon="126.900507"/><trkpt lat="37.717251" lon="126.899951"/><trkpt lat="37.717098" lon="126.899696"/><trkpt lat="37.717073" lon="126.899513"/><trkpt lat="37.717139" lon="126.899417"/><trkpt lat="37.717087" lon="126.899291"/><trkpt lat="37.71701" lon="126.899112"/><trkpt lat="37.71687" lon="126.899044"/><trkpt lat="37.71672" lon="126.898884"/><trkpt lat="37.716443" lon="126.898768"/><trkpt lat="37.71603" lon="126.89889"/><trkpt lat="37.7158" lon="126.898999"/></trkseg>
<trkseg><trkpt lat="37.7158" lon="126.898999"/><trkpt lat="37.715897" lon="126.899438"/><trkpt lat="37.715952" lon="126.899636"/><trkpt lat="37.716023" lon="126.8998"/><trkpt lat="37.716036" lon="126.899942"/><trkpt lat="37.716164" lon="126.90004"/><trkpt lat="37.716648" lon="126.900273"/><trkpt lat="37.717297" lon="126.900586"/></trkseg>
<trkseg><trkpt lat="37.715239" lon="126.898708"/><trkpt lat="37.715514" lon="126.898712"/><trkpt lat="37.715766" lon="126.898904"/><trkpt lat="37.7158" lon="126.898999"/></trkseg>
<trkseg><trkpt lat="37.715239" lon="126.898708"/><trkpt lat="37.715399" lon="126.899006"/><trkpt lat="37.71528" lon="126.899224"/><trkpt lat="37.715141" lon="126.899359"/><trkpt lat="37.715021" lon="126.899534"/><trkpt lat="37.71492" lon="126.899798"/><trkpt lat="37.714865" lon="126.900334"/><trkpt lat="37.714696" lon="126.900607"/><trkpt lat="37.714442" lon="126.90088"/><trkpt lat="37.714291" lon="126.901027"/><trkpt lat="37.714273" lon="126.901252"/></trkseg>
<trkseg><trkpt lat="37.71021" lon="126.901522"/><trkpt lat="37.710387" lon="126.901024"/><trkpt lat="37.710628" lon="126.900567"/><trkpt lat="37.710857" lon="126.900278"/><trkpt lat="37.711035" lon="126.900284"/><trkpt lat="37.711253" lon="126.900393"/></trkseg>
<trkseg><trkpt lat="37.716349" lon="126.88007"/><trkpt lat="37.716191" lon="126.879956"/><trkpt lat="37.716065" lon="126.879824"/></trkseg>
</trk>
</gpx>
