<?xml version="1.0" encoding="UTF-8"?>
<gpx version="1.1" creator="letnaturechoose" xmlns="http://www.topografix.com/GPX/1/1">
<metadata><name>한남지선 등산로</name></metadata>
<trk><name>한남지선</name>
<trkseg><trkpt lat="37.356439" lon="126.914426"/><trkpt lat="37.356107" lon="126.914543"/></trkseg>
<trkseg><trkpt lat="37.359592" lon="126.906742"/><trkpt lat="37.359896" lon="126.907101"/><trkpt lat="37.359933" lon="126.907148"/><trkpt lat="37.359963" lon="126.907198"/><trkpt lat="37.360022" lon="126.9073"/><trkpt lat="37.360049" lon="126.907334"/><trkpt lat="37.360081" lon="126.907365"/><trkpt lat="37.360252" lon="126.907501"/><trkpt lat="37.360594" lon="126.907774"/><trkpt lat="37.360651" lon="126.907818"/><trkpt lat="37.360687" lon="126.907839"/><trkpt lat="37.360948" lon="126.908616"/><trkpt lat="37.361358" lon="126.909842"/><trkpt lat="37.361715" lon="126.911064"/><trkpt lat="37.361629" lon="126.911507"/><trkpt lat="37.361467" lon="126.911381"/></trkseg>
<trkseg><trkpt lat="37.352341" lon="126.913448"/><trkpt lat="37.353186" lon="126.913242"/><trkpt lat="37.353879" lon="126.912786"/><trkpt lat="37.355302" lon="126.911908"/></trkseg>
<trkseg><trkpt lat="37.356827" lon="126.918194"/><trkpt lat="37.356322" lon="126.918199"/><trkpt lat="37.356239" lon="126.918188"/></trkseg>
<trkseg><trkpt lat="37.355876" lon="126.9096"/><trkpt lat="37.356294" lon="126.909897"/><trkpt lat="37.356873" lon="126.910382"/><trkpt lat="37.357465" lon="126.910773"/></trkseg>
<trkseg><trkpt lat="37.354659" lon="126.910317"/><trkpt lat="37.355061" lon="126.909946"/></trkseg>
<trkseg><trkpt lat="37.35607" lon="126.91134"/><trkpt lat="37.35546" lon="126.911724"/><trkpt lat="37.355302" lon="126.911908"/></trkseg>
<trkseg><trkpt lat="37.356107" lon="126.914543"/><trkpt lat="37.355481" lon="126.914913"/><trkpt lat="37.354974" lon="126.915169"/><trkpt lat="37.354448" lon="126.915336"/><trkpt lat="37.354058" lon="126.915728"/><trkpt lat="37.353889" lon="126.91603"/></trkseg>
<trkseg><trkpt lat="37.354894" lon="126.917158"/><trkpt lat="37.35522" lon="126.916812"/><trkpt lat="37.355551" lon="126.917312"/><trkpt lat="37.355878" lon="126.917727"/><trkpt lat="37.355994" lon="126.917307"/><trkpt lat="37.356129" lon="126.917595"/><trkpt lat="37.356239" lon="126.918188"/></trkseg>
<trkseg><trkpt lat="37.358859" lon="126.913547"/><trkpt lat="37.358983" lon="126.913601"/><trkpt lat="37.359225" lon="126.913699"/><trkpt lat="37.359473" lon="126.913717"/><trkpt lat="37.36023" lon="126.913793"/><trkpt lat="37.360484" lon="126.913826"/><trkpt lat="37.360661" lon="126.913823"/><trkpt lat="37.360792" lon="126.913778"/><trkpt lat="37.360869" lon="126.913673"/><trkpt lat="37.360796" lon="126.913072"/><trkpt lat="37.360452" lon="126.912833"/><trkpt lat="37.360727" lon="126.91256"/><trkpt lat="37.361355" lon="126.912478"/><trkpt lat="37.361534" lon="126.912159"/><trkpt lat="37.361478" lon="126.911892"/><trkpt lat="37.361465" lon="126.911658"/><trkpt lat="37.361513" lon="126.911557"/><trkpt lat="37.3616" lon="126.91154"/><trkpt lat="37.361632" lon="126.911542"/></trkseg>
<trkseg><trkpt lat="37.352268" lon="126.909696"/><trkpt lat="37.351814" lon="126.909702"/><trkpt lat="37.3514" lon="126.909653"/><trkpt lat="37.351091" lon="126.909496"/><trkpt lat="37.350711" lon="126.909032"/><trkpt lat="37.350396" lon="126.909081"/><trkpt lat="37.350043" lon="126.908862"/><trkpt lat="37.349742" lon="126.908964"/><trkpt lat="37.349375" lon="126.908998"/><trkpt lat="37.349119" lon="126.908835"/><trkpt lat="37.348656" lon="126.908642"/><trkpt lat="37.348371" lon="126.90832"/><trkpt lat="37.348467" lon="126.907835"/><trkpt lat="37.348263" lon="126.907313"/><trkpt lat="37.348329" lon="126.906731"/><trkpt lat="37.348603" lon="126.906404"/><trkpt lat="37.348258" lon="126.906242"/><trkpt lat="37.3478" lon="126.906182"/><trkpt lat="37.347651" lon="126.906183"/></trkseg>
<trkseg><trkpt lat="37.347651" lon="126.906183"/><trkpt lat="37.347255" lon="126.906317"/><trkpt lat="37.347278" lon="126.906866"/><trkpt lat="37.347129" lon="126.907308"/><trkpt lat="37.346884" lon="126.907548"/><trkpt lat="37.346395" lon="126.907348"/><trkpt lat="37.345986" lon="126.907032"/><trkpt lat="37.345708" lon="126.906969"/><trkpt lat="37.345422" lon="126.906811"/><trkpt lat="37.345065" lon="126.906786"/><trkpt lat="37.344662" lon="126.906233"/><trkpt lat="37.344276" lon="126.906228"/><trkpt lat="37.344129" lon="126.905999"/><trkpt lat="37.343701" lon="126.906046"/><trkpt lat="37.343317" lon="126.905823"/><trkpt lat="37.342991" lon="126.905866"/><trkpt lat="37.342438" lon="126.905806"/><trkpt lat="37.341995" lon="126.905863"/><trkpt lat="37.342013" lon="126.90649"/><trkpt lat="37.341344" lon="126.906383"/><trkpt lat="37.34086" lon="126.905821"/><trkpt lat="37.340326" lon="126.905828"/></trkseg>
<trkseg><trkpt lat="37.348051" lon="126.909566"/><trkpt lat="37.347494" lon="126.909651"/><trkpt lat="37.347059" lon="126.909601"/><trkpt lat="37.346154" lon="126.910551"/><trkpt lat="37.346177" lon="126.911327"/><trkpt lat="37.345991" lon="126.912024"/><trkpt lat="37.345943" lon="126.913379"/><trkpt lat="37.346021" lon="126.915206"/><trkpt lat="37.346856" lon="126.916807"/><trkpt lat="37.346762" lon="126.917682"/><trkpt lat="37.347666" lon="126.917933"/><trkpt lat="37.348552" lon="126.918402"/><trkpt lat="37.349335" lon="126.918864"/><trkpt lat="37.349936" lon="126.919254"/><trkpt lat="37.350292" lon="126.918978"/><trkpt lat="37.350576" lon="126.918825"/></trkseg>
<trkseg><trkpt lat="37.366222" lon="126.895564"/><trkpt lat="37.36646" lon="126.8965"/><trkpt lat="37.366716" lon="126.897315"/><trkpt lat="37.367231" lon="126.898311"/><trkpt lat="37.367317" lon="126.899202"/><trkpt lat="37.367842" lon="126.900855"/><trkpt lat="37.370527" lon="126.903448"/><trkpt lat="37.371593" lon="126.903345"/></trkseg>
<trkseg><trkpt lat="37.362305" lon="126.899425"/><trkpt lat="37.362654" lon="126.899476"/><trkpt lat="37.362907" lon="126.900063"/><trkpt lat="37.363396" lon="126.900599"/><trkpt lat="37.363999" lon="126.901273"/><trkpt lat="37.364721" lon="126.901538"/><trkpt lat="37.364966" lon="126.901661"/></trkseg>
<trkseg><trkpt lat="37.36555" lon="126.898755"/><trkpt lat="37.365317" lon="126.898033"/><trkpt lat="37.364962" lon="126.897683"/><trkpt lat="37.364636" lon="126.897651"/><trkpt lat="37.364575" lon="126.897036"/><trkpt lat="37.364602" lon="126.896541"/><trkpt lat="37.364637" lon="126.895769"/><trkpt lat="37.365233" lon="126.894985"/></trkseg>
<trkseg><trkpt lat="37.332091" lon="126.917081"/><trkpt lat="37.330315" lon="126.917288"/><trkpt lat="37.32974" lon="126.917775"/><trkpt lat="37.328622" lon="126.916715"/><trkpt lat="37.327908" lon="126.91654"/></trkseg>
<trkseg><trkpt lat="37.356519" lon="126.908822"/><trkpt lat="37.356756" lon="126.908838"/></trkseg>
<trkseg><trkpt lat="37.356756" lon="126.908838"/><trkpt lat="37.35732" lon="126.910333"/><trkpt lat="37.357465" lon="126.910773"/></trkseg>
<trkseg><trkpt lat="37.341405" lon="126.917137"/><trkpt lat="37.341544" lon="126.917365"/><trkpt lat="37.341752" lon="126.91776"/><trkpt lat="37.341859" lon="126.917974"/><trkpt lat="37.341895" lon="126.918132"/><trkpt lat="37.341903" lon="126.918292"/><trkpt lat="37.341862" lon="126.918504"/><trkpt lat="37.341957" lon="126.918622"/><trkpt lat="37.342066" lon="126.918813"/><trkpt lat="37.342129" lon="126.918908"/><trkpt lat="37.342251" lon="126.919068"/><trkpt lat="37.342364" lon="126.919235"/><trkpt lat="37.34249" lon="126.919302"/><trkpt lat="37.34262" lon="126.919367"/><trkpt lat="37.342716" lon="126.919466"/><trkpt lat="37.342827" lon="126.919506"/><trkpt lat="37.342976" lon="126.919631"/><trkpt lat="37.343083" lon="126.919753"/><trkpt lat="37.343192" lon="126.919851"/><trkpt lat="37.343282" lon="126.919883"/><trkpt lat="37.343418" lon="126.91988"/><trkpt lat="37.343586" lon="126.919855"/><trkpt lat="37.343715" lon="126.919897"/><trkpt lat="37.343833" lon="126.919932"/><trkpt lat="37.343988" lon="126.919938"/><trkpt lat="37.344177" lon="126.919989"/><trkpt lat="37.344286" lon="126.920026"/><trkpt lat="37.344538" lon="126.920018"/><trkpt lat="37.344656" lon="126.920033"/><trkpt lat="37.344729" lon="126.920094"/><trkpt lat="37.344832" lon="126.920257"/><trkpt lat="37.344964" lon="126.920354"/><trkpt lat="37.345057" lon="126.920479"/><trkpt lat="37.345274" lon="126.920523"/><trkpt lat="37.345423" lon="126.920596"/><trkpt lat="37.345562" lon="126.9207"/><trkpt lat="37.345647" lon="126.920712"/><trkpt lat="37.345788" lon="126.920745"/><trkpt lat="37.345917" lon="126.921334"/><trkpt lat="37.346159" lon="126.921782"/><trkpt lat="37.347014" lon="126.922128"/><trkpt lat="37.347522" lon="126.922007"/><trkpt lat="37.347868" lon="126.922477"/><trkpt lat="37.34778" lon="126.923379"/><trkpt lat="37.347659" lon="126.924183"/><trkpt lat="37.347131" lon="126.924231"/><trkpt lat="37.348636" lon="126.924796"/><trkpt lat="37.350168" lon="126.925232"/></trkseg>
<trkseg><trkpt lat="37.341405" lon="126.917137"/><trkpt lat="37.340059" lon="126.916901"/><trkpt lat="37.339599" lon="126.918249"/><trkpt lat="37.338595" lon="126.919976"/><trkpt lat="37.336797" lon="126.920057"/><trkpt lat="37.334511" lon="126.919198"/><trkpt lat="37.33354" lon="126.917627"/><trkpt lat="37.332091" lon="126.917081"/></trkseg>
<trkseg><trkpt lat="37.35485" lon="126.908323"/><trkpt lat="37.355228" lon="126.908575"/><trkpt lat="37.355584" lon="126.908806"/><trkpt lat="37.355855" lon="126.908766"/><trkpt lat="37.356324" lon="126.908559"/><trkpt lat="37.356519" lon="126.908822"/></trkseg>
<trkseg><trkpt lat="37.355876" lon="126.9096"/><trkpt lat="37.355249" lon="126.909737"/><trkpt lat="37.355061" lon="126.909946"/></trkseg>
<trkseg><trkpt lat="37.34834" lon="126.909699"/><trkpt lat="37.347699" lon="126.90868"/><trkpt lat="37.347745" lon="126.90837"/><trkpt lat="37.347858" lon="126.90755"/><trkpt lat="37.34784" lon="126.906886"/><trkpt lat="37.34776" lon="126.906637"/><trkpt lat="37.347651" lon="126.906183"/></trkseg>
<trkseg><trkpt lat="37.332091" lon="126.917081"/><trkpt lat="37.332144" lon="126.915974"/><trkpt lat="37.331426" lon="126.915912"/><trkpt lat="37.331565" lon="126.914545"/><trkpt lat="37.332082" lon="126.914143"/><trkpt lat="37.332797" lon="126.913724"/><trkpt lat="37.333779" lon="126.913521"/><trkpt lat="37.33435" lon="126.912107"/><trkpt lat="37.334805" lon="126.911257"/><trkpt lat="37.33661" lon="126.913545"/><trkpt lat="37.339336" lon="126.914913"/><trkpt lat="37.339974" lon="126.91602"/><trkpt lat="37.341261" lon="126.915483"/><trkpt lat="37.341744" lon="126.915039"/></trkseg>
<trkseg><trkpt lat="37.36649" lon="126.895122"/><trkpt lat="37.366222" lon="126.895564"/></trkseg>
<trkseg><trkpt lat="37.372338" lon="126.904504"/><trkpt lat="37.372411" lon="126.903942"/><trkpt lat="37.372967" lon="126.903633"/></trkseg>
<trkseg><trkpt lat="37.372461" lon="126.904858"/><trkpt lat="37.373107" lon="126.904823"/><trkpt lat="37.373579" lon="126.904859"/><trkpt lat="37.374268" lon="126.905126"/><trkpt lat="37.374835" lon="126.905031"/><trkpt lat="37.375359" lon="126.904924"/><trkpt lat="37.376051" lon="126.905384"/><trkpt lat="37.377246" lon="126.905429"/><trkpt lat="37.378307" lon="126.904936"/><trkpt lat="37.378809" lon="126.905102"/><trkpt lat="37.37962" lon="126.905601"/><trkpt lat="37.380369" lon="126.905944"/><trkpt lat="37.380911" lon="126.906111"/><trkpt lat="37.381429" lon="126.906488"/><trkpt lat="37.382011" lon="126.906621"/><trkpt lat="37.382509" lon="126.906882"/><trkpt lat="37.382644" lon="126.907338"/><trkpt lat="37.382896" lon="126.907835"/><trkpt lat="37.383003" lon="126.90829"/><trkpt lat="37.383524" lon="126.908313"/><trkpt lat="37.384397" lon="126.907734"/><trkpt lat="37.384751" lon="126.906964"/><trkpt lat="37.385098" lon="126.906554"/><trkpt lat="37.385543" lon="126.906497"/></trkseg>
<trkseg><trkpt lat="37.372338" lon="126.904504"/><trkpt lat="37.372461" lon="126.904858"/></trkseg>
<trkseg><trkpt lat="37.359442" lon="126.902369"/><trkpt lat="37.360154" lon="126.901711"/><trkpt lat="37.361098" lon="126.90106"/><trkpt lat="37.361859" lon="126.900469"/><trkpt lat="37.362362" lon="126.899985"/><trkpt lat="37.362305" lon="126.899425"/></trkseg>
<trkseg><trkpt lat="37.357852" lon="126.907038"/><trkpt lat="37.35731" lon="126.906468"/><trkpt lat="37.357718" lon="126.906233"/></trkseg>
<trkseg><trkpt lat="37.35815" lon="126.900929"/><trkpt lat="37.358648" lon="126.901081"/><trkpt lat="37.359027" lon="126.901366"/><trkpt lat="37.358909" lon="126.901574"/><trkpt lat="37.358639" lon="126.901642"/><trkpt lat="37.358601" lon="126.902146"/><trkpt lat="37.358691" lon="126.902695"/><trkpt lat="37.358788" lon="126.902951"/><trkpt lat="37.359202" lon="126.90258"/><trkpt lat="37.359442" lon="126.902369"/></trkseg>
<trkseg><trkpt lat="37.364966" lon="126.901661"/><trkpt lat="37.365511" lon="126.902252"/><trkpt lat="37.366004" lon="126.903067"/><trkpt lat="37.36638" lon="126.903396"/><trkpt lat="37.366571" lon="126.903763"/><trkpt lat="37.366764" lon="126.904373"/><trkpt lat="37.367233" lon="126.904778"/><trkpt lat="37.367529" lon="126.905322"/><trkpt lat="37.36815" lon="126.905771"/><trkpt lat="37.368644" lon="126.906013"/><trkpt lat="37.369113" lon="126.905817"/><trkpt lat="37.369823" lon="126.905749"/><trkpt lat="37.370594" lon="126.905527"/><trkpt lat="37.371512" lon="126.904866"/><trkpt lat="37.372162" lon="126.904808"/><trkpt lat="37.372461" lon="126.904858"/></trkseg>
<trkseg><trkpt lat="37.357718" lon="126.906233"/><trkpt lat="37.357347" lon="126.905961"/><trkpt lat="37.356732" lon="126.906533"/><trkpt lat="37.356392" lon="126.907156"/><trkpt lat="37.356198" lon="126.907602"/></trkseg>
<trkseg><trkpt lat="37.358868" lon="126.905198"/><trkpt lat="37.359213" lon="126.904767"/><trkpt lat="37.359281" lon="126.904249"/><trkpt lat="37.359198" lon="126.903843"/><trkpt lat="37.359161" lon="126.903345"/><trkpt lat="37.359442" lon="126.902369"/></trkseg>
<trkseg><trkpt lat="37.359322" lon="126.906378"/><trkpt lat="37.358353" lon="126.906695"/></trkseg>
<trkseg><trkpt lat="37.358133" lon="126.907248"/><trkpt lat="37.357675" lon="126.908241"/><trkpt lat="37.356756" lon="126.908838"/></trkseg>
<trkseg><trkpt lat="37.356519" lon="126.908822"/><trkpt lat="37.355876" lon="126.9096"/></trkseg>
<trkseg><trkpt lat="37.354648" lon="126.908548"/><trkpt lat="37.355061" lon="126.909946"/></trkseg>
<trkseg><trkpt lat="37.361467" lon="126.911381"/><trkpt lat="37.361117" lon="126.910896"/><trkpt lat="37.360807" lon="126.91041"/><trkpt lat="37.359988" lon="126.909795"/><trkpt lat="37.359629" lon="126.909368"/><trkpt lat="37.359414" lon="126.909813"/><trkpt lat="37.359328" lon="126.910265"/><trkpt lat="37.358745" lon="126.910993"/><trkpt lat="37.357921" lon="126.911255"/><trkpt lat="37.35673" lon="126.911879"/><trkpt lat="37.35629" lon="126.911641"/></trkseg>
<trkseg><trkpt lat="37.359225" lon="126.89734"/><trkpt lat="37.360588" lon="126.898023"/><trkpt lat="37.36181" lon="126.899351"/><trkpt lat="37.361961" lon="126.898285"/><trkpt lat="37.359935" lon="126.896764"/><trkpt lat="37.359325" lon="126.896191"/><trkpt lat="37.359236" lon="126.896106"/></trkseg>
<trkseg><trkpt lat="37.345354" lon="126.909347"/><trkpt lat="37.345305" lon="126.909239"/><trkpt lat="37.345259" lon="126.909084"/><trkpt lat="37.345188" lon="126.908984"/><trkpt lat="37.345058" lon="126.908835"/><trkpt lat="37.344887" lon="126.908763"/><trkpt lat="37.344679" lon="126.908681"/><trkpt lat="37.344465" lon="126.908622"/><trkpt lat="37.344368" lon="126.90856"/><trkpt lat="37.344186" lon="126.908374"/><trkpt lat="37.344128" lon="126.908291"/><trkpt lat="37.343984" lon="126.908049"/><trkpt lat="37.343875" lon="126.907911"/><trkpt lat="37.343783" lon="126.907849"/><trkpt lat="37.343632" lon="126.907793"/><trkpt lat="37.343434" lon="126.907766"/><trkpt lat="37.343262" lon="126.907764"/><trkpt lat="37.343132" lon="126.907767"/><trkpt lat="37.342947" lon="126.907839"/><trkpt lat="37.342831" lon="126.907877"/><trkpt lat="37.342432" lon="126.908022"/><trkpt lat="37.342262" lon="126.908094"/><trkpt lat="37.342075" lon="126.908161"/><trkpt lat="37.341857" lon="126.908167"/><trkpt lat="37.34174" lon="126.908093"/><trkpt lat="37.3416" lon="126.908019"/><trkpt lat="37.341511" lon="126.907853"/><trkpt lat="37.341465" lon="126.907767"/><trkpt lat="37.341416" lon="126.907659"/><trkpt lat="37.341337" lon="126.907466"/><trkpt lat="37.341291" lon="126.90728"/><trkpt lat="37.341232" lon="126.907131"/><trkpt lat="37.341194" lon="126.906966"/><trkpt lat="37.341152" lon="126.906863"/><trkpt lat="37.34109" lon="126.906763"/><trkpt lat="37.341004" lon="126.906585"/><trkpt lat="37.340893" lon="126.906419"/><trkpt lat="37.34077" lon="126.906295"/><trkpt lat="37.340601" lon="126.906211"/><trkpt lat="37.340508" lon="126.906055"/><trkpt lat="37.340391" lon="126.905943"/><trkpt lat="37.340326" lon="126.905828"/></trkseg>
<trkseg><trkpt lat="37.340326" lon="126.905828"/><trkpt lat="37.340192" lon="126.905747"/><trkpt lat="37.340093" lon="126.905671"/><trkpt lat="37.340039" lon="126.905577"/><trkpt lat="37.339858" lon="126.905288"/><trkpt lat="37.339695" lon="126.904518"/><trkpt lat="37.339423" lon="126.90313"/><trkpt lat="37.339425" lon="126.902929"/><trkpt lat="37.339491" lon="126.902736"/><trkpt lat="37.339578" lon="126.90264"/><trkpt lat="37.339831" lon="126.902425"/><trkpt lat="37.339986" lon="126.902235"/><trkpt lat="37.340152" lon="126.901927"/><trkpt lat="37.340513" lon="126.901376"/><trkpt lat="37.340437" lon="126.900505"/><trkpt lat="37.340204" lon="126.899682"/><trkpt lat="37.339801" lon="126.899562"/><trkpt lat="37.339389" lon="126.899348"/><trkpt lat="37.339365" lon="126.89885"/><trkpt lat="37.339639" lon="126.898201"/><trkpt lat="37.339356" lon="126.897982"/><trkpt lat="37.339127" lon="126.897913"/><trkpt lat="37.338759" lon="126.897135"/><trkpt lat="37.338555" lon="126.896672"/><trkpt lat="37.337722" lon="126.895918"/><trkpt lat="37.337181" lon="126.895158"/><trkpt lat="37.337078" lon="126.894518"/><trkpt lat="37.336676" lon="126.894407"/><trkpt lat="37.336144" lon="126.893609"/><trkpt lat="37.336195" lon="126.892723"/><trkpt lat="37.336296" lon="126.892183"/><trkpt lat="37.335359" lon="126.891502"/><trkpt lat="37.335031" lon="126.891928"/><trkpt lat="37.334867" lon="126.891646"/><trkpt lat="37.334927" lon="126.891017"/><trkpt lat="37.334883" lon="126.890907"/><trkpt lat="37.334742" lon="126.89061"/><trkpt lat="37.334894" lon="126.890289"/><trkpt lat="37.334895" lon="126.890289"/></trkseg>
<trkseg><trkpt lat="37.341744" lon="126.915039"/><trkpt lat="37.341783" lon="126.914939"/><trkpt lat="37.341848" lon="126.91485"/><trkpt lat="37.342004" lon="126.914725"/><trkpt lat="37.342121" lon="126.914535"/><trkpt lat="37.342219" lon="126.914494"/><trkpt lat="37.342383" lon="126.914441"/><trkpt lat="37.34255" lon="126.914275"/><trkpt lat="37.342697" lon="126.914062"/><trkpt lat="37.342901" lon="126.913786"/><trkpt lat="37.342998" lon="126.913636"/><trkpt lat="37.343131" lon="126.913363"/><trkpt lat="37.343215" lon="126.91315"/><trkpt lat="37.343301" lon="126.913034"/><trkpt lat="37.343452" lon="126.912896"/><trkpt lat="37.343642" lon="126.912743"/><trkpt lat="37.343741" lon="126.912633"/><trkpt lat="37.343777" lon="126.912517"/><trkpt lat="37.34376" lon="126.912321"/><trkpt lat="37.343811" lon="126.91219"/><trkpt lat="37.343955" lon="126.911953"/><trkpt lat="37.344193" lon="126.911672"/><trkpt lat="37.344378" lon="126.911355"/><trkpt lat="37.344483" lon="126.911096"/><trkpt lat="37.34454" lon="126.910925"/><trkpt lat="37.34458" lon="126.910726"/><trkpt lat="37.344658" lon="126.910611"/><trkpt lat="37.344775" lon="126.910475"/><trkpt lat="37.344989" lon="126.910121"/><trkpt lat="37.345159" lon="126.909824"/><trkpt lat="37.345272" lon="126.909589"/><trkpt lat="37.345348" lon="126.909378"/><trkpt lat="37.345354" lon="126.909347"/></trkseg>
<trkseg><trkpt lat="37.341405" lon="126.917137"/><trkpt lat="37.341357" lon="126.917044"/><trkpt lat="37.341367" lon="126.916905"/><trkpt lat="37.341371" lon="126.916812"/><trkpt lat="37.341355" lon="126.916668"/><trkpt lat="37.341295" lon="126.916506"/><trkpt lat="37.341267" lon="126.916371"/><trkpt lat="37.341291" lon="126.9162"/><trkpt lat="37.341378" lon="126.915807"/><trkpt lat="37.341457" lon="126.915635"/><trkpt lat="37.341602" lon="126.915454"/><trkpt lat="37.341654" lon="126.915369"/><trkpt lat="37.34169" lon="126.915178"/><trkpt lat="37.341744" lon="126.915039"/></trkseg>
<trkseg><trkpt lat="37.349112" lon="126.909723"/><trkpt lat="37.349077" lon="126.909885"/><trkpt lat="37.349202" lon="126.909987"/><trkpt lat="37.349222" lon="126.910107"/><trkpt lat="37.34924" lon="126.910264"/><trkpt lat="37.349224" lon="126.910429"/><trkpt lat="37.349231" lon="126.910619"/><trkpt lat="37.349207" lon="126.910758"/><trkpt lat="37.349243" lon="126.910935"/><trkpt lat="37.349222" lon="126.911059"/><trkpt lat="37.349236" lon="126.911241"/><trkpt lat="37.349253" lon="126.911368"/><trkpt lat="37.349333" lon="126.911523"/><trkpt lat="37.349266" lon="126.911597"/><trkpt lat="37.349172" lon="126.911678"/><trkpt lat="37.349092" lon="126.911848"/><trkpt lat="37.349111" lon="126.912062"/><trkpt lat="37.349199" lon="126.912195"/><trkpt lat="37.349232" lon="126.912296"/><trkpt lat="37.349244" lon="126.912507"/><trkpt lat="37.349217" lon="126.912715"/><trkpt lat="37.349264" lon="126.912888"/><trkpt lat="37.349411" lon="126.913277"/><trkpt lat="37.349493" lon="126.913447"/><trkpt lat="37.349635" lon="126.913611"/><trkpt lat="37.349823" lon="126.913653"/><trkpt lat="37.349966" lon="126.913711"/><trkpt lat="37.350024" lon="126.913794"/><trkpt lat="37.35004" lon="126.914164"/><trkpt lat="37.350087" lon="126.914271"/><trkpt lat="37.350229" lon="126.914351"/><trkpt lat="37.350475" lon="126.914511"/><trkpt lat="37.350571" lon="126.914596"/><trkpt lat="37.350718" lon="126.914774"/><trkpt lat="37.350922" lon="126.915093"/></trkseg>
<trkseg><trkpt lat="37.350922" lon="126.915093"/><trkpt lat="37.351009" lon="126.915255"/><trkpt lat="37.35106" lon="126.915434"/><trkpt lat="37.35104" lon="126.915594"/><trkpt lat="37.35096" lon="126.915731"/><trkpt lat="37.35075" lon="126.915976"/><trkpt lat="37.35064" lon="126.916216"/><trkpt lat="37.350585" lon="126.916408"/><trkpt lat="37.350447" lon="126.916542"/><trkpt lat="37.350403" lon="126.916635"/><trkpt lat="37.350378" lon="126.916785"/><trkpt lat="37.350372" lon="126.916972"/><trkpt lat="37.35041" lon="126.917167"/><trkpt lat="37.350477" lon="126.917433"/><trkpt lat="37.350415" lon="126.917874"/><trkpt lat="37.350365" lon="126.918208"/><trkpt lat="37.350375" lon="126.918444"/><trkpt lat="37.350414" lon="126.918606"/><trkpt lat="37.350468" lon="126.918719"/><trkpt lat="37.350553" lon="126.918803"/><trkpt lat="37.350576" lon="126.918825"/></trkseg>
<trkseg><trkpt lat="37.350576" lon="126.918825"/><trkpt lat="37.350714" lon="126.918853"/><trkpt lat="37.350893" lon="126.918866"/><trkpt lat="37.351152" lon="126.918898"/><trkpt lat="37.35132" lon="126.918934"/><trkpt lat="37.351551" lon="126.918966"/><trkpt lat="37.351704" lon="126.919085"/><trkpt lat="37.3518" lon="126.919075"/><trkpt lat="37.35194" lon="126.918978"/><trkpt lat="37.35217" lon="126.918769"/><trkpt lat="37.352379" lon="126.918628"/><trkpt lat="37.352735" lon="126.918433"/><trkpt lat="37.35294" lon="126.91835"/><trkpt lat="37.353208" lon="126.918311"/><trkpt lat="37.353353" lon="126.918322"/><trkpt lat="37.353621" lon="126.918358"/><trkpt lat="37.353717" lon="126.918383"/><trkpt lat="37.353805" lon="126.918429"/><trkpt lat="37.35415" lon="126.918544"/><trkpt lat="37.354328" lon="126.918579"/><trkpt lat="37.354438" lon="126.918639"/><trkpt lat="37.354715" lon="126.918883"/><trkpt lat="37.355202" lon="126.919344"/><trkpt lat="37.3555" lon="126.919615"/><trkpt lat="37.355769" lon="126.919819"/></trkseg>
<trkseg><trkpt lat="37.352268" lon="126.909696"/><trkpt lat="37.352191" lon="126.909585"/><trkpt lat="37.352204" lon="126.909464"/><trkpt lat="37.352319" lon="126.909385"/><trkpt lat="37.352305" lon="126.909293"/><trkpt lat="37.352195" lon="126.909178"/><trkpt lat="37.352155" lon="126.909072"/><trkpt lat="37.352112" lon="126.908945"/><trkpt lat="37.35208" lon="126.908781"/><trkpt lat="37.352033" lon="126.908676"/><trkpt lat="37.351929" lon="126.908645"/><trkpt lat="37.351812" lon="126.908674"/><trkpt lat="37.351648" lon="126.908693"/><trkpt lat="37.351564" lon="126.908582"/><trkpt lat="37.351593" lon="126.908412"/><trkpt lat="37.351684" lon="126.908287"/><trkpt lat="37.351728" lon="126.908146"/><trkpt lat="37.351729" lon="126.907982"/><trkpt lat="37.351685" lon="126.907793"/><trkpt lat="37.35164" lon="126.907643"/><trkpt lat="37.351582" lon="126.907531"/><trkpt lat="37.351539" lon="126.907357"/><trkpt lat="37.351494" lon="126.907148"/><trkpt lat="37.351465" lon="126.907021"/><trkpt lat="37.351362" lon="126.90691"/><trkpt lat="37.35125" lon="126.906818"/><trkpt lat="37.351231" lon="126.9067"/><trkpt lat="37.351233" lon="126.90655"/><trkpt lat="37.351065" lon="126.90643"/><trkpt lat="37.350862" lon="126.906328"/><trkpt lat="37.350779" lon="126.906218"/><trkpt lat="37.350662" lon="126.906151"/><trkpt lat="37.350554" lon="126.906027"/><trkpt lat="37.35046" lon="126.905934"/><trkpt lat="37.350355" lon="126.905802"/><trkpt lat="37.350205" lon="126.905667"/><trkpt lat="37.350114" lon="126.905578"/><trkpt lat="37.350048" lon="126.905472"/><trkpt lat="37.349948" lon="126.905202"/><trkpt lat="37.349801" lon="126.904969"/><trkpt lat="37.349648" lon="126.904772"/><trkpt lat="37.349589" lon="126.904587"/><trkpt lat="37.349535" lon="126.904377"/><trkpt lat="37.349458" lon="126.904197"/><trkpt lat="37.349363" lon="126.90392"/><trkpt lat="37.349269" lon="126.903798"/><trkpt lat="37.349218" lon="126.903643"/><trkpt lat="37.349099" lon="126.903336"/><trkpt lat="37.349046" lon="126.903123"/><trkpt lat="37.349001" lon="126.902955"/><trkpt lat="37.348993" lon="126.902784"/><trkpt lat="37.349024" lon="126.902628"/><trkpt lat="37.349015" lon="126.902436"/><trkpt lat="37.348991" lon="126.902242"/><trkpt lat="37.348923" lon="126.902036"/><trkpt lat="37.348872" lon="126.901866"/><trkpt lat="37.348786" lon="126.901735"/><trkpt lat="37.348689" lon="126.901657"/><trkpt lat="37.348433" lon="126.901522"/><trkpt lat="37.348336" lon="126.901462"/><trkpt lat="37.348149" lon="126.901338"/><trkpt lat="37.348011" lon="126.90123"/><trkpt lat="37.347694" lon="126.900825"/><trkpt lat="37.347624" lon="126.900507"/><trkpt lat="37.347649" lon="126.900384"/><trkpt lat="37.347688" lon="126.900253"/><trkpt lat="37.347705" lon="126.90009"/></trkseg>
<trkseg><trkpt lat="37.356239" lon="126.918188"/><trkpt lat="37.355592" lon="126.918295"/></trkseg>
<trkseg><trkpt lat="37.352216" lon="126.909806"/><trkpt lat="37.352239" lon="126.909944"/><trkpt lat="37.352202" lon="126.910304"/><trkpt lat="37.352184" lon="126.910441"/><trkpt lat="37.352095" lon="126.91077"/><trkpt lat="37.35203" lon="126.911052"/><trkpt lat="37.351983" lon="126.9113"/><trkpt lat="37.351956" lon="126.911437"/></trkseg>
<trkseg><trkpt lat="37.355592" lon="126.918295"/><trkpt lat="37.355641" lon="126.918457"/><trkpt lat="37.355732" lon="126.918668"/><trkpt lat="37.35575" lon="126.918823"/><trkpt lat="37.355732" lon="126.91909"/><trkpt lat="37.355749" lon="126.919199"/><trkpt lat="37.355848" lon="126.919325"/><trkpt lat="37.355876" lon="126.91933"/></trkseg>
<trkseg><trkpt lat="37.351956" lon="126.911437"/><trkpt lat="37.35192" lon="126.911629"/><trkpt lat="37.35189" lon="126.911827"/><trkpt lat="37.351847" lon="126.912004"/><trkpt lat="37.351831" lon="126.912162"/><trkpt lat="37.351825" lon="126.912409"/><trkpt lat="37.351824" lon="126.91257"/><trkpt lat="37.351821" lon="126.912744"/><trkpt lat="37.351893" lon="126.912951"/><trkpt lat="37.351987" lon="126.913084"/><trkpt lat="37.352157" lon="126.913238"/><trkpt lat="37.352242" lon="126.913358"/><trkpt lat="37.352341" lon="126.913448"/></trkseg>
<trkseg><trkpt lat="37.352341" lon="126.913448"/><trkpt lat="37.351982" lon="126.913841"/><trkpt lat="37.351727" lon="126.914535"/><trkpt lat="37.351263" lon="126.914578"/><trkpt lat="37.350928" lon="126.915072"/><trkpt lat="37.350922" lon="126.915093"/></trkseg>
<trkseg><trkpt lat="37.352341" lon="126.913448"/><trkpt lat="37.352398" lon="126.913535"/><trkpt lat="37.352497" lon="126.913711"/><trkpt lat="37.352624" lon="126.91384"/><trkpt lat="37.352683" lon="126.913965"/><trkpt lat="37.352756" lon="126.91408"/><trkpt lat="37.352868" lon="126.914201"/><trkpt lat="37.352984" lon="126.914345"/><trkpt lat="37.35295" lon="126.914478"/><trkpt lat="37.352877" lon="126.914594"/><trkpt lat="37.35288" lon="126.914719"/><trkpt lat="37.35298" lon="126.914826"/><trkpt lat="37.353026" lon="126.915033"/><trkpt lat="37.353173" lon="126.915156"/><trkpt lat="37.353278" lon="126.91525"/><trkpt lat="37.353444" lon="126.915483"/><trkpt lat="37.353581" lon="126.915616"/><trkpt lat="37.353711" lon="126.91576"/><trkpt lat="37.353768" lon="126.915881"/><trkpt lat="37.353889" lon="126.91603"/></trkseg>
<trkseg><trkpt lat="37.354894" lon="126.917158"/><trkpt lat="37.35501" lon="126.917268"/><trkpt lat="37.355133" lon="126.917371"/><trkpt lat="37.355233" lon="126.91746"/><trkpt lat="37.35529" lon="126.917549"/><trkpt lat="37.355378" lon="126.917698"/><trkpt lat="37.355495" lon="126.917877"/><trkpt lat="37.355483" lon="126.918048"/><trkpt lat="37.355509" lon="126.918174"/><trkpt lat="37.355592" lon="126.918295"/></trkseg>
<trkseg><trkpt lat="37.353889" lon="126.91603"/><trkpt lat="37.354003" lon="126.916103"/><trkpt lat="37.354117" lon="126.91619"/><trkpt lat="37.354196" lon="126.91629"/><trkpt lat="37.354382" lon="126.916558"/><trkpt lat="37.35454" lon="126.916751"/><trkpt lat="37.354654" lon="126.916927"/><trkpt lat="37.354756" lon="126.916999"/><trkpt lat="37.354894" lon="126.917158"/></trkseg>
<trkseg><trkpt lat="37.349112" lon="126.909723"/><trkpt lat="37.349246" lon="126.909686"/><trkpt lat="37.34945" lon="126.909661"/><trkpt lat="37.349661" lon="126.909699"/><trkpt lat="37.349773" lon="126.909689"/><trkpt lat="37.349958" lon="126.909593"/><trkpt lat="37.35005" lon="126.909576"/><trkpt lat="37.350155" lon="126.909594"/><trkpt lat="37.350423" lon="126.909704"/><trkpt lat="37.350631" lon="126.909768"/><trkpt lat="37.350769" lon="126.909806"/><trkpt lat="37.35091" lon="126.909868"/><trkpt lat="37.351004" lon="126.909907"/><trkpt lat="37.351137" lon="126.909919"/><trkpt lat="37.351308" lon="126.909897"/><trkpt lat="37.351528" lon="126.909927"/><trkpt lat="37.351784" lon="126.910013"/><trkpt lat="37.351889" lon="126.910038"/><trkpt lat="37.35197" lon="126.909986"/><trkpt lat="37.352035" lon="126.909901"/><trkpt lat="37.352216" lon="126.909806"/></trkseg>
<trkseg><trkpt lat="37.345354" lon="126.909347"/><trkpt lat="37.345465" lon="126.909398"/><trkpt lat="37.345632" lon="126.909402"/><trkpt lat="37.345772" lon="126.909338"/><trkpt lat="37.345915" lon="126.909201"/><trkpt lat="37.346037" lon="126.909133"/><trkpt lat="37.346136" lon="126.90915"/><trkpt lat="37.3464" lon="126.909152"/><trkpt lat="37.346609" lon="126.909199"/><trkpt lat="37.346938" lon="126.909313"/><trkpt lat="37.347069" lon="126.909323"/><trkpt lat="37.347308" lon="126.909268"/><trkpt lat="37.347468" lon="126.909249"/><trkpt lat="37.34756" lon="126.90929"/><trkpt lat="37.347697" lon="126.909401"/><trkpt lat="37.34797" lon="126.909512"/><trkpt lat="37.348051" lon="126.909566"/></trkseg>
<trkseg><trkpt lat="37.348051" lon="126.909566"/><trkpt lat="37.348231" lon="126.90967"/><trkpt lat="37.34834" lon="126.909699"/></trkseg>
<trkseg><trkpt lat="37.34834" lon="126.909699"/><trkpt lat="37.348438" lon="126.909739"/><trkpt lat="37.348652" lon="126.909751"/><trkpt lat="37.349029" lon="126.909742"/><trkpt lat="37.349112" lon="126.909723"/></trkseg>
<trkseg><trkpt lat="37.351956" lon="126.911437"/><trkpt lat="37.35207" lon="126.911456"/><trkpt lat="37.352195" lon="126.911395"/><trkpt lat="37.352282" lon="126.911287"/><trkpt lat="37.352356" lon="126.911116"/><trkpt lat="37.352395" lon="126.910873"/><trkpt lat="37.352441" lon="126.910733"/><trkpt lat="37.352491" lon="126.910609"/><trkpt lat="37.352558" lon="126.910513"/><trkpt lat="37.35264" lon="126.91044"/><trkpt lat="37.352746" lon="126.910419"/><trkpt lat="37.352918" lon="126.910474"/><trkpt lat="37.353119" lon="126.910506"/><trkpt lat="37.353241" lon="126.910497"/><trkpt lat="37.353334" lon="126.910433"/><trkpt lat="37.353363" lon="126.910259"/><trkpt lat="37.353417" lon="126.910159"/><trkpt lat="37.353528" lon="126.910098"/><trkpt lat="37.353679" lon="126.910105"/><trkpt lat="37.353852" lon="126.91013"/><trkpt lat="37.353982" lon="126.910095"/><trkpt lat="37.35416" lon="126.910017"/><trkpt lat="37.354275" lon="126.91"/><trkpt lat="37.354378" lon="126.910027"/><trkpt lat="37.354489" lon="126.910107"/><trkpt lat="37.354616" lon="126.910249"/><trkpt lat="37.354659" lon="126.910317"/></trkseg>
<trkseg><trkpt lat="37.352216" lon="126.909806"/><trkpt lat="37.352244" lon="126.909728"/><trkpt lat="37.352268" lon="126.909696"/></trkseg>
<trkseg><trkpt lat="37.35485" lon="126.908323"/><trkpt lat="37.354648" lon="126.908548"/></trkseg>
<trkseg><trkpt lat="37.354648" lon="126.908548"/><trkpt lat="37.354499" lon="126.908618"/><trkpt lat="37.354325" lon="126.90866"/><trkpt lat="37.354008" lon="126.90876"/><trkpt lat="37.353668" lon="126.90886"/><trkpt lat="37.353513" lon="126.908888"/><trkpt lat="37.353248" lon="126.908878"/><trkpt lat="37.353104" lon="126.908879"/><trkpt lat="37.353006" lon="126.908933"/><trkpt lat="37.352914" lon="126.909087"/><trkpt lat="37.352818" lon="126.909247"/><trkpt lat="37.352676" lon="126.909424"/><trkpt lat="37.352522" lon="126.909584"/><trkpt lat="37.35243" lon="126.909656"/><trkpt lat="37.352302" lon="126.909679"/><trkpt lat="37.352268" lon="126.909696"/></trkseg>
<trkseg><trkpt lat="37.357718" lon="126.906233"/><trkpt lat="37.358197" lon="126.9062"/></trkseg>
<trkseg><trkpt lat="37.356198" lon="126.907602"/><trkpt lat="37.355903" lon="126.907718"/><trkpt lat="37.355702" lon="126.907839"/><trkpt lat="37.355507" lon="126.908038"/><trkpt lat="37.355269" lon="126.90806"/><trkpt lat="37.355139" lon="126.908126"/><trkpt lat="37.355032" lon="126.908193"/><trkpt lat="37.35485" lon="126.908323"/></trkseg>
<trkseg><trkpt lat="37.357852" lon="126.907038"/><trkpt lat="37.357742" lon="126.90703"/><trkpt lat="37.35752" lon="126.907038"/><trkpt lat="37.357352" lon="126.90707"/><trkpt lat="37.35721" lon="126.907089"/><trkpt lat="37.357024" lon="126.907165"/><trkpt lat="37.356925" lon="126.90723"/><trkpt lat="37.3568" lon="126.907387"/><trkpt lat="37.356678" lon="126.907444"/><trkpt lat="37.356552" lon="126.907466"/><trkpt lat="37.356425" lon="126.907469"/><trkpt lat="37.356352" lon="126.907511"/><trkpt lat="37.356263" lon="126.907569"/><trkpt lat="37.356198" lon="126.907602"/></trkseg>
<trkseg><trkpt lat="37.358197" lon="126.9062"/><trkpt lat="37.358179" lon="126.906327"/><trkpt lat="37.35825" lon="126.906476"/><trkpt lat="37.358302" lon="126.906602"/><trkpt lat="37.358353" lon="126.906695"/></trkseg>
<trkseg><trkpt lat="37.358133" lon="126.907248"/><trkpt lat="37.357989" lon="126.907109"/><trkpt lat="37.357852" lon="126.907038"/></trkseg>
<trkseg><trkpt lat="37.358353" lon="126.906695"/><trkpt lat="37.358373" lon="126.906838"/><trkpt lat="37.358296" lon="126.906953"/><trkpt lat="37.358332" lon="126.907147"/><trkpt lat="37.358269" lon="126.90736"/><trkpt lat="37.358178" lon="126.907371"/><trkpt lat="37.358133" lon="126.907248"/></trkseg>
<trkseg><trkpt lat="37.359322" lon="126.906378"/><trkpt lat="37.359178" lon="126.906183"/><trkpt lat="37.359083" lon="126.906064"/><trkpt lat="37.35903" lon="126.905956"/><trkpt lat="37.358931" lon="126.905981"/><trkpt lat="37.358822" lon="126.906013"/><trkpt lat="37.358628" lon="126.905995"/><trkpt lat="37.358373" lon="126.905978"/><trkpt lat="37.358255" lon="126.906085"/><trkpt lat="37.358197" lon="126.9062"/></trkseg>
<trkseg><trkpt lat="37.350365" lon="126.87351"/><trkpt lat="37.350226" lon="126.874691"/><trkpt lat="37.350112" lon="126.875475"/><trkpt lat="37.350145" lon="126.876197"/><trkpt lat="37.349915" lon="126.876757"/><trkpt lat="37.349926" lon="126.877485"/><trkpt lat="37.350069" lon="126.878122"/><trkpt lat="37.350153" lon="126.878728"/><trkpt lat="37.350341" lon="126.879472"/><trkpt lat="37.350694" lon="126.880022"/><trkpt lat="37.351062" lon="126.880722"/><trkpt lat="37.351373" lon="126.881844"/><trkpt lat="37.351478" lon="126.882741"/><trkpt lat="37.351276" lon="126.884199"/><trkpt lat="37.351541" lon="126.884873"/><trkpt lat="37.351553" lon="126.88568"/><trkpt lat="37.351361" lon="126.88619"/><trkpt lat="37.351345" lon="126.886234"/><trkpt lat="37.351256" lon="126.886438"/><trkpt lat="37.351163" lon="126.886657"/><trkpt lat="37.351132" lon="126.88675"/><trkpt lat="37.351044" lon="126.887051"/><trkpt lat="37.351028" lon="126.887114"/><trkpt lat="37.351021" lon="126.887162"/><trkpt lat="37.351023" lon="126.887209"/><trkpt lat="37.351035" lon="126.887289"/><trkpt lat="37.351063" lon="126.887448"/><trkpt lat="37.351066" lon="126.887495"/><trkpt lat="37.351062" lon="126.887542"/><trkpt lat="37.35105" lon="126.887588"/><trkpt lat="37.35098" lon="126.887803"/><trkpt lat="37.350952" lon="126.887895"/><trkpt lat="37.350941" lon="126.887942"/><trkpt lat="37.350935" lon="126.887991"/><trkpt lat="37.350927" lon="126.888173"/><trkpt lat="37.350921" lon="126.888272"/><trkpt lat="37.350915" lon="126.888321"/><trkpt lat="37.350804" lon="126.888849"/><trkpt lat="37.350781" lon="126.888962"/><trkpt lat="37.350775" lon="126.889011"/><trkpt lat="37.350761" lon="126.889358"/><trkpt lat="37.35076" lon="126.889441"/><trkpt lat="37.350763" lon="126.889491"/><trkpt lat="37.350801" lon="126.889791"/><trkpt lat="37.350899" lon="126.890526"/><trkpt lat="37.350907" lon="126.890592"/><trkpt lat="37.350909" lon="126.890639"/><trkpt lat="37.350898" lon="126.890677"/><trkpt lat="37.350871" lon="126.890706"/><trkpt lat="37.350838" lon="126.89073"/><trkpt lat="37.350636" lon="126.890859"/><trkpt lat="37.35073" lon="126.890998"/><trkpt lat="37.350799" lon="126.89107"/><trkpt lat="37.35083" lon="126.891098"/><trkpt lat="37.350863" lon="126.89112"/><trkpt lat="37.350901" lon="126.89113"/><trkpt lat="37.350966" lon="126.891142"/><trkpt lat="37.351003" lon="126.891156"/><trkpt lat="37.351086" lon="126.891199"/><trkpt lat="37.351121" lon="126.891216"/><trkpt lat="37.351157" lon="126.891225"/><trkpt lat="37.351194" lon="126.891221"/><trkpt lat="37.351231" lon="126.891209"/><trkpt lat="37.351355" lon="126.891157"/><trkpt lat="37.351405" lon="126.891141"/><trkpt lat="37.351441" lon="126.891138"/><trkpt lat="37.351474" lon="126.891146"/><trkpt lat="37.351505" lon="126.891162"/><trkpt lat="37.351535" lon="126.891191"/><trkpt lat="37.351582" lon="126.89125"/><trkpt lat="37.351692" lon="126.891394"/><trkpt lat="37.351722" lon="126.891425"/><trkpt lat="37.351756" lon="126.891447"/><trkpt lat="37.351792" lon="126.89146"/><trkpt lat="37.351919" lon="126.891495"/><trkpt lat="37.35197" lon="126.891513"/><trkpt lat="37.352045" lon="126.891551"/><trkpt lat="37.352305" lon="126.891692"/><trkpt lat="37.352355" lon="126.891715"/><trkpt lat="37.352394" lon="126.891727"/><trkpt lat="37.352433" lon="126.89173"/><trkpt lat="37.352553" lon="126.89173"/><trkpt lat="37.352633" lon="126.891732"/><trkpt lat="37.352672" lon="126.89174"/><trkpt lat="37.352722" lon="126.891759"/><trkpt lat="37.352822" lon="126.891807"/><trkpt lat="37.352857" lon="126.891829"/><trkpt lat="37.352889" lon="126.891857"/><trkpt lat="37.35295" lon="126.891919"/><trkpt lat="37.353069" lon="126.892047"/><trkpt lat="37.353095" lon="126.892081"/><trkpt lat="37.353116" lon="126.892122"/><trkpt lat="37.353138" lon="126.892183"/><trkpt lat="37.35317" lon="126.892275"/><trkpt lat="37.35319" lon="126.892318"/><trkpt lat="37.353236" lon="126.892399"/><trkpt lat="37.353657" lon="126.892958"/><trkpt lat="37.353792" lon="126.893837"/><trkpt lat="37.354083" lon="126.894132"/><trkpt lat="37.354176" lon="126.894154"/><trkpt lat="37.354215" lon="126.894157"/><trkpt lat="37.354269" lon="126.894151"/><trkpt lat="37.35479" lon="126.894064"/><trkpt lat="37.355018" lon="126.894027"/><trkpt lat="37.355058" lon="126.894023"/><trkpt lat="37.355136" lon="126.894024"/><trkpt lat="37.355305" lon="126.894036"/><trkpt lat="37.355344" lon="126.894042"/><trkpt lat="37.355383" lon="126.894054"/><trkpt lat="37.355614" lon="126.894146"/><trkpt lat="37.356363" lon="126.895308"/><trkpt lat="37.3564" lon="126.895378"/><trkpt lat="37.35642" lon="126.895422"/><trkpt lat="37.356442" lon="126.895482"/><trkpt lat="37.356587" lon="126.895925"/><trkpt lat="37.356609" lon="126.895985"/><trkpt lat="37.356628" lon="126.896027"/><trkpt lat="37.356651" lon="126.896064"/><trkpt lat="37.356702" lon="126.896136"/><trkpt lat="37.356738" lon="126.89618"/><trkpt lat="37.35678" lon="126.896221"/><trkpt lat="37.357283" lon="126.896649"/><trkpt lat="37.357506" lon="126.89684"/><trkpt lat="37.35754" lon="126.896866"/><trkpt lat="37.357576" lon="126.896884"/><trkpt lat="37.357615" lon="126.896893"/><trkpt lat="37.357786" lon="126.896911"/><trkpt lat="37.357971" lon="126.896928"/><trkpt lat="37.35801" lon="126.896927"/><trkpt lat="37.358049" lon="126.896917"/><trkpt lat="37.358306" lon="126.896813"/><trkpt lat="37.358692" lon="126.896656"/><trkpt lat="37.358837" lon="126.896578"/><trkpt lat="37.358921" lon="126.896529"/><trkpt lat="37.358953" lon="126.896503"/><trkpt lat="37.358982" lon="126.896469"/><trkpt lat="37.359033" lon="126.896391"/><trkpt lat="37.359236" lon="126.896106"/></trkseg>
<trkseg><trkpt lat="37.358868" lon="126.905198"/><trkpt lat="37.358916" lon="126.905218"/><trkpt lat="37.359" lon="126.905259"/><trkpt lat="37.359034" lon="126.905278"/><trkpt lat="37.359064" lon="126.905304"/><trkpt lat="37.359089" lon="126.905339"/><trkpt lat="37.35911" lon="126.905381"/><trkpt lat="37.359187" lon="126.905555"/><trkpt lat="37.359204" lon="126.9056"/><trkpt lat="37.359217" lon="126.905646"/><trkpt lat="37.359227" lon="126.905712"/><trkpt lat="37.35927" lon="126.906179"/><trkpt lat="37.359281" lon="126.906278"/><trkpt lat="37.359293" lon="126.906324"/><trkpt lat="37.359313" lon="126.906365"/><trkpt lat="37.359322" lon="126.906378"/></trkseg>
<trkseg><trkpt lat="37.359322" lon="126.906378"/><trkpt lat="37.359431" lon="126.906526"/><trkpt lat="37.359592" lon="126.906742"/></trkseg>
<trkseg><trkpt lat="37.359236" lon="126.896106"/><trkpt lat="37.35915" lon="126.896947"/><trkpt lat="37.359144" lon="126.896996"/><trkpt lat="37.359144" lon="126.897044"/><trkpt lat="37.359153" lon="126.897091"/><trkpt lat="37.359174" lon="126.897169"/><trkpt lat="37.359225" lon="126.89734"/></trkseg>
<trkseg><trkpt lat="37.35815" lon="126.900929"/><trkpt lat="37.358149" lon="126.900978"/><trkpt lat="37.358143" lon="126.901025"/><trkpt lat="37.358126" lon="126.901068"/><trkpt lat="37.358103" lon="126.901108"/><trkpt lat="37.357865" lon="126.901491"/><trkpt lat="37.357751" lon="126.901676"/><trkpt lat="37.35773" lon="126.901717"/><trkpt lat="37.357714" lon="126.901762"/><trkpt lat="37.357704" lon="126.90181"/><trkpt lat="37.357653" lon="126.902107"/><trkpt lat="37.357633" lon="126.902204"/><trkpt lat="37.357619" lon="126.902252"/><trkpt lat="37.35756" lon="126.902422"/><trkpt lat="37.357531" lon="126.902515"/><trkpt lat="37.357521" lon="126.902563"/><trkpt lat="37.357518" lon="126.902613"/><trkpt lat="37.357518" lon="126.902884"/><trkpt lat="37.357518" lon="126.90356"/><trkpt lat="37.35752" lon="126.903644"/><trkpt lat="37.357525" lon="126.903694"/><trkpt lat="37.357534" lon="126.903742"/><trkpt lat="37.357682" lon="126.904331"/><trkpt lat="37.357756" lon="126.904635"/><trkpt lat="37.357774" lon="126.904697"/><trkpt lat="37.357793" lon="126.904736"/><trkpt lat="37.357823" lon="126.904766"/><trkpt lat="37.357857" lon="126.90479"/><trkpt lat="37.358052" lon="126.904904"/><trkpt lat="37.358282" lon="126.905039"/><trkpt lat="37.358319" lon="126.905057"/><trkpt lat="37.358358" lon="126.905071"/><trkpt lat="37.35879" lon="126.905176"/><trkpt lat="37.358868" lon="126.905198"/></trkseg>
<trkseg><trkpt lat="37.359225" lon="126.89734"/><trkpt lat="37.359251" lon="126.897433"/><trkpt lat="37.359258" lon="126.897479"/><trkpt lat="37.359254" lon="126.897526"/><trkpt lat="37.359241" lon="126.897572"/><trkpt lat="37.359154" lon="126.8978"/><trkpt lat="37.358988" lon="126.898243"/><trkpt lat="37.358958" lon="126.898318"/><trkpt lat="37.358937" lon="126.898358"/><trkpt lat="37.358909" lon="126.898389"/><trkpt lat="37.358874" lon="126.898412"/><trkpt lat="37.358638" lon="126.898538"/><trkpt lat="37.358539" lon="126.898592"/><trkpt lat="37.358504" lon="126.898617"/><trkpt lat="37.358474" lon="126.898647"/><trkpt lat="37.358418" lon="126.898715"/><trkpt lat="37.358355" lon="126.898798"/><trkpt lat="37.358331" lon="126.898836"/><trkpt lat="37.358313" lon="126.898878"/><trkpt lat="37.358301" lon="126.898923"/><trkpt lat="37.358281" lon="126.899016"/><trkpt lat="37.358274" lon="126.899063"/><trkpt lat="37.35827" lon="126.899112"/><trkpt lat="37.358284" lon="126.899695"/><trkpt lat="37.358283" lon="126.899761"/><trkpt lat="37.358277" lon="126.899809"/><trkpt lat="37.358263" lon="126.899853"/><trkpt lat="37.358224" lon="126.899937"/><trkpt lat="37.358206" lon="126.899981"/><trkpt lat="37.358188" lon="126.900042"/><trkpt lat="37.358152" lon="126.900199"/><trkpt lat="37.358141" lon="126.900263"/><trkpt lat="37.358137" lon="126.900312"/><trkpt lat="37.358145" lon="126.900712"/><trkpt lat="37.35815" lon="126.900929"/></trkseg>
<trkseg><trkpt lat="37.35607" lon="126.91134"/><trkpt lat="37.356234" lon="126.911555"/><trkpt lat="37.35629" lon="126.911641"/></trkseg>
<trkseg><trkpt lat="37.354659" lon="126.910317"/><trkpt lat="37.355226" lon="126.910716"/><trkpt lat="37.35547" lon="126.910879"/><trkpt lat="37.355895" lon="126.91121"/><trkpt lat="37.35607" lon="126.91134"/></trkseg>
<trkseg><trkpt lat="37.354659" lon="126.910317"/><trkpt lat="37.355302" lon="126.911908"/></trkseg>
<trkseg><trkpt lat="37.355302" lon="126.911908"/><trkpt lat="37.35555" lon="126.912553"/><trkpt lat="37.355691" lon="126.912955"/><trkpt lat="37.355862" lon="126.913545"/><trkpt lat="37.356094" lon="126.914489"/><trkpt lat="37.356107" lon="126.914543"/></trkseg>
<trkseg><trkpt lat="37.35629" lon="126.911641"/><trkpt lat="37.356553" lon="126.912078"/><trkpt lat="37.356758" lon="126.912387"/><trkpt lat="37.356859" lon="126.912593"/><trkpt lat="37.356921" lon="126.912777"/><trkpt lat="37.356984" lon="126.912849"/><trkpt lat="37.357071" lon="126.912894"/><trkpt lat="37.357307" lon="126.912959"/><trkpt lat="37.357398" lon="126.913007"/><trkpt lat="37.357469" lon="126.913082"/><trkpt lat="37.357601" lon="126.913311"/><trkpt lat="37.357678" lon="126.913421"/><trkpt lat="37.357802" lon="126.913506"/><trkpt lat="37.357934" lon="126.913552"/><trkpt lat="37.358056" lon="126.913552"/><trkpt lat="37.35816" lon="126.913479"/><trkpt lat="37.358281" lon="126.913356"/><trkpt lat="37.358363" lon="126.913318"/><trkpt lat="37.358494" lon="126.913331"/><trkpt lat="37.358718" lon="126.913428"/><trkpt lat="37.358859" lon="126.913547"/></trkseg>
<trkseg><trkpt lat="37.356439" lon="126.914426"/><trkpt lat="37.356485" lon="126.914525"/><trkpt lat="37.356562" lon="126.914654"/><trkpt lat="37.356575" lon="126.914764"/><trkpt lat="37.356564" lon="126.914983"/><trkpt lat="37.356601" lon="126.915225"/><trkpt lat="37.356605" lon="126.915346"/><trkpt lat="37.356564" lon="126.915555"/><trkpt lat="37.356562" lon="126.915679"/><trkpt lat="37.356587" lon="126.915826"/><trkpt lat="37.356668" lon="126.915866"/><trkpt lat="37.356869" lon="126.915808"/><trkpt lat="37.357051" lon="126.915798"/><trkpt lat="37.357233" lon="126.915819"/><trkpt lat="37.357375" lon="126.915865"/><trkpt lat="37.357672" lon="126.916002"/><trkpt lat="37.357917" lon="126.916165"/><trkpt lat="37.358142" lon="126.916287"/><trkpt lat="37.358291" lon="126.916306"/><trkpt lat="37.358391" lon="126.916292"/></trkseg>
<trkseg><trkpt lat="37.35629" lon="126.911641"/><trkpt lat="37.356137" lon="126.911803"/><trkpt lat="37.35603" lon="126.911957"/><trkpt lat="37.355932" lon="126.912044"/><trkpt lat="37.355965" lon="126.91222"/><trkpt lat="37.356029" lon="126.912455"/><trkpt lat="37.356034" lon="126.912696"/><trkpt lat="37.356045" lon="126.91285"/><trkpt lat="37.35613" lon="126.913122"/><trkpt lat="37.356207" lon="126.913391"/><trkpt lat="37.356242" lon="126.913567"/><trkpt lat="37.356234" lon="126.913762"/><trkpt lat="37.356237" lon="126.913871"/><trkpt lat="37.356328" lon="126.913972"/><trkpt lat="37.356387" lon="126.914086"/><trkpt lat="37.356416" lon="126.914321"/><trkpt lat="37.356439" lon="126.914426"/></trkseg>
<trkseg><trkpt lat="37.356107" lon="126.914543"/><trkpt lat="37.356286" lon="126.915331"/><trkpt lat="37.356416" lon="126.915768"/><trkpt lat="37.356505" lon="126.916313"/></trkseg>
<trkseg><trkpt lat="37.358391" lon="126.916292"/><trkpt lat="37.358878" lon="126.915445"/><trkpt lat="37.359009" lon="126.915241"/><trkpt lat="37.359062" lon="126.915124"/><trkpt lat="37.359117" lon="126.914958"/><trkpt lat="37.359073" lon="126.914798"/><trkpt lat="37.359025" lon="126.914589"/><trkpt lat="37.358921" lon="126.914455"/><trkpt lat="37.358768" lon="126.914315"/><trkpt lat="37.358665" lon="126.914209"/><trkpt lat="37.358609" lon="126.914059"/><trkpt lat="37.358615" lon="126.913849"/><trkpt lat="37.358658" lon="126.913704"/><trkpt lat="37.358766" lon="126.913591"/><trkpt lat="37.358859" lon="126.913547"/></trkseg>
<trkseg><trkpt lat="37.359592" lon="126.906742"/><trkpt lat="37.359455" lon="126.906935"/><trkpt lat="37.359344" lon="126.907018"/><trkpt lat="37.359264" lon="126.90711"/><trkpt lat="37.359211" lon="126.907206"/><trkpt lat="37.359158" lon="126.907412"/><trkpt lat="37.359124" lon="126.907509"/><trkpt lat="37.359011" lon="126.907705"/><trkpt lat="37.358936" lon="126.9079"/><trkpt lat="37.35887" lon="126.90816"/><trkpt lat="37.358845" lon="126.908374"/><trkpt lat="37.3588" lon="126.908509"/><trkpt lat="37.358682" lon="126.908715"/><trkpt lat="37.358705" lon="126.908889"/><trkpt lat="37.358669" lon="126.909028"/><trkpt lat="37.358549" lon="126.909157"/><trkpt lat="37.35848" lon="126.909306"/><trkpt lat="37.358438" lon="126.909486"/><trkpt lat="37.358489" lon="126.909723"/><trkpt lat="37.358493" lon="126.909931"/><trkpt lat="37.358341" lon="126.909914"/><trkpt lat="37.358254" lon="126.909933"/><trkpt lat="37.358175" lon="126.910112"/><trkpt lat="37.358069" lon="126.910273"/><trkpt lat="37.357958" lon="126.910413"/><trkpt lat="37.357719" lon="126.910582"/><trkpt lat="37.357522" lon="126.910618"/><trkpt lat="37.357468" lon="126.910731"/><trkpt lat="37.357465" lon="126.910773"/></trkseg>
<trkseg><trkpt lat="37.357465" lon="126.910773"/><trkpt lat="37.357495" lon="126.911036"/><trkpt lat="37.357431" lon="126.911116"/><trkpt lat="37.357234" lon="126.911217"/><trkpt lat="37.357001" lon="126.911335"/><trkpt lat="37.356789" lon="126.91143"/><trkpt lat="37.356556" lon="126.911462"/><trkpt lat="37.356418" lon="126.911536"/><trkpt lat="37.35629" lon="126.911641"/></trkseg>
<trkseg><trkpt lat="37.36555" lon="126.898755"/><trkpt lat="37.365542" lon="126.89869"/><trkpt lat="37.36554" lon="126.89864"/><trkpt lat="37.365545" lon="126.898542"/><trkpt lat="37.365564" lon="126.898328"/><trkpt lat="37.365565" lon="126.898279"/><trkpt lat="37.365561" lon="126.898229"/><trkpt lat="37.36552" lon="126.897929"/><trkpt lat="37.365505" lon="126.897812"/><trkpt lat="37.365503" lon="126.897745"/><trkpt lat="37.365515" lon="126.897211"/><trkpt lat="37.36552" lon="126.897129"/><trkpt lat="37.365528" lon="126.89708"/><trkpt lat="37.365544" lon="126.897017"/><trkpt lat="37.365664" lon="126.896574"/><trkpt lat="37.365683" lon="126.896512"/><trkpt lat="37.365702" lon="126.896469"/><trkpt lat="37.365731" lon="126.896415"/><trkpt lat="37.365778" lon="126.896336"/><trkpt lat="37.365805" lon="126.896301"/><trkpt lat="37.365836" lon="126.896271"/><trkpt lat="37.365881" lon="126.896237"/><trkpt lat="37.365995" lon="126.896154"/><trkpt lat="37.366026" lon="126.896126"/><trkpt lat="37.366049" lon="126.896091"/><trkpt lat="37.366063" lon="126.896047"/><trkpt lat="37.366095" lon="126.89587"/><trkpt lat="37.366123" lon="126.895709"/><trkpt lat="37.366128" lon="126.895661"/><trkpt lat="37.366125" lon="126.895615"/><trkpt lat="37.366114" lon="126.895572"/><trkpt lat="37.366098" lon="126.89553"/><trkpt lat="37.366079" lon="126.895491"/><trkpt lat="37.366054" lon="126.895457"/><trkpt lat="37.366023" lon="126.89543"/><trkpt lat="37.365966" lon="126.895391"/><trkpt lat="37.36593" lon="126.895371"/><trkpt lat="37.365892" lon="126.895354"/><trkpt lat="37.365736" lon="126.895303"/><trkpt lat="37.365552" lon="126.895245"/><trkpt lat="37.365516" lon="126.895228"/><trkpt lat="37.365487" lon="126.895201"/><trkpt lat="37.365466" lon="126.895167"/><trkpt lat="37.365456" lon="126.895126"/><trkpt lat="37.365461" lon="126.89508"/><trkpt lat="37.365478" lon="126.89501"/><trkpt lat="37.365512" lon="126.894889"/><trkpt lat="37.365512" lon="126.894886"/></trkseg>
<trkseg><trkpt lat="37.364966" lon="126.901661"/><trkpt lat="37.365168" lon="126.901407"/><trkpt lat="37.365182" lon="126.90136"/><trkpt lat="37.365191" lon="126.901311"/><trkpt lat="37.365222" lon="126.901045"/><trkpt lat="37.365284" lon="126.90051"/><trkpt lat="37.365294" lon="126.900444"/><trkpt lat="37.365305" lon="126.900397"/><trkpt lat="37.365323" lon="126.900353"/><trkpt lat="37.365443" lon="126.900093"/><trkpt lat="37.365488" lon="126.899991"/><trkpt lat="37.365504" lon="126.899945"/><trkpt lat="37.365517" lon="126.899897"/><trkpt lat="37.365612" lon="126.899459"/><trkpt lat="37.365624" lon="126.899394"/><trkpt lat="37.36563" lon="126.899345"/><trkpt lat="37.365628" lon="126.899296"/><trkpt lat="37.365617" lon="126.899214"/><trkpt lat="37.36555" lon="126.898755"/></trkseg>
<trkseg><trkpt lat="37.372751" lon="126.904717"/><trkpt lat="37.372651" lon="126.904732"/><trkpt lat="37.37256" lon="126.904729"/><trkpt lat="37.372481" lon="126.904639"/><trkpt lat="37.372418" lon="126.904503"/><trkpt lat="37.372338" lon="126.904504"/></trkseg>
<trkseg><trkpt lat="37.372338" lon="126.904504"/><trkpt lat="37.37218" lon="126.904487"/><trkpt lat="37.371915" lon="126.904312"/><trkpt lat="37.37184" lon="126.904187"/><trkpt lat="37.371778" lon="126.904031"/><trkpt lat="37.371732" lon="126.903847"/><trkpt lat="37.371658" lon="126.903589"/><trkpt lat="37.371593" lon="126.903345"/></trkseg>
<trkseg><trkpt lat="37.36649" lon="126.895122"/><trkpt lat="37.366087" lon="126.89452"/><trkpt lat="37.365873" lon="126.894229"/><trkpt lat="37.365851" lon="126.894103"/></trkseg>
<trkseg><trkpt lat="37.371593" lon="126.903345"/><trkpt lat="37.371685" lon="126.902996"/><trkpt lat="37.371643" lon="126.902414"/><trkpt lat="37.371565" lon="126.902089"/><trkpt lat="37.371593" lon="126.90178"/><trkpt lat="37.371595" lon="126.90146"/><trkpt lat="37.371544" lon="126.901138"/><trkpt lat="37.371408" lon="126.90051"/><trkpt lat="37.371268" lon="126.899719"/><trkpt lat="37.371103" lon="126.89944"/><trkpt lat="37.371018" lon="126.899183"/><trkpt lat="37.37096" lon="126.89894"/><trkpt lat="37.370919" lon="126.8988"/><trkpt lat="37.37084" lon="126.89859"/><trkpt lat="37.370782" lon="126.898454"/><trkpt lat="37.370744" lon="126.898315"/><trkpt lat="37.370671" lon="126.898101"/><trkpt lat="37.370571" lon="126.897896"/><trkpt lat="37.370471" lon="126.897774"/><trkpt lat="37.37027" lon="126.897645"/><trkpt lat="37.370031" lon="126.897437"/><trkpt lat="37.36983" lon="126.89729"/><trkpt lat="37.369677" lon="126.8971"/><trkpt lat="37.369612" lon="126.897002"/><trkpt lat="37.369456" lon="126.896801"/><trkpt lat="37.369313" lon="126.896621"/><trkpt lat="37.369206" lon="126.896551"/><trkpt lat="37.369081" lon="126.896541"/><trkpt lat="37.368946" lon="126.896578"/><trkpt lat="37.368818" lon="126.896702"/><trkpt lat="37.368703" lon="126.896734"/><trkpt lat="37.368591" lon="126.89665"/><trkpt lat="37.36836" lon="126.896547"/><trkpt lat="37.368157" lon="126.896545"/><trkpt lat="37.368039" lon="126.896506"/><trkpt lat="37.367877" lon="126.896331"/><trkpt lat="37.36766" lon="126.896114"/><trkpt lat="37.367443" lon="126.895914"/><trkpt lat="37.367236" lon="126.895816"/><trkpt lat="37.366993" lon="126.895681"/><trkpt lat="37.366833" lon="126.895531"/><trkpt lat="37.366694" lon="126.895396"/><trkpt lat="37.366527" lon="126.895177"/><trkpt lat="37.36649" lon="126.895122"/></trkseg>
<trkseg><trkpt lat="37.365512" lon="126.894886"/><trkpt lat="37.365661" lon="126.894508"/><trkpt lat="37.365701" lon="126.894204"/><trkpt lat="37.365851" lon="126.894103"/></trkseg>
<trkseg><trkpt lat="37.361979" lon="126.895385"/><trkpt lat="37.361969" lon="126.895057"/><trkpt lat="37.361971" lon="126.895008"/><trkpt lat="37.361992" lon="126.894795"/><trkpt lat="37.361997" lon="126.89473"/><trkpt lat="37.361998" lon="126.894681"/><trkpt lat="37.361992" lon="126.894632"/><trkpt lat="37.361974" lon="126.894534"/><trkpt lat="37.361914" lon="126.894241"/><trkpt lat="37.361908" lon="126.894191"/><trkpt lat="37.361906" lon="126.894142"/><trkpt lat="37.361922" lon="126.893824"/><trkpt lat="37.361944" lon="126.893424"/><trkpt lat="37.36195" lon="126.893357"/><trkpt lat="37.361995" lon="126.893076"/><trkpt lat="37.362004" lon="126.893009"/><trkpt lat="37.362007" lon="126.89296"/><trkpt lat="37.361999" lon="126.892914"/><trkpt lat="37.361983" lon="126.892869"/><trkpt lat="37.361962" lon="126.892829"/><trkpt lat="37.361933" lon="126.892797"/><trkpt lat="37.361889" lon="126.892764"/><trkpt lat="37.361738" lon="126.892667"/><trkpt lat="37.361705" lon="126.892643"/><trkpt lat="37.361676" lon="126.892614"/><trkpt lat="37.361654" lon="126.892575"/><trkpt lat="37.361631" lon="126.892516"/><trkpt lat="37.36158" lon="126.892364"/><trkpt lat="37.361568" lon="126.892318"/><trkpt lat="37.361563" lon="126.892271"/><trkpt lat="37.361567" lon="126.892223"/><trkpt lat="37.361577" lon="126.892158"/><trkpt lat="37.361609" lon="126.891979"/><trkpt lat="37.361614" lon="126.89193"/><trkpt lat="37.361613" lon="126.891867"/><trkpt lat="37.361609" lon="126.891758"/><trkpt lat="37.361612" lon="126.891713"/><trkpt lat="37.361626" lon="126.891668"/><trkpt lat="37.361651" lon="126.891609"/><trkpt lat="37.361749" lon="126.891408"/><trkpt lat="37.361767" lon="126.891364"/><trkpt lat="37.361777" lon="126.89132"/><trkpt lat="37.361775" lon="126.891273"/><trkpt lat="37.361766" lon="126.891226"/><trkpt lat="37.361634" lon="126.890716"/><trkpt lat="37.361611" lon="126.89062"/><trkpt lat="37.361604" lon="126.890572"/><trkpt lat="37.361604" lon="126.890522"/><trkpt lat="37.36161" lon="126.890438"/><trkpt lat="37.361671" lon="126.889768"/><trkpt lat="37.361677" lon="126.889684"/><trkpt lat="37.361678" lon="126.889634"/><trkpt lat="37.361674" lon="126.889585"/><trkpt lat="37.361638" lon="126.889356"/><trkpt lat="37.361623" lon="126.889276"/><trkpt lat="37.36161" lon="126.889229"/><trkpt lat="37.361586" lon="126.889171"/><trkpt lat="37.361541" lon="126.889071"/><trkpt lat="37.361525" lon="126.889027"/><trkpt lat="37.361515" lon="126.88898"/><trkpt lat="37.361511" lon="126.888915"/><trkpt lat="37.361503" lon="126.888617"/><trkpt lat="37.361499" lon="126.888552"/><trkpt lat="37.361494" lon="126.888502"/><trkpt lat="37.361357" lon="126.88772"/><trkpt lat="37.361344" lon="126.887638"/><trkpt lat="37.361339" lon="126.887571"/><trkpt lat="37.361327" lon="126.887234"/><trkpt lat="37.361314" lon="126.886796"/><trkpt lat="37.361326" lon="126.886498"/><trkpt lat="37.361337" lon="126.886284"/><trkpt lat="37.361343" lon="126.886235"/><trkpt lat="37.361355" lon="126.88619"/><trkpt lat="37.36138" lon="126.886132"/><trkpt lat="37.361507" lon="126.88586"/><trkpt lat="37.361542" lon="126.88579"/><trkpt lat="37.361566" lon="126.885752"/><trkpt lat="37.361595" lon="126.885718"/><trkpt lat="37.36166" lon="126.885658"/><trkpt lat="37.361946" lon="126.885401"/><trkpt lat="37.361976" lon="126.885369"/><trkpt lat="37.362" lon="126.885331"/><trkpt lat="37.362019" lon="126.885289"/><trkpt lat="37.36213" lon="126.885009"/><trkpt lat="37.362152" lon="126.884949"/><trkpt lat="37.36217" lon="126.884887"/><trkpt lat="37.362336" lon="126.884215"/><trkpt lat="37.362361" lon="126.88412"/><trkpt lat="37.362377" lon="126.884076"/><trkpt lat="37.362401" lon="126.884037"/><trkpt lat="37.362437" lon="126.883988"/><trkpt lat="37.363049" lon="126.883216"/><trkpt lat="37.363094" lon="126.883155"/><trkpt lat="37.363118" lon="126.883116"/><trkpt lat="37.363134" lon="126.883071"/><trkpt lat="37.363154" lon="126.882991"/><trkpt lat="37.36321" lon="126.882747"/><trkpt lat="37.363222" lon="126.882701"/><trkpt lat="37.363239" lon="126.88266"/><trkpt lat="37.363267" lon="126.882635"/><trkpt lat="37.363303" lon="126.882622"/><trkpt lat="37.363487" lon="126.882584"/><trkpt lat="37.363672" lon="126.882545"/><trkpt lat="37.363717" lon="126.882527"/><trkpt lat="37.363758" lon="126.882501"/><trkpt lat="37.363793" lon="126.882475"/></trkseg>
<trkseg><trkpt lat="37.359236" lon="126.896106"/><trkpt lat="37.35932" lon="126.895998"/><trkpt lat="37.359351" lon="126.895964"/><trkpt lat="37.359383" lon="126.895937"/><trkpt lat="37.359419" lon="126.89592"/><trkpt lat="37.35947" lon="126.895906"/><trkpt lat="37.359692" lon="126.895856"/><trkpt lat="37.359743" lon="126.895841"/><trkpt lat="37.359779" lon="126.895824"/><trkpt lat="37.359813" lon="126.895801"/><trkpt lat="37.36001" lon="126.895636"/><trkpt lat="37.360065" lon="126.895593"/><trkpt lat="37.3601" lon="126.895573"/><trkpt lat="37.360138" lon="126.895562"/><trkpt lat="37.360204" lon="126.895554"/><trkpt lat="37.360818" lon="126.895499"/><trkpt lat="37.361111" lon="126.895473"/><trkpt lat="37.361164" lon="126.895472"/><trkpt lat="37.361484" lon="126.895496"/><trkpt lat="37.361564" lon="126.8955"/><trkpt lat="37.361604" lon="126.895498"/><trkpt lat="37.361642" lon="126.895487"/><trkpt lat="37.361835" lon="126.895406"/><trkpt lat="37.361979" lon="126.895385"/></trkseg>
<trkseg><trkpt lat="37.365233" lon="126.894985"/><trkpt lat="37.365407" lon="126.894858"/></trkseg>
<trkseg><trkpt lat="37.361979" lon="126.895385"/><trkpt lat="37.362251" lon="126.895407"/><trkpt lat="37.362303" lon="126.895405"/><trkpt lat="37.362342" lon="126.895409"/><trkpt lat="37.362381" lon="126.89542"/><trkpt lat="37.362549" lon="126.895484"/><trkpt lat="37.362743" lon="126.895559"/><trkpt lat="37.362782" lon="126.895569"/><trkpt lat="37.362819" lon="126.895567"/><trkpt lat="37.362855" lon="126.895552"/><trkpt lat="37.362914" lon="126.895515"/><trkpt lat="37.363233" lon="126.89528"/><trkpt lat="37.363268" lon="126.895261"/><trkpt lat="37.363305" lon="126.895252"/><trkpt lat="37.363342" lon="126.895253"/><trkpt lat="37.363429" lon="126.895266"/><trkpt lat="37.363466" lon="126.895269"/><trkpt lat="37.363503" lon="126.895263"/><trkpt lat="37.363539" lon="126.895251"/><trkpt lat="37.363586" lon="126.895229"/><trkpt lat="37.363621" lon="126.895208"/><trkpt lat="37.363702" lon="126.89515"/><trkpt lat="37.363967" lon="126.894956"/><trkpt lat="37.364002" lon="126.894933"/><trkpt lat="37.364038" lon="126.894917"/><trkpt lat="37.364077" lon="126.894913"/><trkpt lat="37.36413" lon="126.894918"/><trkpt lat="37.364961" lon="126.895027"/><trkpt lat="37.365055" lon="126.895037"/><trkpt lat="37.365094" lon="126.895037"/><trkpt lat="37.365174" lon="126.895029"/><trkpt lat="37.365233" lon="126.894985"/></trkseg>
<trkseg><trkpt lat="37.365407" lon="126.894858"/><trkpt lat="37.365512" lon="126.894886"/></trkseg>
<trkseg><trkpt lat="37.363695" lon="126.889075"/><trkpt lat="37.363655" lon="126.889559"/><trkpt lat="37.363781" lon="126.889956"/><trkpt lat="37.363768" lon="126.890464"/><trkpt lat="37.363632" lon="126.891211"/><trkpt lat="37.363654" lon="126.891533"/><trkpt lat="37.363738" lon="126.891742"/><trkpt lat="37.363752" lon="126.891909"/><trkpt lat="37.363706" lon="126.892053"/><trkpt lat="37.36367" lon="126.892231"/><trkpt lat="37.363687" lon="126.892339"/><trkpt lat="37.363704" lon="126.892378"/><trkpt lat="37.363728" lon="126.892413"/><trkpt lat="37.363756" lon="126.892445"/><trkpt lat="37.363796" lon="126.892484"/><trkpt lat="37.363829" lon="126.89251"/><trkpt lat="37.363902" lon="126.892551"/><trkpt lat="37.364177" lon="126.89269"/><trkpt lat="37.364225" lon="126.892719"/><trkpt lat="37.364294" lon="126.89277"/><trkpt lat="37.365011" lon="126.893356"/><trkpt lat="37.365051" lon="126.894087"/><trkpt lat="37.365061" lon="126.894461"/><trkpt lat="37.365135" lon="126.894547"/><trkpt lat="37.365104" lon="126.894705"/><trkpt lat="37.365174" lon="126.894813"/><trkpt lat="37.365314" lon="126.894875"/><trkpt lat="37.365407" lon="126.894858"/></trkseg>
<trkseg><trkpt lat="37.364432" lon="126.883923"/><trkpt lat="37.36437" lon="126.884281"/><trkpt lat="37.364363" lon="126.884329"/><trkpt lat="37.364359" lon="126.884377"/><trkpt lat="37.364359" lon="126.884542"/><trkpt lat="37.36439" lon="126.884814"/><trkpt lat="37.364388" lon="126.884863"/><trkpt lat="37.36438" lon="126.884911"/><trkpt lat="37.364366" lon="126.884957"/><trkpt lat="37.364178" lon="126.885313"/><trkpt lat="37.36402" lon="126.885706"/><trkpt lat="37.364" lon="126.885767"/><trkpt lat="37.363991" lon="126.885814"/><trkpt lat="37.36399" lon="126.885863"/><trkpt lat="37.364142" lon="126.886242"/><trkpt lat="37.364149" lon="126.886341"/><trkpt lat="37.364149" lon="126.886389"/><trkpt lat="37.364141" lon="126.886437"/><trkpt lat="37.364127" lon="126.886484"/><trkpt lat="37.364022" lon="126.886813"/><trkpt lat="37.363991" lon="126.886906"/><trkpt lat="37.363981" lon="126.886954"/><trkpt lat="37.363974" lon="126.88702"/><trkpt lat="37.363965" lon="126.887425"/><trkpt lat="37.36393" lon="126.888428"/><trkpt lat="37.363915" lon="126.888493"/><trkpt lat="37.363901" lon="126.888539"/><trkpt lat="37.363883" lon="126.888584"/><trkpt lat="37.363706" lon="126.889055"/></trkseg>
</trk>
</gpx>
