<?xml version="1.0" encoding="UTF-8"?>
<gpx version="1.1" creator="letnaturechoose" xmlns="http://www.topografix.com/GPX/1/1">
<metadata><name>청계산 등산로</name></metadata>
<trk><name>청계산</name>
<trkseg><trkpt lat="37.925338" lon="127.38013"/><trkpt lat="37.925312" lon="127.38021"/><trkpt lat="37.925198" lon="127.380587"/><trkpt lat="37.924802" lon="127.380629"/><trkpt lat="37.924611" lon="127.380583"/><trkpt lat="37.924784" lon="127.380322"/><trkpt lat="37.924816" lon="127.380094"/><trkpt lat="37.924664" lon="127.379798"/><trkpt lat="37.924839" lon="127.379706"/><trkpt lat="37.924995" lon="127.379597"/><trkpt lat="37.925132" lon="127.379239"/><trkpt lat="37.9253" lon="127.379189"/><trkpt lat="37.925549" lon="127.37932"/><trkpt lat="37.925621" lon="127.379142"/><trkpt lat="37.925521" lon="127.378933"/><trkpt lat="37.925273" lon="127.378539"/><trkpt lat="37.925308" lon="127.378358"/><trkpt lat="37.925549" lon="127.37823"/><trkpt lat="37.925425" lon="127.377686"/><trkpt lat="37.925316" lon="127.377411"/><trkpt lat="37.925356" lon="127.377214"/></trkseg>
<trkseg><trkpt lat="37.926466" lon="127.382592"/><trkpt lat="37.926479" lon="127.382423"/><trkpt lat="37.926653" lon="127.382081"/><trkpt lat="37.92666" lon="127.381731"/><trkpt lat="37.926726" lon="127.381482"/><trkpt lat="37.92708" lon="127.38129"/><trkpt lat="37.927219" lon="127.381051"/><trkpt lat="37.92747" lon="127.380787"/><trkpt lat="37.927824" lon="127.380367"/><trkpt lat="37.927901" lon="127.379969"/><trkpt lat="37.927477" lon="127.379889"/><trkpt lat="37.927327" lon="127.379555"/><trkpt lat="37.927158" lon="127.37956"/><trkpt lat="37.926946" lon="127.379954"/><trkpt lat="37.926777" lon="127.38019"/><trkpt lat="37.9266" lon="127.379835"/><trkpt lat="37.926499" lon="127.379149"/><trkpt lat="37.926389" lon="127.37869"/><trkpt lat="37.926203" lon="127.378553"/><trkpt lat="37.926043" lon="127.378819"/><trkpt lat="37.925951" lon="127.379183"/><trkpt lat="37.925965" lon="127.379531"/><trkpt lat="37.925961" lon="127.379801"/><trkpt lat="37.92565" lon="127.379934"/><trkpt lat="37.925388" lon="127.379962"/><trkpt lat="37.925331" lon="127.380091"/><trkpt lat="37.925338" lon="127.38013"/></trkseg>
<trkseg><trkpt lat="37.930903" lon="127.385051"/><trkpt lat="37.930948" lon="127.385284"/><trkpt lat="37.931029" lon="127.385381"/><trkpt lat="37.931161" lon="127.385359"/><trkpt lat="37.931341" lon="127.385478"/><trkpt lat="37.931596" lon="127.38567"/><trkpt lat="37.931846" lon="127.385788"/><trkpt lat="37.932093" lon="127.385778"/><trkpt lat="37.932615" lon="127.385471"/><trkpt lat="37.932827" lon="127.385487"/><trkpt lat="37.933154" lon="127.385426"/><trkpt lat="37.933213" lon="127.385617"/><trkpt lat="37.933381" lon="127.385716"/><trkpt lat="37.933561" lon="127.385839"/><trkpt lat="37.933925" lon="127.385987"/><trkpt lat="37.934266" lon="127.386101"/><trkpt lat="37.93488" lon="127.386832"/><trkpt lat="37.935057" lon="127.386905"/><trkpt lat="37.935273" lon="127.386861"/><trkpt lat="37.935364" lon="127.386868"/><trkpt lat="37.935504" lon="127.386879"/><trkpt lat="37.935583" lon="127.38687"/><trkpt lat="37.935748" lon="127.386846"/><trkpt lat="37.935858" lon="127.386799"/><trkpt lat="37.935928" lon="127.386718"/><trkpt lat="37.935982" lon="127.386708"/><trkpt lat="37.936151" lon="127.386699"/><trkpt lat="37.936301" lon="127.386814"/><trkpt lat="37.936563" lon="127.386755"/><trkpt lat="37.936739" lon="127.38652"/><trkpt lat="37.936936" lon="127.386491"/><trkpt lat="37.937082" lon="127.386388"/><trkpt lat="37.93714" lon="127.38625"/><trkpt lat="37.937269" lon="127.386154"/><trkpt lat="37.937367" lon="127.386101"/><trkpt lat="37.937465" lon="127.38613"/><trkpt lat="37.937636" lon="127.386188"/><trkpt lat="37.937671" lon="127.386298"/><trkpt lat="37.937777" lon="127.386309"/><trkpt lat="37.937847" lon="127.386265"/><trkpt lat="37.937942" lon="127.386344"/><trkpt lat="37.938005" lon="127.386453"/><trkpt lat="37.938029" lon="127.386577"/><trkpt lat="37.938083" lon="127.386635"/><trkpt lat="37.938209" lon="127.386704"/><trkpt lat="37.938308" lon="127.38678"/><trkpt lat="37.938368" lon="127.386885"/><trkpt lat="37.938519" lon="127.386755"/><trkpt lat="37.938646" lon="127.386682"/><trkpt lat="37.938757" lon="127.386654"/><trkpt lat="37.938874" lon="127.386675"/><trkpt lat="37.938987" lon="127.386737"/><trkpt lat="37.939148" lon="127.386759"/><trkpt lat="37.939252" lon="127.386642"/><trkpt lat="37.939397" lon="127.386623"/><trkpt lat="37.939551" lon="127.386547"/><trkpt lat="37.93969" lon="127.38652"/><trkpt lat="37.939793" lon="127.386575"/><trkpt lat="37.939976" lon="127.386535"/><trkpt lat="37.940285" lon="127.386476"/><trkpt lat="37.940582" lon="127.386471"/><trkpt lat="37.940776" lon="127.38644"/><trkpt lat="37.940865" lon="127.386397"/><trkpt lat="37.940997" lon="127.386353"/><trkpt lat="37.941131" lon="127.386391"/><trkpt lat="37.941263" lon="127.386351"/><trkpt lat="37.941397" lon="127.386439"/><trkpt lat="37.941405" lon="127.386498"/><trkpt lat="37.941534" lon="127.386512"/><trkpt lat="37.941697" lon="127.386531"/><trkpt lat="37.94186" lon="127.386495"/><trkpt lat="37.942005" lon="127.386369"/><trkpt lat="37.942264" lon="127.386194"/><trkpt lat="37.94238" lon="127.386109"/><trkpt lat="37.942505" lon="127.386079"/><trkpt lat="37.942586" lon="127.386017"/><trkpt lat="37.94274" lon="127.385965"/><trkpt lat="37.94291" lon="127.385838"/><trkpt lat="37.942925" lon="127.385827"/><trkpt lat="37.942976" lon="127.385696"/><trkpt lat="37.94305" lon="127.385514"/><trkpt lat="37.943164" lon="127.385409"/><trkpt lat="37.943275" lon="127.385269"/><trkpt lat="37.943302" lon="127.38521"/></trkseg>
<trkseg><trkpt lat="37.929621" lon="127.368015"/><trkpt lat="37.92967" lon="127.368099"/><trkpt lat="37.929729" lon="127.368165"/><trkpt lat="37.929792" lon="127.36827"/><trkpt lat="37.929846" lon="127.36846"/><trkpt lat="37.929835" lon="127.368568"/><trkpt lat="37.929883" lon="127.368672"/><trkpt lat="37.929963" lon="127.368823"/><trkpt lat="37.930072" lon="127.369075"/><trkpt lat="37.930188" lon="127.369403"/><trkpt lat="37.93026" lon="127.369531"/><trkpt lat="37.930504" lon="127.36971"/><trkpt lat="37.930647" lon="127.369749"/><trkpt lat="37.930778" lon="127.369999"/><trkpt lat="37.930904" lon="127.370079"/><trkpt lat="37.931193" lon="127.37024"/><trkpt lat="37.931489" lon="127.370334"/><trkpt lat="37.93153" lon="127.370375"/><trkpt lat="37.931604" lon="127.370441"/><trkpt lat="37.931708" lon="127.37055"/><trkpt lat="37.931839" lon="127.370797"/><trkpt lat="37.932061" lon="127.370926"/><trkpt lat="37.932185" lon="127.371015"/><trkpt lat="37.932529" lon="127.371184"/><trkpt lat="37.932754" lon="127.371436"/><trkpt lat="37.933001" lon="127.371727"/><trkpt lat="37.933233" lon="127.371873"/><trkpt lat="37.933509" lon="127.371944"/><trkpt lat="37.93367" lon="127.371919"/><trkpt lat="37.933881" lon="127.372068"/><trkpt lat="37.934093" lon="127.372279"/><trkpt lat="37.934309" lon="127.372419"/><trkpt lat="37.934496" lon="127.372528"/><trkpt lat="37.934578" lon="127.37277"/><trkpt lat="37.934792" lon="127.372975"/><trkpt lat="37.935114" lon="127.373056"/><trkpt lat="37.935353" lon="127.373308"/><trkpt lat="37.935646" lon="127.373499"/><trkpt lat="37.935856" lon="127.37366"/><trkpt lat="37.935959" lon="127.373892"/><trkpt lat="37.936125" lon="127.374074"/><trkpt lat="37.936259" lon="127.374218"/><trkpt lat="37.936496" lon="127.374575"/><trkpt lat="37.936705" lon="127.374763"/><trkpt lat="37.936805" lon="127.374866"/><trkpt lat="37.936924" lon="127.374937"/><trkpt lat="37.937021" lon="127.375073"/><trkpt lat="37.937275" lon="127.375432"/><trkpt lat="37.937413" lon="127.375731"/><trkpt lat="37.937523" lon="127.376072"/><trkpt lat="37.937685" lon="127.376274"/><trkpt lat="37.937921" lon="127.376581"/><trkpt lat="37.938191" lon="127.376831"/><trkpt lat="37.938372" lon="127.377043"/><trkpt lat="37.938598" lon="127.377339"/><trkpt lat="37.938667" lon="127.377551"/><trkpt lat="37.938699" lon="127.377821"/><trkpt lat="37.938779" lon="127.378089"/><trkpt lat="37.938781" lon="127.378352"/><trkpt lat="37.938773" lon="127.378577"/><trkpt lat="37.938772" lon="127.378711"/><trkpt lat="37.938755" lon="127.378805"/></trkseg>
<trkseg><trkpt lat="37.925338" lon="127.38013"/><trkpt lat="37.925508" lon="127.380554"/><trkpt lat="37.925368" lon="127.380757"/><trkpt lat="37.925223" lon="127.380923"/><trkpt lat="37.92498" lon="127.38109"/><trkpt lat="37.924793" lon="127.381205"/><trkpt lat="37.924791" lon="127.381532"/><trkpt lat="37.924669" lon="127.381795"/><trkpt lat="37.924423" lon="127.381817"/><trkpt lat="37.924327" lon="127.38198"/><trkpt lat="37.924336" lon="127.382178"/><trkpt lat="37.92406" lon="127.382542"/><trkpt lat="37.92394" lon="127.382992"/><trkpt lat="37.923765" lon="127.383318"/><trkpt lat="37.923548" lon="127.383766"/><trkpt lat="37.923304" lon="127.383797"/><trkpt lat="37.923208" lon="127.383294"/><trkpt lat="37.923057" lon="127.382719"/><trkpt lat="37.922908" lon="127.382567"/><trkpt lat="37.922723" lon="127.382733"/><trkpt lat="37.922622" lon="127.383605"/><trkpt lat="37.922411" lon="127.384271"/><trkpt lat="37.922201" lon="127.384328"/><trkpt lat="37.921942" lon="127.384134"/><trkpt lat="37.921413" lon="127.384362"/><trkpt lat="37.921256" lon="127.384842"/><trkpt lat="37.920916" lon="127.385529"/><trkpt lat="37.921019" lon="127.38573"/><trkpt lat="37.921281" lon="127.385678"/><trkpt lat="37.921622" lon="127.385213"/><trkpt lat="37.921891" lon="127.385062"/><trkpt lat="37.922147" lon="127.385218"/></trkseg>
<trkseg><trkpt lat="37.930903" lon="127.385051"/><trkpt lat="37.930782" lon="127.385176"/><trkpt lat="37.930232" lon="127.385157"/><trkpt lat="37.929621" lon="127.385309"/><trkpt lat="37.929067" lon="127.38516"/><trkpt lat="37.928774" lon="127.384783"/><trkpt lat="37.928363" lon="127.384475"/><trkpt lat="37.928113" lon="127.384417"/><trkpt lat="37.927942" lon="127.384178"/><trkpt lat="37.927857" lon="127.384042"/><trkpt lat="37.927435" lon="127.383914"/><trkpt lat="37.926591" lon="127.38385"/><trkpt lat="37.926218" lon="127.383953"/><trkpt lat="37.925986" lon="127.38405"/><trkpt lat="37.925795" lon="127.383981"/><trkpt lat="37.925252" lon="127.383949"/><trkpt lat="37.924766" lon="127.38422"/><trkpt lat="37.924456" lon="127.384678"/><trkpt lat="37.924114" lon="127.384933"/><trkpt lat="37.923633" lon="127.385223"/><trkpt lat="37.923239" lon="127.385174"/><trkpt lat="37.922744" lon="127.385103"/><trkpt lat="37.922247" lon="127.385199"/><trkpt lat="37.922147" lon="127.385218"/></trkseg>
<trkseg><trkpt lat="37.922147" lon="127.385218"/><trkpt lat="37.921949" lon="127.385385"/><trkpt lat="37.921731" lon="127.386009"/><trkpt lat="37.921434" lon="127.38654"/><trkpt lat="37.920807" lon="127.38677"/><trkpt lat="37.920275" lon="127.386748"/><trkpt lat="37.919836" lon="127.386872"/><trkpt lat="37.919474" lon="127.387231"/><trkpt lat="37.919216" lon="127.387784"/><trkpt lat="37.918921" lon="127.388014"/><trkpt lat="37.918425" lon="127.388068"/><trkpt lat="37.917797" lon="127.388234"/><trkpt lat="37.917465" lon="127.388847"/><trkpt lat="37.918002" lon="127.389106"/></trkseg>
<trkseg><trkpt lat="37.926466" lon="127.382592"/><trkpt lat="37.92651" lon="127.382596"/><trkpt lat="37.926898" lon="127.382501"/><trkpt lat="37.927183" lon="127.382526"/><trkpt lat="37.92757" lon="127.382463"/><trkpt lat="37.928007" lon="127.382798"/><trkpt lat="37.928379" lon="127.382599"/><trkpt lat="37.928625" lon="127.382617"/><trkpt lat="37.928695" lon="127.38326"/><trkpt lat="37.92877" lon="127.383593"/><trkpt lat="37.929085" lon="127.383668"/><trkpt lat="37.929258" lon="127.384019"/><trkpt lat="37.929776" lon="127.384186"/><trkpt lat="37.930345" lon="127.384687"/><trkpt lat="37.930846" lon="127.384928"/><trkpt lat="37.930903" lon="127.385051"/></trkseg>
<trkseg><trkpt lat="37.938755" lon="127.378805"/><trkpt lat="37.938601" lon="127.378777"/><trkpt lat="37.938443" lon="127.378817"/><trkpt lat="37.93829" lon="127.378883"/><trkpt lat="37.938156" lon="127.378996"/><trkpt lat="37.938005" lon="127.379192"/><trkpt lat="37.937916" lon="127.379266"/><trkpt lat="37.937786" lon="127.379297"/><trkpt lat="37.937705" lon="127.379224"/><trkpt lat="37.937641" lon="127.379178"/><trkpt lat="37.937488" lon="127.379297"/><trkpt lat="37.93726" lon="127.379293"/><trkpt lat="37.937161" lon="127.379274"/><trkpt lat="37.936996" lon="127.3794"/><trkpt lat="37.936866" lon="127.379405"/><trkpt lat="37.936785" lon="127.379443"/><trkpt lat="37.936655" lon="127.379448"/><trkpt lat="37.936498" lon="127.379594"/><trkpt lat="37.936433" lon="127.379695"/><trkpt lat="37.93625" lon="127.379845"/><trkpt lat="37.936132" lon="127.379858"/><trkpt lat="37.935887" lon="127.379904"/><trkpt lat="37.935718" lon="127.379859"/><trkpt lat="37.935571" lon="127.379916"/><trkpt lat="37.935435" lon="127.38001"/><trkpt lat="37.935314" lon="127.380077"/><trkpt lat="37.935209" lon="127.380066"/><trkpt lat="37.93497" lon="127.380042"/><trkpt lat="37.934775" lon="127.380152"/><trkpt lat="37.934707" lon="127.380094"/><trkpt lat="37.934623" lon="127.380161"/><trkpt lat="37.934528" lon="127.380156"/><trkpt lat="37.934441" lon="127.380154"/><trkpt lat="37.934339" lon="127.380172"/><trkpt lat="37.934188" lon="127.380263"/><trkpt lat="37.933887" lon="127.380347"/><trkpt lat="37.933816" lon="127.380495"/><trkpt lat="37.933689" lon="127.380597"/><trkpt lat="37.93357" lon="127.380685"/><trkpt lat="37.933533" lon="127.380835"/><trkpt lat="37.933342" lon="127.380956"/><trkpt lat="37.933202" lon="127.380937"/><trkpt lat="37.933003" lon="127.380889"/><trkpt lat="37.932838" lon="127.380881"/><trkpt lat="37.932627" lon="127.380874"/><trkpt lat="37.932577" lon="127.380867"/><trkpt lat="37.932449" lon="127.380837"/><trkpt lat="37.932292" lon="127.380821"/><trkpt lat="37.932052" lon="127.380705"/><trkpt lat="37.931884" lon="127.380652"/><trkpt lat="37.931703" lon="127.38059"/><trkpt lat="37.931434" lon="127.38053"/><trkpt lat="37.931129" lon="127.380446"/><trkpt lat="37.930985" lon="127.380455"/><trkpt lat="37.930851" lon="127.380466"/><trkpt lat="37.930691" lon="127.38048"/><trkpt lat="37.930494" lon="127.380356"/><trkpt lat="37.930289" lon="127.380393"/><trkpt lat="37.930063" lon="127.380486"/><trkpt lat="37.929945" lon="127.380704"/><trkpt lat="37.929747" lon="127.380777"/><trkpt lat="37.929399" lon="127.381015"/><trkpt lat="37.929202" lon="127.381039"/><trkpt lat="37.929094" lon="127.381124"/><trkpt lat="37.928931" lon="127.38119"/><trkpt lat="37.928652" lon="127.381373"/><trkpt lat="37.928483" lon="127.381454"/><trkpt lat="37.92812" lon="127.381608"/><trkpt lat="37.927853" lon="127.381607"/><trkpt lat="37.927742" lon="127.381628"/><trkpt lat="37.927587" lon="127.381672"/><trkpt lat="37.927319" lon="127.381711"/><trkpt lat="37.927229" lon="127.381806"/><trkpt lat="37.927096" lon="127.382022"/><trkpt lat="37.927065" lon="127.382163"/><trkpt lat="37.926878" lon="127.382261"/><trkpt lat="37.926714" lon="127.382387"/><trkpt lat="37.926466" lon="127.382592"/></trkseg>
<trkseg><trkpt lat="37.943407" lon="127.384338"/><trkpt lat="37.943311" lon="127.384224"/><trkpt lat="37.943259" lon="127.384074"/><trkpt lat="37.943255" lon="127.383928"/><trkpt lat="37.943186" lon="127.383628"/><trkpt lat="37.943189" lon="127.383548"/><trkpt lat="37.943099" lon="127.383186"/><trkpt lat="37.943057" lon="127.38284"/><trkpt lat="37.942955" lon="127.382699"/><trkpt lat="37.942857" lon="127.382593"/><trkpt lat="37.942777" lon="127.3826"/><trkpt lat="37.942758" lon="127.382611"/><trkpt lat="37.942621" lon="127.382569"/><trkpt lat="37.9426" lon="127.382553"/><trkpt lat="37.942502" lon="127.382449"/><trkpt lat="37.942169" lon="127.382152"/><trkpt lat="37.941926" lon="127.382119"/><trkpt lat="37.941612" lon="127.38198"/><trkpt lat="37.941475" lon="127.381759"/><trkpt lat="37.941339" lon="127.381559"/><trkpt lat="37.941068" lon="127.381449"/><trkpt lat="37.940816" lon="127.381291"/><trkpt lat="37.94062" lon="127.381184"/><trkpt lat="37.940495" lon="127.38103"/><trkpt lat="37.940336" lon="127.380866"/><trkpt lat="37.940213" lon="127.380709"/><trkpt lat="37.940015" lon="127.380532"/><trkpt lat="37.939885" lon="127.380393"/><trkpt lat="37.939785" lon="127.38009"/><trkpt lat="37.939651" lon="127.37987"/><trkpt lat="37.939479" lon="127.379682"/><trkpt lat="37.939348" lon="127.379569"/><trkpt lat="37.939237" lon="127.379459"/><trkpt lat="37.939107" lon="127.379368"/><trkpt lat="37.939008" lon="127.379227"/><trkpt lat="37.938931" lon="127.379035"/><trkpt lat="37.938805" lon="127.378846"/><trkpt lat="37.938755" lon="127.378805"/></trkseg>
<trkseg><trkpt lat="37.943302" lon="127.38521"/><trkpt lat="37.943262" lon="127.384965"/><trkpt lat="37.943356" lon="127.384516"/><trkpt lat="37.943427" lon="127.384394"/><trkpt lat="37.943407" lon="127.384338"/></trkseg>
<trkseg><trkpt lat="37.944373" lon="127.384437"/><trkpt lat="37.944225" lon="127.384238"/><trkpt lat="37.944164" lon="127.384137"/><trkpt lat="37.944019" lon="127.384087"/><trkpt lat="37.943724" lon="127.384237"/><trkpt lat="37.943502" lon="127.384308"/><trkpt lat="37.943411" lon="127.384334"/><trkpt lat="37.943407" lon="127.384338"/></trkseg>
<trkseg><trkpt lat="37.943302" lon="127.38521"/><trkpt lat="37.94378" lon="127.384307"/><trkpt lat="37.94422" lon="127.384312"/><trkpt lat="37.944373" lon="127.384437"/></trkseg>
<trkseg><trkpt lat="37.944373" lon="127.384437"/><trkpt lat="37.945217" lon="127.384656"/><trkpt lat="37.946049" lon="127.384517"/><trkpt lat="37.946798" lon="127.384879"/><trkpt lat="37.947331" lon="127.384744"/><trkpt lat="37.947697" lon="127.38452"/><trkpt lat="37.948084" lon="127.384185"/><trkpt lat="37.948519" lon="127.383758"/><trkpt lat="37.948752" lon="127.383541"/><trkpt lat="37.948963" lon="127.383385"/><trkpt lat="37.94966" lon="127.383112"/><trkpt lat="37.950537" lon="127.382192"/><trkpt lat="37.950712" lon="127.381243"/><trkpt lat="37.95078" lon="127.380147"/><trkpt lat="37.950692" lon="127.379449"/><trkpt lat="37.951048" lon="127.379038"/><trkpt lat="37.951158" lon="127.378776"/><trkpt lat="37.951362" lon="127.37872"/><trkpt lat="37.951493" lon="127.378666"/><trkpt lat="37.951546" lon="127.378623"/></trkseg>
</trk>
</gpx>
