<?xml version="1.0" encoding="UTF-8"?>
<gpx version="1.1" creator="letnaturechoose" xmlns="http://www.topografix.com/GPX/1/1">
<metadata><name>장산 등산로</name></metadata>
<trk><name>장산</name>
<trkseg><trkpt lat="37.125149" lon="128.888993"/><trkpt lat="37.124654" lon="128.888636"/><trkpt lat="37.124505" lon="128.888149"/><trkpt lat="37.12472" lon="128.887846"/><trkpt lat="37.125085" lon="128.887835"/><trkpt lat="37.125567" lon="128.887687"/><trkpt lat="37.125267" lon="128.888185"/><trkpt lat="37.125708" lon="128.888071"/><trkpt lat="37.126032" lon="128.887911"/><trkpt lat="37.126296" lon="128.88774"/><trkpt lat="37.126563" lon="128.887661"/><trkpt lat="37.12684" lon="128.887666"/><trkpt lat="37.127107" lon="128.887644"/><trkpt lat="37.127297" lon="128.887643"/><trkpt lat="37.127378" lon="128.887377"/><trkpt lat="37.127472" lon="128.887186"/><trkpt lat="37.12762" lon="128.88722"/><trkpt lat="37.127689" lon="128.887472"/><trkpt lat="37.127815" lon="128.887594"/><trkpt lat="37.127904" lon="128.887473"/><trkpt lat="37.127906" lon="128.887225"/><trkpt lat="37.127922" lon="128.886952"/><trkpt lat="37.128008" lon="128.886737"/><trkpt lat="37.128152" lon="128.886441"/><trkpt lat="37.128357" lon="128.886268"/><trkpt lat="37.128634" lon="128.886156"/><trkpt lat="37.128758" lon="128.886017"/><trkpt lat="37.128799" lon="128.885753"/><trkpt lat="37.128865" lon="128.885501"/><trkpt lat="37.129003" lon="128.885306"/><trkpt lat="37.129175" lon="128.885251"/><trkpt lat="37.129353" lon="128.885134"/><trkpt lat="37.129499" lon="128.884903"/><trkpt lat="37.129637" lon="128.884671"/><trkpt lat="37.129809" lon="128.884526"/><trkpt lat="37.129964" lon="128.884462"/><trkpt lat="37.129635" lon="128.884267"/><trkpt lat="37.129387" lon="128.884218"/><trkpt lat="37.129184" lon="128.883694"/><trkpt lat="37.128862" lon="128.883286"/><trkpt lat="37.128801" lon="128.882913"/><trkpt lat="37.12873" lon="128.882586"/><trkpt lat="37.128755" lon="128.882264"/><trkpt lat="37.128718" lon="128.882046"/><trkpt lat="37.12875" lon="128.881841"/><trkpt lat="37.128713" lon="128.881569"/><trkpt lat="37.128612" lon="128.881171"/><trkpt lat="37.128583" lon="128.880879"/><trkpt lat="37.128554" lon="128.880612"/><trkpt lat="37.128435" lon="128.88042"/><trkpt lat="37.128476" lon="128.88011"/><trkpt lat="37.128905" lon="128.879402"/><trkpt lat="37.128883" lon="128.879102"/><trkpt lat="37.128411" lon="128.87863"/><trkpt lat="37.128336" lon="128.878051"/><trkpt lat="37.127939" lon="128.876677"/><trkpt lat="37.127716" lon="128.876503"/><trkpt lat="37.1275" lon="128.876725"/><trkpt lat="37.127314" lon="128.876594"/><trkpt lat="37.127192" lon="128.876038"/><trkpt lat="37.126974" lon="128.875905"/><trkpt lat="37.12633" lon="128.875926"/><trkpt lat="37.126039" lon="128.875783"/><trkpt lat="37.125815" lon="128.875647"/><trkpt lat="37.125725" lon="128.875573"/><trkpt lat="37.125704" lon="128.875369"/><trkpt lat="37.125637" lon="128.875269"/><trkpt lat="37.125666" lon="128.875122"/><trkpt lat="37.125616" lon="128.875027"/><trkpt lat="37.125512" lon="128.874893"/><trkpt lat="37.125445" lon="128.87474"/><trkpt lat="37.125414" lon="128.87455"/><trkpt lat="37.125322" lon="128.874189"/><trkpt lat="37.125258" lon="128.873966"/><trkpt lat="37.125129" lon="128.87366"/><trkpt lat="37.125068" lon="128.873482"/><trkpt lat="37.125099" lon="128.873316"/><trkpt lat="37.125189" lon="128.873065"/><trkpt lat="37.125314" lon="128.872811"/><trkpt lat="37.125363" lon="128.872686"/><trkpt lat="37.125394" lon="128.872406"/><trkpt lat="37.125396" lon="128.872156"/><trkpt lat="37.125387" lon="128.871868"/><trkpt lat="37.125407" lon="128.871429"/><trkpt lat="37.125444" lon="128.87107"/><trkpt lat="37.125486" lon="128.870794"/><trkpt lat="37.125498" lon="128.870624"/><trkpt lat="37.125463" lon="128.870476"/><trkpt lat="37.12538" lon="128.870156"/><trkpt lat="37.125328" lon="128.869901"/><trkpt lat="37.125268" lon="128.869534"/><trkpt lat="37.125233" lon="128.869307"/><trkpt lat="37.125199" lon="128.868946"/><trkpt lat="37.12517" lon="128.86873"/><trkpt lat="37.125119" lon="128.868518"/><trkpt lat="37.125036" lon="128.868249"/><trkpt lat="37.124955" lon="128.867972"/><trkpt lat="37.124925" lon="128.867836"/><trkpt lat="37.124923" lon="128.867652"/><trkpt lat="37.124953" lon="128.867498"/><trkpt lat="37.125057" lon="128.8672"/><trkpt lat="37.125097" lon="128.867014"/><trkpt lat="37.125091" lon="128.866881"/><trkpt lat="37.125018" lon="128.866742"/><trkpt lat="37.124867" lon="128.866603"/><trkpt lat="37.124725" lon="128.866464"/><trkpt lat="37.124599" lon="128.866337"/><trkpt lat="37.124542" lon="128.866239"/><trkpt lat="37.12449" lon="128.866083"/><trkpt lat="37.124425" lon="128.865926"/><trkpt lat="37.124295" lon="128.865666"/><trkpt lat="37.124184" lon="128.865448"/><trkpt lat="37.124156" lon="128.865324"/><trkpt lat="37.124281" lon="128.865177"/><trkpt lat="37.124413" lon="128.865024"/><trkpt lat="37.124461" lon="128.864913"/><trkpt lat="37.124507" lon="128.864701"/><trkpt lat="37.124582" lon="128.86449"/><trkpt lat="37.124675" lon="128.864244"/><trkpt lat="37.124732" lon="128.864004"/><trkpt lat="37.124741" lon="128.863861"/><trkpt lat="37.12472" lon="128.863719"/><trkpt lat="37.124687" lon="128.863583"/><trkpt lat="37.124711" lon="128.863422"/><trkpt lat="37.124756" lon="128.863272"/><trkpt lat="37.124782" lon="128.863118"/><trkpt lat="37.12479" lon="128.862999"/><trkpt lat="37.124849" lon="128.862909"/><trkpt lat="37.124975" lon="128.86278"/><trkpt lat="37.125085" lon="128.862674"/><trkpt lat="37.125167" lon="128.862554"/><trkpt lat="37.125235" lon="128.862398"/><trkpt lat="37.125315" lon="128.862212"/><trkpt lat="37.125354" lon="128.862025"/><trkpt lat="37.125455" lon="128.861886"/><trkpt lat="37.125586" lon="128.861769"/><trkpt lat="37.125713" lon="128.861663"/><trkpt lat="37.12586" lon="128.86152"/><trkpt lat="37.12595" lon="128.86141"/><trkpt lat="37.126053" lon="128.861287"/><trkpt lat="37.126126" lon="128.861115"/><trkpt lat="37.126163" lon="128.860959"/><trkpt lat="37.126185" lon="128.86077"/><trkpt lat="37.126218" lon="128.860598"/><trkpt lat="37.126288" lon="128.860496"/><trkpt lat="37.126329" lon="128.860382"/><trkpt lat="37.126357" lon="128.860247"/><trkpt lat="37.126378" lon="128.860107"/><trkpt lat="37.12637" lon="128.859953"/><trkpt lat="37.126457" lon="128.85989"/><trkpt lat="37.126591" lon="128.859846"/><trkpt lat="37.126826" lon="128.859788"/><trkpt lat="37.127066" lon="128.859733"/><trkpt lat="37.127148" lon="128.859657"/><trkpt lat="37.127235" lon="128.859544"/><trkpt lat="37.127352" lon="128.859446"/><trkpt lat="37.12747" lon="128.859375"/><trkpt lat="37.127575" lon="128.859329"/><trkpt lat="37.127716" lon="128.859232"/><trkpt lat="37.12785" lon="128.859151"/><trkpt lat="37.127983" lon="128.859118"/><trkpt lat="37.128168" lon="128.859011"/><trkpt lat="37.128306" lon="128.858946"/><trkpt lat="37.128486" lon="128.858916"/><trkpt lat="37.128602" lon="128.858814"/><trkpt lat="37.128715" lon="128.858705"/><trkpt lat="37.128845" lon="128.858666"/><trkpt lat="37.12914" lon="128.858599"/><trkpt lat="37.129287" lon="128.858586"/><trkpt lat="37.129338" lon="128.858582"/></trkseg>
<trkseg><trkpt lat="37.129338" lon="128.858582"/><trkpt lat="37.12947" lon="128.858527"/><trkpt lat="37.129564" lon="128.85845"/><trkpt lat="37.129653" lon="128.85831"/><trkpt lat="37.129777" lon="128.858209"/><trkpt lat="37.12995" lon="128.858101"/><trkpt lat="37.130001" lon="128.857988"/><trkpt lat="37.130031" lon="128.857841"/><trkpt lat="37.130053" lon="128.857566"/><trkpt lat="37.130061" lon="128.857339"/><trkpt lat="37.130033" lon="128.857116"/><trkpt lat="37.129995" lon="128.857006"/><trkpt lat="37.129908" lon="128.856881"/><trkpt lat="37.129919" lon="128.856749"/><trkpt lat="37.129917" lon="128.856593"/><trkpt lat="37.129931" lon="128.856467"/><trkpt lat="37.130058" lon="128.85637"/><trkpt lat="37.130161" lon="128.856232"/><trkpt lat="37.130252" lon="128.856108"/><trkpt lat="37.130304" lon="128.855953"/><trkpt lat="37.130399" lon="128.855805"/><trkpt lat="37.130547" lon="128.855759"/><trkpt lat="37.130627" lon="128.8555"/><trkpt lat="37.130667" lon="128.855393"/><trkpt lat="37.130754" lon="128.855214"/><trkpt lat="37.13083" lon="128.855096"/><trkpt lat="37.131017" lon="128.855047"/><trkpt lat="37.131122" lon="128.854975"/><trkpt lat="37.131201" lon="128.854778"/><trkpt lat="37.131238" lon="128.854666"/><trkpt lat="37.131214" lon="128.854529"/><trkpt lat="37.131235" lon="128.854337"/><trkpt lat="37.131281" lon="128.854073"/><trkpt lat="37.1313" lon="128.853747"/><trkpt lat="37.1313" lon="128.853445"/><trkpt lat="37.131303" lon="128.853254"/><trkpt lat="37.1313" lon="128.853122"/><trkpt lat="37.131369" lon="128.852962"/><trkpt lat="37.131392" lon="128.852802"/><trkpt lat="37.131417" lon="128.852595"/><trkpt lat="37.131498" lon="128.852487"/><trkpt lat="37.131495" lon="128.85224"/><trkpt lat="37.131461" lon="128.852056"/><trkpt lat="37.131491" lon="128.851894"/><trkpt lat="37.131523" lon="128.851676"/><trkpt lat="37.131588" lon="128.851439"/><trkpt lat="37.131597" lon="128.851277"/><trkpt lat="37.131576" lon="128.851151"/><trkpt lat="37.131531" lon="128.850992"/><trkpt lat="37.131415" lon="128.850744"/><trkpt lat="37.1313" lon="128.850482"/><trkpt lat="37.131224" lon="128.850339"/><trkpt lat="37.131167" lon="128.850201"/><trkpt lat="37.13112" lon="128.850008"/><trkpt lat="37.13103" lon="128.849956"/><trkpt lat="37.130964" lon="128.849822"/><trkpt lat="37.131004" lon="128.849668"/><trkpt lat="37.131078" lon="128.849462"/><trkpt lat="37.131109" lon="128.849306"/><trkpt lat="37.131065" lon="128.849127"/><trkpt lat="37.130982" lon="128.848999"/><trkpt lat="37.130936" lon="128.848868"/><trkpt lat="37.130955" lon="128.848715"/><trkpt lat="37.131042" lon="128.848625"/><trkpt lat="37.131188" lon="128.848542"/><trkpt lat="37.131299" lon="128.848446"/><trkpt lat="37.131377" lon="128.848284"/><trkpt lat="37.131373" lon="128.848182"/></trkseg>
<trkseg><trkpt lat="37.129338" lon="128.858582"/><trkpt lat="37.129455" lon="128.85859"/><trkpt lat="37.129627" lon="128.858595"/><trkpt lat="37.129817" lon="128.858605"/><trkpt lat="37.130021" lon="128.858654"/><trkpt lat="37.130202" lon="128.85874"/><trkpt lat="37.130345" lon="128.858825"/><trkpt lat="37.130468" lon="128.858841"/><trkpt lat="37.130622" lon="128.858745"/><trkpt lat="37.130716" lon="128.858715"/><trkpt lat="37.13083" lon="128.858757"/><trkpt lat="37.130988" lon="128.858823"/><trkpt lat="37.131172" lon="128.858957"/><trkpt lat="37.131395" lon="128.859099"/><trkpt lat="37.131618" lon="128.859226"/><trkpt lat="37.131818" lon="128.859358"/><trkpt lat="37.131951" lon="128.859482"/><trkpt lat="37.132132" lon="128.859692"/><trkpt lat="37.13223" lon="128.859765"/><trkpt lat="37.132321" lon="128.859789"/><trkpt lat="37.132439" lon="128.859728"/><trkpt lat="37.132603" lon="128.859553"/><trkpt lat="37.132731" lon="128.859446"/><trkpt lat="37.132913" lon="128.85934"/><trkpt lat="37.132981" lon="128.859284"/><trkpt lat="37.13307" lon="128.859179"/><trkpt lat="37.13321" lon="128.859172"/><trkpt lat="37.133447" lon="128.859195"/><trkpt lat="37.133553" lon="128.859172"/><trkpt lat="37.133643" lon="128.858989"/><trkpt lat="37.133768" lon="128.858743"/><trkpt lat="37.133805" lon="128.858591"/><trkpt lat="37.13386" lon="128.858201"/><trkpt lat="37.13392" lon="128.857829"/><trkpt lat="37.133979" lon="128.857598"/><trkpt lat="37.134057" lon="128.857383"/><trkpt lat="37.134167" lon="128.857197"/><trkpt lat="37.134281" lon="128.857031"/><trkpt lat="37.134299" lon="128.856857"/><trkpt lat="37.134313" lon="128.856718"/><trkpt lat="37.134366" lon="128.85658"/><trkpt lat="37.134503" lon="128.85633"/><trkpt lat="37.134633" lon="128.856075"/><trkpt lat="37.134755" lon="128.855828"/><trkpt lat="37.134915" lon="128.855633"/><trkpt lat="37.135071" lon="128.855425"/><trkpt lat="37.135185" lon="128.855294"/><trkpt lat="37.135291" lon="128.855121"/><trkpt lat="37.135398" lon="128.854927"/><trkpt lat="37.135495" lon="128.854803"/><trkpt lat="37.13564" lon="128.854688"/><trkpt lat="37.135738" lon="128.854561"/><trkpt lat="37.135871" lon="128.854383"/><trkpt lat="37.136086" lon="128.854115"/><trkpt lat="37.136272" lon="128.853872"/><trkpt lat="37.136397" lon="128.85375"/><trkpt lat="37.136573" lon="128.853667"/><trkpt lat="37.136743" lon="128.85362"/><trkpt lat="37.136919" lon="128.853593"/><trkpt lat="37.137066" lon="128.853599"/><trkpt lat="37.137168" lon="128.853575"/><trkpt lat="37.137274" lon="128.85346"/><trkpt lat="37.137476" lon="128.853235"/><trkpt lat="37.137584" lon="128.85308"/><trkpt lat="37.137674" lon="128.852881"/><trkpt lat="37.137728" lon="128.852775"/><trkpt lat="37.137812" lon="128.852693"/><trkpt lat="37.137982" lon="128.852602"/><trkpt lat="37.138155" lon="128.852539"/><trkpt lat="37.138304" lon="128.852461"/><trkpt lat="37.138475" lon="128.852281"/><trkpt lat="37.138593" lon="128.852134"/><trkpt lat="37.138713" lon="128.851981"/><trkpt lat="37.138762" lon="128.851898"/><trkpt lat="37.138814" lon="128.851732"/></trkseg>
<trkseg><trkpt lat="37.138814" lon="128.851732"/><trkpt lat="37.138645" lon="128.851839"/><trkpt lat="37.138428" lon="128.852004"/><trkpt lat="37.138207" lon="128.852138"/><trkpt lat="37.138122" lon="128.852004"/><trkpt lat="37.138146" lon="128.851754"/><trkpt lat="37.138168" lon="128.851672"/></trkseg>
<trkseg><trkpt lat="37.138814" lon="128.851732"/><trkpt lat="37.138935" lon="128.851665"/><trkpt lat="37.139196" lon="128.851516"/><trkpt lat="37.139419" lon="128.851388"/><trkpt lat="37.13963" lon="128.851269"/><trkpt lat="37.139779" lon="128.851155"/><trkpt lat="37.139821" lon="128.851046"/><trkpt lat="37.139818" lon="128.85088"/><trkpt lat="37.139843" lon="128.850698"/><trkpt lat="37.139909" lon="128.850576"/><trkpt lat="37.139997" lon="128.850521"/><trkpt lat="37.140125" lon="128.850506"/><trkpt lat="37.140236" lon="128.850566"/><trkpt lat="37.140335" lon="128.850651"/><trkpt lat="37.140456" lon="128.850662"/><trkpt lat="37.140558" lon="128.85062"/><trkpt lat="37.140641" lon="128.850545"/><trkpt lat="37.140715" lon="128.850443"/><trkpt lat="37.140809" lon="128.850288"/><trkpt lat="37.140915" lon="128.850074"/><trkpt lat="37.141021" lon="128.849922"/><trkpt lat="37.141126" lon="128.849793"/><trkpt lat="37.141214" lon="128.849604"/><trkpt lat="37.141258" lon="128.849473"/><trkpt lat="37.141366" lon="128.849261"/><trkpt lat="37.141465" lon="128.849145"/><trkpt lat="37.141568" lon="128.849029"/><trkpt lat="37.141667" lon="128.848902"/><trkpt lat="37.141739" lon="128.848732"/><trkpt lat="37.141831" lon="128.848601"/><trkpt lat="37.141974" lon="128.848468"/><trkpt lat="37.142154" lon="128.848315"/><trkpt lat="37.142339" lon="128.848146"/><trkpt lat="37.142529" lon="128.847963"/><trkpt lat="37.142638" lon="128.847848"/><trkpt lat="37.142768" lon="128.847692"/><trkpt lat="37.14282" lon="128.84751"/><trkpt lat="37.142913" lon="128.84736"/><trkpt lat="37.14301" lon="128.847215"/><trkpt lat="37.143153" lon="128.847048"/><trkpt lat="37.143283" lon="128.846959"/><trkpt lat="37.143384" lon="128.846914"/><trkpt lat="37.143659" lon="128.846862"/><trkpt lat="37.143831" lon="128.846819"/><trkpt lat="37.143969" lon="128.846765"/><trkpt lat="37.144045" lon="128.846684"/><trkpt lat="37.144072" lon="128.846562"/><trkpt lat="37.144085" lon="128.8464"/><trkpt lat="37.144125" lon="128.84623"/><trkpt lat="37.144179" lon="128.846074"/><trkpt lat="37.144217" lon="128.845941"/><trkpt lat="37.144268" lon="128.845823"/><trkpt lat="37.14431" lon="128.84572"/><trkpt lat="37.144273" lon="128.845598"/><trkpt lat="37.144169" lon="128.845552"/><trkpt lat="37.144081" lon="128.845514"/><trkpt lat="37.14399" lon="128.845481"/><trkpt lat="37.143883" lon="128.84545"/><trkpt lat="37.143797" lon="128.845417"/><trkpt lat="37.143684" lon="128.845339"/><trkpt lat="37.143684" lon="128.845233"/><trkpt lat="37.143795" lon="128.845148"/></trkseg>
</trk>
</gpx>
