<?xml version="1.0" encoding="UTF-8"?>
<gpx version="1.1" creator="letnaturechoose" xmlns="http://www.topografix.com/GPX/1/1">
<metadata><name>성흥산 등산로</name></metadata>
<trk><name>성흥산</name>
<trkseg><trkpt lat="36.194569" lon="126.896608"/><trkpt lat="36.194533" lon="126.896918"/><trkpt lat="36.194287" lon="126.897325"/><trkpt lat="36.194192" lon="126.897432"/><trkpt lat="36.194067" lon="126.897624"/><trkpt lat="36.193681" lon="126.897504"/><trkpt lat="36.193386" lon="126.897611"/><trkpt lat="36.193258" lon="126.897813"/><trkpt lat="36.193253" lon="126.897969"/><trkpt lat="36.193234" lon="126.898089"/><trkpt lat="36.193237" lon="126.898345"/><trkpt lat="36.193052" lon="126.898525"/><trkpt lat="36.192966" lon="126.898588"/></trkseg>
<trkseg><trkpt lat="36.190513" lon="126.896612"/><trkpt lat="36.190215" lon="126.896883"/><trkpt lat="36.19009" lon="126.897154"/><trkpt lat="36.189672" lon="126.897591"/><trkpt lat="36.189505" lon="126.898017"/><trkpt lat="36.189393" lon="126.898421"/><trkpt lat="36.189407" lon="126.898707"/><trkpt lat="36.189318" lon="126.898847"/><trkpt lat="36.189059" lon="126.899155"/><trkpt lat="36.188922" lon="126.899382"/><trkpt lat="36.188864" lon="126.899901"/><trkpt lat="36.189084" lon="126.900195"/><trkpt lat="36.189242" lon="126.900141"/></trkseg>
<trkseg><trkpt lat="36.195147" lon="126.89953"/><trkpt lat="36.195329" lon="126.899746"/><trkpt lat="36.195445" lon="126.899863"/><trkpt lat="36.195511" lon="126.9"/><trkpt lat="36.195628" lon="126.90021"/><trkpt lat="36.195703" lon="126.900398"/><trkpt lat="36.19582" lon="126.900314"/><trkpt lat="36.195948" lon="126.900238"/><trkpt lat="36.196105" lon="126.900136"/><trkpt lat="36.196321" lon="126.899901"/><trkpt lat="36.196527" lon="126.899617"/><trkpt lat="36.196719" lon="126.899288"/><trkpt lat="36.196887" lon="126.898748"/><trkpt lat="36.197122" lon="126.898686"/><trkpt lat="36.197358" lon="126.898581"/><trkpt lat="36.197471" lon="126.898363"/><trkpt lat="36.197614" lon="126.898079"/><trkpt lat="36.197787" lon="126.897843"/><trkpt lat="36.197831" lon="126.897342"/><trkpt lat="36.197951" lon="126.896971"/><trkpt lat="36.198023" lon="126.89678"/><trkpt lat="36.198124" lon="126.896699"/><trkpt lat="36.198173" lon="126.896698"/></trkseg>
<trkseg><trkpt lat="36.195027" lon="126.897333"/><trkpt lat="36.195157" lon="126.897485"/><trkpt lat="36.195312" lon="126.897583"/><trkpt lat="36.195449" lon="126.897732"/><trkpt lat="36.195488" lon="126.897966"/><trkpt lat="36.195425" lon="126.898272"/><trkpt lat="36.195554" lon="126.898378"/><trkpt lat="36.19555" lon="126.898544"/><trkpt lat="36.195517" lon="126.898974"/><trkpt lat="36.195472" lon="126.899354"/><trkpt lat="36.195193" lon="126.899475"/><trkpt lat="36.195147" lon="126.89953"/></trkseg>
<trkseg><trkpt lat="36.198087" lon="126.901188"/><trkpt lat="36.198186" lon="126.901166"/><trkpt lat="36.19849" lon="126.901069"/><trkpt lat="36.198746" lon="126.900894"/><trkpt lat="36.198789" lon="126.900741"/><trkpt lat="36.198769" lon="126.900574"/><trkpt lat="36.198866" lon="126.900338"/><trkpt lat="36.199101" lon="126.900149"/><trkpt lat="36.199185" lon="126.899771"/><trkpt lat="36.199476" lon="126.899555"/><trkpt lat="36.199581" lon="126.89942"/><trkpt lat="36.199557" lon="126.89913"/><trkpt lat="36.199595" lon="126.898866"/><trkpt lat="36.199713" lon="126.898743"/><trkpt lat="36.199729" lon="126.898493"/><trkpt lat="36.199762" lon="126.898323"/><trkpt lat="36.199715" lon="126.898061"/><trkpt lat="36.199545" lon="126.897907"/><trkpt lat="36.199272" lon="126.8977"/><trkpt lat="36.199152" lon="126.897301"/><trkpt lat="36.199131" lon="126.897129"/><trkpt lat="36.199104" lon="126.89694"/><trkpt lat="36.198874" lon="126.896801"/><trkpt lat="36.19869" lon="126.896722"/></trkseg>
<trkseg><trkpt lat="36.19869" lon="126.896722"/><trkpt lat="36.198598" lon="126.896905"/><trkpt lat="36.198592" lon="126.897276"/><trkpt lat="36.19866" lon="126.897853"/><trkpt lat="36.198592" lon="126.898194"/><trkpt lat="36.198624" lon="126.898439"/><trkpt lat="36.198527" lon="126.89867"/><trkpt lat="36.198398" lon="126.898959"/><trkpt lat="36.198274" lon="126.899155"/><trkpt lat="36.197973" lon="126.89932"/><trkpt lat="36.19769" lon="126.899542"/><trkpt lat="36.197508" lon="126.899865"/><trkpt lat="36.197159" lon="126.900055"/></trkseg>
<trkseg><trkpt lat="36.194738" lon="126.896678"/><trkpt lat="36.194569" lon="126.896608"/></trkseg>
<trkseg><trkpt lat="36.195027" lon="126.897333"/><trkpt lat="36.194959" lon="126.897184"/><trkpt lat="36.194761" lon="126.897004"/><trkpt lat="36.19473" lon="126.896804"/><trkpt lat="36.194738" lon="126.896678"/></trkseg>
<trkseg><trkpt lat="36.195663" lon="126.897057"/><trkpt lat="36.195316" lon="126.897202"/><trkpt lat="36.195184" lon="126.897182"/><trkpt lat="36.195027" lon="126.897333"/></trkseg>
<trkseg><trkpt lat="36.196796" lon="126.896053"/><trkpt lat="36.196599" lon="126.896183"/><trkpt lat="36.196415" lon="126.896216"/><trkpt lat="36.196336" lon="126.896346"/><trkpt lat="36.196329" lon="126.896579"/><trkpt lat="36.196207" lon="126.896647"/><trkpt lat="36.196124" lon="126.896659"/><trkpt lat="36.195938" lon="126.896803"/><trkpt lat="36.195877" lon="126.896906"/><trkpt lat="36.195663" lon="126.897057"/></trkseg>
<trkseg><trkpt lat="36.195663" lon="126.897057"/><trkpt lat="36.195457" lon="126.896741"/><trkpt lat="36.195151" lon="126.896646"/><trkpt lat="36.194919" lon="126.896569"/><trkpt lat="36.1948" lon="126.896537"/><trkpt lat="36.194756" lon="126.89656"/></trkseg>
<trkseg><trkpt lat="36.190993" lon="126.894109"/><trkpt lat="36.190857" lon="126.894314"/><trkpt lat="36.19049" lon="126.894592"/><trkpt lat="36.190281" lon="126.894831"/><trkpt lat="36.190157" lon="126.895138"/><trkpt lat="36.190407" lon="126.895457"/><trkpt lat="36.190539" lon="126.89654"/><trkpt lat="36.190513" lon="126.896612"/></trkseg>
<trkseg><trkpt lat="36.192233" lon="126.894747"/><trkpt lat="36.192068" lon="126.894504"/><trkpt lat="36.191728" lon="126.894466"/><trkpt lat="36.191361" lon="126.894439"/><trkpt lat="36.191234" lon="126.894142"/><trkpt lat="36.190993" lon="126.894109"/></trkseg>
<trkseg><trkpt lat="36.192456" lon="126.89426"/><trkpt lat="36.192474" lon="126.894418"/><trkpt lat="36.192421" lon="126.894614"/><trkpt lat="36.192233" lon="126.894747"/></trkseg>
<trkseg><trkpt lat="36.194629" lon="126.894769"/><trkpt lat="36.194433" lon="126.894638"/><trkpt lat="36.193993" lon="126.89462"/><trkpt lat="36.193553" lon="126.894516"/><trkpt lat="36.193082" lon="126.894367"/><trkpt lat="36.192856" lon="126.894246"/><trkpt lat="36.192717" lon="126.894254"/><trkpt lat="36.19262" lon="126.894279"/><trkpt lat="36.192514" lon="126.89426"/><trkpt lat="36.192456" lon="126.89426"/></trkseg>
<trkseg><trkpt lat="36.196796" lon="126.896053"/><trkpt lat="36.196652" lon="126.895893"/><trkpt lat="36.196466" lon="126.895442"/><trkpt lat="36.196253" lon="126.895144"/><trkpt lat="36.196084" lon="126.894944"/><trkpt lat="36.196" lon="126.894784"/><trkpt lat="36.195921" lon="126.894531"/><trkpt lat="36.195692" lon="126.894518"/><trkpt lat="36.195468" lon="126.894429"/><trkpt lat="36.195322" lon="126.894316"/><trkpt lat="36.195186" lon="126.894292"/><trkpt lat="36.194885" lon="126.894183"/><trkpt lat="36.194733" lon="126.894102"/><trkpt lat="36.194638" lon="126.894225"/><trkpt lat="36.194623" lon="126.894395"/><trkpt lat="36.194645" lon="126.894678"/><trkpt lat="36.194629" lon="126.894769"/></trkseg>
<trkseg><trkpt lat="36.198173" lon="126.896698"/><trkpt lat="36.197978" lon="126.896643"/><trkpt lat="36.197752" lon="126.896595"/><trkpt lat="36.19757" lon="126.896577"/><trkpt lat="36.197254" lon="126.896409"/><trkpt lat="36.197042" lon="126.896239"/><trkpt lat="36.196796" lon="126.896053"/></trkseg>
<trkseg><trkpt lat="36.194652" lon="126.897279"/><trkpt lat="36.19499" lon="126.897382"/><trkpt lat="36.195027" lon="126.897333"/></trkseg>
<trkseg><trkpt lat="36.198173" lon="126.896698"/><trkpt lat="36.198377" lon="126.896614"/><trkpt lat="36.198577" lon="126.896618"/><trkpt lat="36.19869" lon="126.896722"/></trkseg>
<trkseg><trkpt lat="36.190513" lon="126.896612"/><trkpt lat="36.190635" lon="126.896863"/><trkpt lat="36.190785" lon="126.897109"/><trkpt lat="36.190961" lon="126.897046"/><trkpt lat="36.191082" lon="126.896683"/><trkpt lat="36.191322" lon="126.896417"/><trkpt lat="36.191424" lon="126.896151"/><trkpt lat="36.191593" lon="126.895866"/></trkseg>
<trkseg><trkpt lat="36.190006" lon="126.892223"/><trkpt lat="36.189965" lon="126.892347"/><trkpt lat="36.190969" lon="126.894075"/><trkpt lat="36.190993" lon="126.894109"/></trkseg>
<trkseg><trkpt lat="36.194756" lon="126.89656"/><trkpt lat="36.194834" lon="126.896189"/><trkpt lat="36.194809" lon="126.895978"/><trkpt lat="36.194637" lon="126.895847"/><trkpt lat="36.194567" lon="126.895552"/><trkpt lat="36.19483" lon="126.895396"/><trkpt lat="36.194724" lon="126.894878"/><trkpt lat="36.194639" lon="126.894772"/><trkpt lat="36.194629" lon="126.894769"/></trkseg>
<trkseg><trkpt lat="36.194738" lon="126.896678"/><trkpt lat="36.194756" lon="126.89656"/></trkseg>
<trkseg><trkpt lat="36.20201" lon="126.889973"/><trkpt lat="36.202283" lon="126.890117"/><trkpt lat="36.202547" lon="126.890183"/><trkpt lat="36.202664" lon="126.890365"/><trkpt lat="36.202838" lon="126.890411"/><trkpt lat="36.202947" lon="126.89043"/><trkpt lat="36.203231" lon="126.890588"/><trkpt lat="36.203323" lon="126.890802"/><trkpt lat="36.203409" lon="126.891025"/><trkpt lat="36.203334" lon="126.891508"/><trkpt lat="36.203439" lon="126.891678"/><trkpt lat="36.203595" lon="126.891736"/><trkpt lat="36.2038" lon="126.891998"/><trkpt lat="36.203896" lon="126.892193"/><trkpt lat="36.204129" lon="126.89237"/><trkpt lat="36.204459" lon="126.892481"/><trkpt lat="36.204601" lon="126.892806"/><trkpt lat="36.204522" lon="126.893021"/><trkpt lat="36.20433" lon="126.893059"/><trkpt lat="36.204242" lon="126.893349"/><trkpt lat="36.203915" lon="126.893531"/><trkpt lat="36.203787" lon="126.893605"/><trkpt lat="36.203618" lon="126.893875"/><trkpt lat="36.203239" lon="126.894071"/><trkpt lat="36.202929" lon="126.894185"/><trkpt lat="36.202718" lon="126.89426"/><trkpt lat="36.202299" lon="126.89414"/><trkpt lat="36.202222" lon="126.894036"/><trkpt lat="36.20212" lon="126.893882"/><trkpt lat="36.20193" lon="126.893893"/><trkpt lat="36.201479" lon="126.894058"/><trkpt lat="36.201191" lon="126.89409"/><trkpt lat="36.201008" lon="126.894086"/><trkpt lat="36.200823" lon="126.894117"/><trkpt lat="36.200608" lon="126.894212"/><trkpt lat="36.200406" lon="126.894308"/><trkpt lat="36.200282" lon="126.894401"/><trkpt lat="36.200214" lon="126.89449"/><trkpt lat="36.20009" lon="126.894663"/><trkpt lat="36.199964" lon="126.894879"/><trkpt lat="36.199849" lon="126.895161"/><trkpt lat="36.199765" lon="126.895379"/><trkpt lat="36.199635" lon="126.895576"/><trkpt lat="36.199384" lon="126.895694"/><trkpt lat="36.199181" lon="126.895806"/><trkpt lat="36.198933" lon="126.896049"/><trkpt lat="36.198787" lon="126.896321"/><trkpt lat="36.198634" lon="126.896545"/><trkpt lat="36.19869" lon="126.896722"/></trkseg>
<trkseg><trkpt lat="36.191589" lon="126.891124"/><trkpt lat="36.191694" lon="126.891284"/><trkpt lat="36.192236" lon="126.891609"/><trkpt lat="36.192581" lon="126.891767"/><trkpt lat="36.19281" lon="126.892034"/><trkpt lat="36.193066" lon="126.892304"/><trkpt lat="36.193398" lon="126.892299"/><trkpt lat="36.193753" lon="126.892292"/><trkpt lat="36.194064" lon="126.892309"/><trkpt lat="36.194178" lon="126.892471"/><trkpt lat="36.194228" lon="126.892635"/><trkpt lat="36.194405" lon="126.892863"/><trkpt lat="36.194679" lon="126.89303"/><trkpt lat="36.194773" lon="126.893337"/><trkpt lat="36.194752" lon="126.893675"/><trkpt lat="36.19479" lon="126.893877"/><trkpt lat="36.194666" lon="126.89401"/><trkpt lat="36.194429" lon="126.893976"/><trkpt lat="36.194197" lon="126.893844"/><trkpt lat="36.193755" lon="126.893683"/><trkpt lat="36.193564" lon="126.89363"/><trkpt lat="36.193223" lon="126.893539"/><trkpt lat="36.193025" lon="126.893718"/><trkpt lat="36.19283" lon="126.893816"/><trkpt lat="36.192517" lon="126.893649"/><trkpt lat="36.192406" lon="126.893685"/><trkpt lat="36.192373" lon="126.89381"/><trkpt lat="36.192277" lon="126.893846"/><trkpt lat="36.192234" lon="126.89393"/><trkpt lat="36.19244" lon="126.894142"/><trkpt lat="36.192456" lon="126.89426"/></trkseg>
<trkseg><trkpt lat="36.194569" lon="126.896608"/><trkpt lat="36.194494" lon="126.896539"/><trkpt lat="36.194235" lon="126.896398"/><trkpt lat="36.194065" lon="126.89605"/><trkpt lat="36.193643" lon="126.895943"/><trkpt lat="36.193247" lon="126.896003"/><trkpt lat="36.193041" lon="126.895874"/><trkpt lat="36.192808" lon="126.895908"/><trkpt lat="36.192504" lon="126.895931"/><trkpt lat="36.192108" lon="126.896081"/><trkpt lat="36.191848" lon="126.89603"/><trkpt lat="36.192021" lon="126.895727"/><trkpt lat="36.192021" lon="126.895363"/><trkpt lat="36.192218" lon="126.89507"/><trkpt lat="36.192262" lon="126.894893"/><trkpt lat="36.192233" lon="126.894747"/></trkseg>
<trkseg><trkpt lat="36.194644" lon="126.90206"/><trkpt lat="36.194561" lon="126.902316"/><trkpt lat="36.194528" lon="126.902553"/><trkpt lat="36.194559" lon="126.90289"/><trkpt lat="36.194596" lon="126.903127"/><trkpt lat="36.19458" lon="126.903343"/><trkpt lat="36.194509" lon="126.903697"/><trkpt lat="36.194529" lon="126.904024"/><trkpt lat="36.194494" lon="126.904306"/><trkpt lat="36.194327" lon="126.904527"/><trkpt lat="36.194239" lon="126.904803"/><trkpt lat="36.194209" lon="126.905103"/><trkpt lat="36.194091" lon="126.905378"/><trkpt lat="36.193979" lon="126.905992"/><trkpt lat="36.194049" lon="126.90644"/><trkpt lat="36.194098" lon="126.906947"/><trkpt lat="36.194189" lon="126.907171"/><trkpt lat="36.194318" lon="126.90741"/><trkpt lat="36.194552" lon="126.907791"/><trkpt lat="36.194604" lon="126.90792"/><trkpt lat="36.194741" lon="126.908324"/><trkpt lat="36.19474" lon="126.908628"/><trkpt lat="36.19468" lon="126.908984"/><trkpt lat="36.194523" lon="126.909446"/><trkpt lat="36.194485" lon="126.909644"/><trkpt lat="36.194399" lon="126.910049"/><trkpt lat="36.194388" lon="126.910381"/><trkpt lat="36.194469" lon="126.910624"/><trkpt lat="36.194516" lon="126.911022"/><trkpt lat="36.194719" lon="126.911366"/><trkpt lat="36.194804" lon="126.911589"/><trkpt lat="36.194861" lon="126.911785"/><trkpt lat="36.194957" lon="126.912081"/><trkpt lat="36.19504" lon="126.912424"/><trkpt lat="36.195062" lon="126.912645"/><trkpt lat="36.195173" lon="126.912937"/><trkpt lat="36.195222" lon="126.913098"/><trkpt lat="36.195342" lon="126.913423"/><trkpt lat="36.195293" lon="126.913539"/><trkpt lat="36.195097" lon="126.913755"/><trkpt lat="36.19526" lon="126.914081"/><trkpt lat="36.195455" lon="126.914524"/><trkpt lat="36.195552" lon="126.914805"/><trkpt lat="36.19558" lon="126.915229"/><trkpt lat="36.195597" lon="126.915388"/><trkpt lat="36.195848" lon="126.915462"/><trkpt lat="36.195933" lon="126.91562"/><trkpt lat="36.196034" lon="126.915789"/><trkpt lat="36.195833" lon="126.915991"/><trkpt lat="36.195564" lon="126.916208"/><trkpt lat="36.195343" lon="126.916292"/><trkpt lat="36.195258" lon="126.916657"/><trkpt lat="36.195395" lon="126.917266"/><trkpt lat="36.195456" lon="126.917779"/><trkpt lat="36.195413" lon="126.918029"/><trkpt lat="36.195712" lon="126.918661"/><trkpt lat="36.19585" lon="126.919244"/><trkpt lat="36.195743" lon="126.919832"/><trkpt lat="36.195634" lon="126.920387"/><trkpt lat="36.195483" lon="126.920972"/><trkpt lat="36.1953" lon="126.921582"/><trkpt lat="36.195437" lon="126.921794"/><trkpt lat="36.195704" lon="126.92189"/><trkpt lat="36.195779" lon="126.9219"/><trkpt lat="36.196037" lon="126.921845"/><trkpt lat="36.19647" lon="126.921864"/><trkpt lat="36.196662" lon="126.921927"/><trkpt lat="36.196953" lon="126.922143"/><trkpt lat="36.197412" lon="126.922441"/><trkpt lat="36.197526" lon="126.922821"/><trkpt lat="36.19752" lon="126.92291"/></trkseg>
<trkseg><trkpt lat="36.198087" lon="126.901188"/><trkpt lat="36.198005" lon="126.901553"/><trkpt lat="36.19806" lon="126.901822"/><trkpt lat="36.19806" lon="126.902064"/><trkpt lat="36.198048" lon="126.90231"/><trkpt lat="36.197897" lon="126.902509"/><trkpt lat="36.197596" lon="126.90258"/><trkpt lat="36.19735" lon="126.902547"/><trkpt lat="36.197085" lon="126.902511"/><trkpt lat="36.196801" lon="126.902263"/><trkpt lat="36.196784" lon="126.902046"/><trkpt lat="36.196713" lon="126.901875"/><trkpt lat="36.196415" lon="126.901908"/><trkpt lat="36.196139" lon="126.901899"/><trkpt lat="36.195981" lon="126.901824"/><trkpt lat="36.195793" lon="126.901666"/><trkpt lat="36.195481" lon="126.901414"/><trkpt lat="36.19525" lon="126.901334"/><trkpt lat="36.195143" lon="126.9014"/><trkpt lat="36.195031" lon="126.901494"/><trkpt lat="36.194846" lon="126.901525"/><trkpt lat="36.194797" lon="126.901797"/><trkpt lat="36.194715" lon="126.902054"/><trkpt lat="36.194644" lon="126.90206"/></trkseg>
<trkseg><trkpt lat="36.193723" lon="126.89931"/><trkpt lat="36.193974" lon="126.899527"/><trkpt lat="36.194144" lon="126.899563"/><trkpt lat="36.194306" lon="126.899567"/><trkpt lat="36.194615" lon="126.899644"/><trkpt lat="36.194857" lon="126.89967"/><trkpt lat="36.195099" lon="126.899575"/><trkpt lat="36.195147" lon="126.89953"/></trkseg>
<trkseg><trkpt lat="36.189242" lon="126.900141"/><trkpt lat="36.189603" lon="126.900098"/></trkseg>
<trkseg><trkpt lat="36.193867" lon="126.899946"/><trkpt lat="36.193693" lon="126.900379"/><trkpt lat="36.193695" lon="126.900878"/></trkseg>
<trkseg><trkpt lat="36.192966" lon="126.898588"/><trkpt lat="36.193187" lon="126.898751"/><trkpt lat="36.193683" lon="126.899255"/><trkpt lat="36.193723" lon="126.89931"/></trkseg>
<trkseg><trkpt lat="36.193695" lon="126.900878"/><trkpt lat="36.193574" lon="126.901354"/><trkpt lat="36.193396" lon="126.901745"/><trkpt lat="36.193355" lon="126.902065"/><trkpt lat="36.193324" lon="126.902485"/><trkpt lat="36.193261" lon="126.902591"/><trkpt lat="36.193095" lon="126.902749"/><trkpt lat="36.19302" lon="126.903192"/><trkpt lat="36.192802" lon="126.903467"/><trkpt lat="36.192311" lon="126.90388"/><trkpt lat="36.19206" lon="126.904012"/><trkpt lat="36.191741" lon="126.904071"/><trkpt lat="36.191332" lon="126.904468"/><trkpt lat="36.191064" lon="126.904575"/><trkpt lat="36.190883" lon="126.904627"/><trkpt lat="36.190695" lon="126.904745"/><trkpt lat="36.190574" lon="126.904968"/><trkpt lat="36.190487" lon="126.905224"/><trkpt lat="36.190271" lon="126.905535"/><trkpt lat="36.190348" lon="126.906173"/><trkpt lat="36.190369" lon="126.906564"/><trkpt lat="36.190277" lon="126.906975"/><trkpt lat="36.190168" lon="126.907271"/><trkpt lat="36.189781" lon="126.9075"/><trkpt lat="36.189136" lon="126.907362"/><trkpt lat="36.188961" lon="126.907321"/><trkpt lat="36.188552" lon="126.907116"/><trkpt lat="36.188135" lon="126.906784"/><trkpt lat="36.187805" lon="126.906539"/><trkpt lat="36.18754" lon="126.906421"/><trkpt lat="36.187342" lon="126.906386"/><trkpt lat="36.187207" lon="126.90638"/><trkpt lat="36.187152" lon="126.906361"/><trkpt lat="36.187032" lon="126.906146"/><trkpt lat="36.186865" lon="126.906054"/><trkpt lat="36.186608" lon="126.906035"/><trkpt lat="36.186498" lon="126.906006"/><trkpt lat="36.186333" lon="126.905912"/></trkseg>
<trkseg><trkpt lat="36.186333" lon="126.905912"/><trkpt lat="36.186186" lon="126.905825"/><trkpt lat="36.186117" lon="126.905704"/><trkpt lat="36.185793" lon="126.905502"/><trkpt lat="36.185704" lon="126.905395"/><trkpt lat="36.185485" lon="126.904927"/><trkpt lat="36.185371" lon="126.90489"/><trkpt lat="36.185064" lon="126.90474"/><trkpt lat="36.184865" lon="126.904674"/><trkpt lat="36.184688" lon="126.904613"/><trkpt lat="36.184534" lon="126.904564"/><trkpt lat="36.184439" lon="126.904471"/><trkpt lat="36.184318" lon="126.904387"/><trkpt lat="36.184216" lon="126.90431"/><trkpt lat="36.183978" lon="126.904438"/><trkpt lat="36.183718" lon="126.904335"/><trkpt lat="36.183334" lon="126.904337"/><trkpt lat="36.183157" lon="126.904281"/><trkpt lat="36.182926" lon="126.904049"/><trkpt lat="36.182792" lon="126.903971"/><trkpt lat="36.182623" lon="126.903777"/><trkpt lat="36.182594" lon="126.903562"/><trkpt lat="36.182601" lon="126.90336"/><trkpt lat="36.182635" lon="126.902956"/><trkpt lat="36.182617" lon="126.902786"/><trkpt lat="36.182551" lon="126.902574"/><trkpt lat="36.18258" lon="126.902297"/><trkpt lat="36.182511" lon="126.90222"/><trkpt lat="36.182406" lon="126.902089"/><trkpt lat="36.182162" lon="126.902136"/><trkpt lat="36.181918" lon="126.902043"/><trkpt lat="36.18152" lon="126.901884"/><trkpt lat="36.181202" lon="126.901776"/><trkpt lat="36.181054" lon="126.901694"/></trkseg>
<trkseg><trkpt lat="36.193695" lon="126.900878"/><trkpt lat="36.193754" lon="126.901186"/><trkpt lat="36.19392" lon="126.901154"/><trkpt lat="36.194041" lon="126.9011"/><trkpt lat="36.194246" lon="126.901279"/><trkpt lat="36.194526" lon="126.901623"/><trkpt lat="36.194603" lon="126.901899"/><trkpt lat="36.194644" lon="126.90206"/></trkseg>
<trkseg><trkpt lat="36.189603" lon="126.900098"/><trkpt lat="36.189718" lon="126.90023"/><trkpt lat="36.189807" lon="126.900391"/><trkpt lat="36.18998" lon="126.9005"/><trkpt lat="36.190165" lon="126.900491"/><trkpt lat="36.190427" lon="126.900407"/><trkpt lat="36.19073" lon="126.900437"/><trkpt lat="36.190716" lon="126.900748"/><trkpt lat="36.190514" lon="126.900952"/><trkpt lat="36.190256" lon="126.901104"/><trkpt lat="36.190047" lon="126.901545"/></trkseg>
<trkseg><trkpt lat="36.186333" lon="126.905912"/><trkpt lat="36.186303" lon="126.906122"/><trkpt lat="36.186058" lon="126.906723"/><trkpt lat="36.185983" lon="126.907026"/><trkpt lat="36.185981" lon="126.907269"/><trkpt lat="36.186037" lon="126.907482"/><trkpt lat="36.186078" lon="126.907688"/><trkpt lat="36.186194" lon="126.908036"/><trkpt lat="36.186045" lon="126.908589"/><trkpt lat="36.185839" lon="126.908812"/><trkpt lat="36.185661" lon="126.90902"/><trkpt lat="36.185645" lon="126.909179"/><trkpt lat="36.18555" lon="126.90947"/><trkpt lat="36.185302" lon="126.90963"/><trkpt lat="36.184974" lon="126.909718"/><trkpt lat="36.18482" lon="126.910211"/><trkpt lat="36.184597" lon="126.910475"/><trkpt lat="36.184372" lon="126.910725"/><trkpt lat="36.184092" lon="126.910982"/><trkpt lat="36.183691" lon="126.911227"/><trkpt lat="36.183358" lon="126.911436"/><trkpt lat="36.183158" lon="126.911804"/><trkpt lat="36.183019" lon="126.912043"/><trkpt lat="36.18302" lon="126.912638"/><trkpt lat="36.182919" lon="126.913018"/><trkpt lat="36.182567" lon="126.913378"/><trkpt lat="36.182318" lon="126.913788"/><trkpt lat="36.182189" lon="126.913972"/><trkpt lat="36.181918" lon="126.914062"/><trkpt lat="36.181688" lon="126.914185"/><trkpt lat="36.18154" lon="126.914291"/><trkpt lat="36.181247" lon="126.914403"/><trkpt lat="36.181038" lon="126.914581"/><trkpt lat="36.180964" lon="126.914771"/><trkpt lat="36.180733" lon="126.915227"/><trkpt lat="36.180657" lon="126.915532"/><trkpt lat="36.180485" lon="126.91603"/><trkpt lat="36.180379" lon="126.916459"/><trkpt lat="36.180365" lon="126.916721"/><trkpt lat="36.180164" lon="126.916904"/><trkpt lat="36.180026" lon="126.917002"/><trkpt lat="36.179935" lon="126.916962"/><trkpt lat="36.179746" lon="126.91685"/></trkseg>
<trkseg><trkpt lat="36.192966" lon="126.898588"/><trkpt lat="36.192499" lon="126.898556"/><trkpt lat="36.192312" lon="126.898493"/><trkpt lat="36.191984" lon="126.898562"/><trkpt lat="36.191652" lon="126.89871"/><trkpt lat="36.191136" lon="126.898998"/><trkpt lat="36.190764" lon="126.899081"/><trkpt lat="36.190371" lon="126.899301"/><trkpt lat="36.190161" lon="126.899392"/><trkpt lat="36.189723" lon="126.899555"/><trkpt lat="36.189442" lon="126.89972"/><trkpt lat="36.189209" lon="126.899964"/><trkpt lat="36.189206" lon="126.900075"/><trkpt lat="36.189242" lon="126.900141"/></trkseg>
<trkseg><trkpt lat="36.196966" lon="126.900439"/><trkpt lat="36.197144" lon="126.900118"/><trkpt lat="36.197159" lon="126.900055"/></trkseg>
<trkseg><trkpt lat="36.196966" lon="126.900439"/><trkpt lat="36.197619" lon="126.900817"/><trkpt lat="36.198087" lon="126.901188"/></trkseg>
<trkseg><trkpt lat="36.197159" lon="126.900055"/><trkpt lat="36.196695" lon="126.900095"/><trkpt lat="36.196486" lon="126.900104"/><trkpt lat="36.196242" lon="126.90021"/><trkpt lat="36.196268" lon="126.900344"/><trkpt lat="36.196624" lon="126.900349"/><trkpt lat="36.196966" lon="126.900439"/></trkseg>
<trkseg><trkpt lat="36.190047" lon="126.901545"/><trkpt lat="36.189911" lon="126.901601"/><trkpt lat="36.189679" lon="126.901642"/><trkpt lat="36.189456" lon="126.901502"/><trkpt lat="36.189492" lon="126.90121"/><trkpt lat="36.189656" lon="126.900776"/><trkpt lat="36.189663" lon="126.900306"/><trkpt lat="36.189603" lon="126.900098"/></trkseg>
<trkseg><trkpt lat="36.193723" lon="126.89931"/><trkpt lat="36.193827" lon="126.899656"/><trkpt lat="36.193867" lon="126.899946"/></trkseg>
<trkseg><trkpt lat="36.190185" lon="126.901663"/><trkpt lat="36.190637" lon="126.901581"/><trkpt lat="36.190873" lon="126.901405"/><trkpt lat="36.19117" lon="126.901204"/><trkpt lat="36.191286" lon="126.901013"/><trkpt lat="36.191422" lon="126.900908"/><trkpt lat="36.191657" lon="126.900588"/><trkpt lat="36.191769" lon="126.900506"/><trkpt lat="36.191909" lon="126.900487"/><trkpt lat="36.192075" lon="126.900482"/><trkpt lat="36.192253" lon="126.900415"/><trkpt lat="36.192399" lon="126.90021"/><trkpt lat="36.19255" lon="126.900338"/><trkpt lat="36.192636" lon="126.90052"/><trkpt lat="36.192713" lon="126.900982"/><trkpt lat="36.192888" lon="126.901187"/><trkpt lat="36.193073" lon="126.901211"/><trkpt lat="36.193212" lon="126.901101"/><trkpt lat="36.193262" lon="126.900905"/><trkpt lat="36.193243" lon="126.900576"/><trkpt lat="36.193359" lon="126.900314"/><trkpt lat="36.193548" lon="126.90017"/><trkpt lat="36.193867" lon="126.899946"/></trkseg>
<trkseg><trkpt lat="36.190047" lon="126.901545"/><trkpt lat="36.190185" lon="126.901663"/></trkseg>
<trkseg><trkpt lat="36.190185" lon="126.901663"/><trkpt lat="36.189837" lon="126.902341"/><trkpt lat="36.189118" lon="126.902924"/><trkpt lat="36.1885" lon="126.903216"/><trkpt lat="36.188268" lon="126.903278"/><trkpt lat="36.187575" lon="126.902582"/><trkpt lat="36.187192" lon="126.902549"/><trkpt lat="36.186728" lon="126.902793"/><trkpt lat="36.186569" lon="126.902464"/><trkpt lat="36.186178" lon="126.902245"/><trkpt lat="36.185467" lon="126.901865"/><trkpt lat="36.184712" lon="126.900911"/><trkpt lat="36.184441" lon="126.900468"/><trkpt lat="36.184301" lon="126.900091"/><trkpt lat="36.18403" lon="126.899958"/><trkpt lat="36.183612" lon="126.899711"/><trkpt lat="36.182977" lon="126.898519"/></trkseg>
</trk>
</gpx>
