<?xml version="1.0" encoding="UTF-8"?>
<gpx version="1.1" creator="letnaturechoose" xmlns="http://www.topografix.com/GPX/1/1">
<metadata><name>월성산 등산로</name></metadata>
<trk><name>월성산</name>
<trkseg><trkpt lat="36.107263" lon="126.826751"/><trkpt lat="36.107259" lon="126.826647"/><trkpt lat="36.107329" lon="126.826566"/><trkpt lat="36.107391" lon="126.826488"/><trkpt lat="36.107484" lon="126.826492"/><trkpt lat="36.107561" lon="126.826543"/><trkpt lat="36.107642" lon="126.826587"/><trkpt lat="36.107732" lon="126.826592"/><trkpt lat="36.10782" lon="126.826556"/><trkpt lat="36.107929" lon="126.826531"/><trkpt lat="36.108024" lon="126.826525"/><trkpt lat="36.108125" lon="126.826521"/><trkpt lat="36.10821" lon="126.826505"/><trkpt lat="36.108292" lon="126.826477"/><trkpt lat="36.10838" lon="126.826445"/><trkpt lat="36.108461" lon="126.826415"/><trkpt lat="36.108585" lon="126.826397"/><trkpt lat="36.108672" lon="126.826427"/><trkpt lat="36.108757" lon="126.826454"/><trkpt lat="36.108877" lon="126.826465"/><trkpt lat="36.108977" lon="126.826441"/><trkpt lat="36.109109" lon="126.826371"/><trkpt lat="36.109218" lon="126.826354"/><trkpt lat="36.109318" lon="126.826369"/><trkpt lat="36.109457" lon="126.826367"/><trkpt lat="36.109543" lon="126.826351"/><trkpt lat="36.109639" lon="126.82633"/><trkpt lat="36.109733" lon="126.826304"/><trkpt lat="36.109818" lon="126.826263"/><trkpt lat="36.109921" lon="126.826236"/><trkpt lat="36.110005" lon="126.826234"/><trkpt lat="36.110098" lon="126.826248"/><trkpt lat="36.110197" lon="126.826243"/><trkpt lat="36.110291" lon="126.826221"/><trkpt lat="36.110377" lon="126.826185"/><trkpt lat="36.110435" lon="126.825967"/><trkpt lat="36.110496" lon="126.825718"/><trkpt lat="36.110681" lon="126.82561"/><trkpt lat="36.111017" lon="126.825506"/><trkpt lat="36.111304" lon="126.825214"/><trkpt lat="36.111484" lon="126.825072"/><trkpt lat="36.111646" lon="126.825013"/><trkpt lat="36.111804" lon="126.825051"/><trkpt lat="36.112031" lon="126.825064"/><trkpt lat="36.112329" lon="126.824874"/><trkpt lat="36.112477" lon="126.824754"/><trkpt lat="36.112657" lon="126.824524"/><trkpt lat="36.112777" lon="126.824246"/><trkpt lat="36.112898" lon="126.823794"/><trkpt lat="36.113022" lon="126.823424"/><trkpt lat="36.11305" lon="126.823169"/><trkpt lat="36.112956" lon="126.822947"/><trkpt lat="36.112819" lon="126.822765"/><trkpt lat="36.112656" lon="126.822589"/><trkpt lat="36.112596" lon="126.822319"/><trkpt lat="36.112503" lon="126.822055"/><trkpt lat="36.112532" lon="126.82188"/><trkpt lat="36.112525" lon="126.821631"/><trkpt lat="36.112713" lon="126.821235"/><trkpt lat="36.112733" lon="126.820895"/><trkpt lat="36.112676" lon="126.820697"/><trkpt lat="36.112587" lon="126.820556"/><trkpt lat="36.112548" lon="126.820335"/><trkpt lat="36.112435" lon="126.819791"/><trkpt lat="36.112343" lon="126.81968"/><trkpt lat="36.112195" lon="126.819684"/><trkpt lat="36.112064" lon="126.819688"/><trkpt lat="36.11192" lon="126.819724"/><trkpt lat="36.111833" lon="126.819643"/><trkpt lat="36.111914" lon="126.819485"/><trkpt lat="36.111904" lon="126.819303"/><trkpt lat="36.111962" lon="126.819149"/><trkpt lat="36.111941" lon="126.818968"/><trkpt lat="36.111917" lon="126.818785"/><trkpt lat="36.112032" lon="126.818635"/><trkpt lat="36.111877" lon="126.818554"/><trkpt lat="36.111754" lon="126.818458"/><trkpt lat="36.11164" lon="126.818356"/><trkpt lat="36.111639" lon="126.818352"/></trkseg>
<trkseg><trkpt lat="36.10694" lon="126.830226"/><trkpt lat="36.106917" lon="126.830157"/><trkpt lat="36.106883" lon="126.830083"/><trkpt lat="36.106856" lon="126.830009"/><trkpt lat="36.106818" lon="126.829946"/><trkpt lat="36.106775" lon="126.829887"/><trkpt lat="36.106733" lon="126.829821"/><trkpt lat="36.10672" lon="126.829748"/><trkpt lat="36.106762" lon="126.82969"/><trkpt lat="36.106815" lon="126.829637"/><trkpt lat="36.106874" lon="126.829604"/><trkpt lat="36.106904" lon="126.829571"/><trkpt lat="36.106951" lon="126.829528"/><trkpt lat="36.106982" lon="126.829495"/><trkpt lat="36.107029" lon="126.829443"/><trkpt lat="36.107057" lon="126.829374"/><trkpt lat="36.107082" lon="126.829301"/><trkpt lat="36.107152" lon="126.829131"/><trkpt lat="36.107178" lon="126.829047"/><trkpt lat="36.10727" lon="126.828875"/><trkpt lat="36.107323" lon="126.828822"/><trkpt lat="36.107373" lon="126.828764"/><trkpt lat="36.107416" lon="126.828695"/><trkpt lat="36.107464" lon="126.828632"/><trkpt lat="36.107511" lon="126.828584"/><trkpt lat="36.107552" lon="126.82854"/><trkpt lat="36.107605" lon="126.828492"/><trkpt lat="36.107655" lon="126.828449"/><trkpt lat="36.107703" lon="126.828407"/><trkpt lat="36.107749" lon="126.828365"/><trkpt lat="36.107802" lon="126.828325"/><trkpt lat="36.107846" lon="126.8283"/><trkpt lat="36.107898" lon="126.82827"/><trkpt lat="36.107998" lon="126.828217"/><trkpt lat="36.10805" lon="126.828205"/><trkpt lat="36.108098" lon="126.828186"/><trkpt lat="36.10814" lon="126.82816"/><trkpt lat="36.108181" lon="126.828125"/><trkpt lat="36.108223" lon="126.828088"/><trkpt lat="36.108263" lon="126.828056"/><trkpt lat="36.108303" lon="126.828024"/><trkpt lat="36.108341" lon="126.827969"/><trkpt lat="36.10837" lon="126.827923"/><trkpt lat="36.1084" lon="126.827876"/><trkpt lat="36.108444" lon="126.827825"/><trkpt lat="36.108472" lon="126.82777"/><trkpt lat="36.108505" lon="126.827727"/><trkpt lat="36.108551" lon="126.82768"/><trkpt lat="36.108578" lon="126.827613"/><trkpt lat="36.108556" lon="126.827539"/><trkpt lat="36.108536" lon="126.827461"/><trkpt lat="36.108514" lon="126.827385"/><trkpt lat="36.108495" lon="126.827311"/><trkpt lat="36.108473" lon="126.827233"/><trkpt lat="36.108452" lon="126.827156"/><trkpt lat="36.108434" lon="126.827072"/><trkpt lat="36.108413" lon="126.82699"/><trkpt lat="36.108393" lon="126.826908"/><trkpt lat="36.108386" lon="126.826827"/><trkpt lat="36.108334" lon="126.826773"/><trkpt lat="36.108269" lon="126.826751"/><trkpt lat="36.108196" lon="126.826754"/><trkpt lat="36.10812" lon="126.826758"/><trkpt lat="36.108046" lon="126.826754"/><trkpt lat="36.107974" lon="126.826741"/><trkpt lat="36.107897" lon="126.826737"/><trkpt lat="36.107827" lon="126.82675"/><trkpt lat="36.107803" lon="126.826755"/><trkpt lat="36.107743" lon="126.826785"/><trkpt lat="36.107669" lon="126.826801"/><trkpt lat="36.107589" lon="126.826787"/><trkpt lat="36.107519" lon="126.826759"/><trkpt lat="36.10745" lon="126.826719"/><trkpt lat="36.10738" lon="126.826691"/><trkpt lat="36.107305" lon="126.826713"/><trkpt lat="36.107263" lon="126.826751"/></trkseg>
<trkseg><trkpt lat="36.107263" lon="126.826751"/><trkpt lat="36.107236" lon="126.826784"/><trkpt lat="36.107206" lon="126.826845"/><trkpt lat="36.107165" lon="126.826905"/><trkpt lat="36.1071" lon="126.826942"/><trkpt lat="36.10705" lon="126.826992"/><trkpt lat="36.10702" lon="126.827077"/><trkpt lat="36.106968" lon="126.82717"/><trkpt lat="36.106898" lon="126.827202"/><trkpt lat="36.106839" lon="126.827257"/><trkpt lat="36.106778" lon="126.827319"/><trkpt lat="36.106724" lon="126.827381"/><trkpt lat="36.106663" lon="126.827434"/><trkpt lat="36.106605" lon="126.827486"/><trkpt lat="36.106575" lon="126.82758"/><trkpt lat="36.106528" lon="126.827646"/><trkpt lat="36.106448" lon="126.827636"/><trkpt lat="36.106381" lon="126.827662"/><trkpt lat="36.106371" lon="126.827745"/><trkpt lat="36.106325" lon="126.827778"/><trkpt lat="36.106275" lon="126.827839"/><trkpt lat="36.106215" lon="126.827876"/><trkpt lat="36.106157" lon="126.827889"/><trkpt lat="36.106145" lon="126.827946"/><trkpt lat="36.106089" lon="126.827951"/><trkpt lat="36.106024" lon="126.827953"/><trkpt lat="36.106012" lon="126.828028"/><trkpt lat="36.10597" lon="126.82804"/><trkpt lat="36.105939" lon="126.828119"/><trkpt lat="36.10593" lon="126.828212"/><trkpt lat="36.105929" lon="126.828304"/></trkseg>
</trk>
</gpx>
