<?xml version="1.0" encoding="UTF-8"?>
<gpx version="1.1" creator="letnaturechoose" xmlns="http://www.topografix.com/GPX/1/1">
<metadata><name>아미산 등산로</name></metadata>
<trk><name>아미산</name>
<trkseg><trkpt lat="36.837929" lon="126.681796"/><trkpt lat="36.837807" lon="126.681999"/><trkpt lat="36.837763" lon="126.682022"/><trkpt lat="36.837724" lon="126.682033"/><trkpt lat="36.837244" lon="126.682076"/><trkpt lat="36.837151" lon="126.682095"/><trkpt lat="36.837112" lon="126.682108"/><trkpt lat="36.837063" lon="126.682132"/><trkpt lat="36.836473" lon="126.682469"/><trkpt lat="36.836401" lon="126.682512"/><trkpt lat="36.836366" lon="126.682536"/><trkpt lat="36.836124" lon="126.682875"/><trkpt lat="36.835879" lon="126.683028"/><trkpt lat="36.835346" lon="126.683277"/><trkpt lat="36.835134" lon="126.683578"/><trkpt lat="36.835105" lon="126.683613"/><trkpt lat="36.83508" lon="126.683651"/><trkpt lat="36.835036" lon="126.683733"/><trkpt lat="36.834778" lon="126.684256"/><trkpt lat="36.834683" lon="126.684436"/><trkpt lat="36.834665" lon="126.684479"/><trkpt lat="36.834656" lon="126.684524"/><trkpt lat="36.834657" lon="126.684572"/><trkpt lat="36.834668" lon="126.684654"/><trkpt lat="36.834746" lon="126.685184"/><trkpt lat="36.834761" lon="126.685265"/><trkpt lat="36.834775" lon="126.685312"/><trkpt lat="36.834803" lon="126.685388"/><trkpt lat="36.835029" lon="126.685941"/><trkpt lat="36.835061" lon="126.686014"/><trkpt lat="36.835084" lon="126.686054"/><trkpt lat="36.835113" lon="126.686087"/><trkpt lat="36.835169" lon="126.686134"/><trkpt lat="36.835744" lon="126.686606"/><trkpt lat="36.835847" lon="126.686686"/><trkpt lat="36.836566" lon="126.687203"/><trkpt lat="36.836693" lon="126.687295"/><trkpt lat="36.836729" lon="126.687315"/><trkpt lat="36.836765" lon="126.687323"/><trkpt lat="36.836802" lon="126.687317"/><trkpt lat="36.836853" lon="126.687301"/><trkpt lat="36.837169" lon="126.687185"/><trkpt lat="36.837207" lon="126.687176"/><trkpt lat="36.837246" lon="126.687177"/><trkpt lat="36.837284" lon="126.687185"/><trkpt lat="36.83749" lon="126.687245"/><trkpt lat="36.837553" lon="126.687265"/><trkpt lat="36.837589" lon="126.687283"/><trkpt lat="36.837621" lon="126.68731"/><trkpt lat="36.837671" lon="126.687364"/><trkpt lat="36.838002" lon="126.687744"/><trkpt lat="36.838053" lon="126.687796"/><trkpt lat="36.838298" lon="126.688008"/></trkseg>
<trkseg><trkpt lat="36.833053" lon="126.674984"/><trkpt lat="36.833305" lon="126.674877"/><trkpt lat="36.833345" lon="126.674884"/><trkpt lat="36.833383" lon="126.674897"/><trkpt lat="36.833417" lon="126.67492"/><trkpt lat="36.833461" lon="126.674958"/><trkpt lat="36.833876" lon="126.675398"/><trkpt lat="36.83393" lon="126.675446"/><trkpt lat="36.833965" lon="126.675471"/><trkpt lat="36.834002" lon="126.675487"/><trkpt lat="36.834067" lon="126.675505"/><trkpt lat="36.834834" lon="126.675765"/><trkpt lat="36.835288" lon="126.67578"/><trkpt lat="36.836266" lon="126.675992"/><trkpt lat="36.836319" lon="126.676005"/><trkpt lat="36.836598" lon="126.676073"/><trkpt lat="36.83678" lon="126.676129"/><trkpt lat="36.836818" lon="126.676145"/><trkpt lat="36.836852" lon="126.676168"/><trkpt lat="36.836895" lon="126.676208"/><trkpt lat="36.837112" lon="126.676372"/><trkpt lat="36.837956" lon="126.677319"/><trkpt lat="36.837988" lon="126.677347"/><trkpt lat="36.838023" lon="126.677368"/><trkpt lat="36.838061" lon="126.677379"/><trkpt lat="36.838305" lon="126.677334"/><trkpt lat="36.839193" lon="126.67751"/><trkpt lat="36.839272" lon="126.677526"/><trkpt lat="36.839308" lon="126.67754"/><trkpt lat="36.83934" lon="126.677566"/><trkpt lat="36.83938" lon="126.677608"/><trkpt lat="36.839579" lon="126.677927"/><trkpt lat="36.839606" lon="126.677963"/><trkpt lat="36.839902" lon="126.678221"/><trkpt lat="36.840052" lon="126.678596"/></trkseg>
<trkseg><trkpt lat="36.845054" lon="126.685006"/><trkpt lat="36.844769" lon="126.684798"/><trkpt lat="36.844719" lon="126.684778"/><trkpt lat="36.844646" lon="126.684738"/><trkpt lat="36.844413" lon="126.684299"/><trkpt lat="36.843733" lon="126.683778"/><trkpt lat="36.843698" lon="126.683755"/><trkpt lat="36.843661" lon="126.683737"/><trkpt lat="36.843456" lon="126.683666"/><trkpt lat="36.843046" lon="126.683526"/><trkpt lat="36.842968" lon="126.683503"/><trkpt lat="36.842929" lon="126.683497"/><trkpt lat="36.8426" lon="126.68367"/><trkpt lat="36.842333" lon="126.68385"/><trkpt lat="36.842295" lon="126.683863"/><trkpt lat="36.842243" lon="126.683874"/><trkpt lat="36.841426" lon="126.683751"/><trkpt lat="36.841185" lon="126.683783"/><trkpt lat="36.841146" lon="126.683786"/><trkpt lat="36.841111" lon="126.683781"/><trkpt lat="36.841085" lon="126.683757"/><trkpt lat="36.841066" lon="126.683718"/><trkpt lat="36.841046" lon="126.683658"/><trkpt lat="36.840715" lon="126.682955"/><trkpt lat="36.840692" lon="126.682896"/><trkpt lat="36.840669" lon="126.682856"/><trkpt lat="36.840633" lon="126.682807"/><trkpt lat="36.840548" lon="126.682701"/><trkpt lat="36.840508" lon="126.682656"/><trkpt lat="36.840465" lon="126.682615"/><trkpt lat="36.840132" lon="126.682323"/><trkpt lat="36.839969" lon="126.682165"/><trkpt lat="36.839934" lon="126.682138"/><trkpt lat="36.839887" lon="126.682107"/><trkpt lat="36.839231" lon="126.68185"/><trkpt lat="36.839145" lon="126.681803"/><trkpt lat="36.839095" lon="126.68178"/><trkpt lat="36.838855" lon="126.6817"/><trkpt lat="36.838804" lon="126.681684"/><trkpt lat="36.838765" lon="126.68168"/><trkpt lat="36.838685" lon="126.681685"/><trkpt lat="36.83829" lon="126.681753"/><trkpt lat="36.837929" lon="126.681796"/></trkseg>
<trkseg><trkpt lat="36.845401" lon="126.664922"/><trkpt lat="36.845437" lon="126.665013"/><trkpt lat="36.845462" lon="126.665064"/><trkpt lat="36.845486" lon="126.665096"/><trkpt lat="36.84552" lon="126.665116"/><trkpt lat="36.845557" lon="126.665129"/><trkpt lat="36.845816" lon="126.665202"/><trkpt lat="36.845881" lon="126.665218"/><trkpt lat="36.845921" lon="126.665223"/><trkpt lat="36.845974" lon="126.665223"/><trkpt lat="36.846444" lon="126.66519"/><trkpt lat="36.846498" lon="126.665184"/><trkpt lat="36.846537" lon="126.665176"/><trkpt lat="36.846587" lon="126.665158"/><trkpt lat="36.846712" lon="126.665107"/><trkpt lat="36.846773" lon="126.665079"/><trkpt lat="36.846807" lon="126.665057"/><trkpt lat="36.846837" lon="126.665029"/><trkpt lat="36.846874" lon="126.664986"/><trkpt lat="36.846917" lon="126.664928"/><trkpt lat="36.846939" lon="126.664891"/><trkpt lat="36.846955" lon="126.664848"/><trkpt lat="36.846975" lon="126.664771"/><trkpt lat="36.846993" lon="126.664735"/><trkpt lat="36.847023" lon="126.664715"/><trkpt lat="36.84706" lon="126.664703"/><trkpt lat="36.847191" lon="126.664679"/><trkpt lat="36.847559" lon="126.664609"/><trkpt lat="36.847624" lon="126.664593"/><trkpt lat="36.847662" lon="126.664578"/><trkpt lat="36.847893" lon="126.664449"/><trkpt lat="36.848333" lon="126.664204"/><trkpt lat="36.848393" lon="126.664168"/><trkpt lat="36.848426" lon="126.664143"/><trkpt lat="36.848452" lon="126.664109"/><trkpt lat="36.848472" lon="126.664068"/><trkpt lat="36.848562" lon="126.663846"/><trkpt lat="36.848617" lon="126.663713"/><trkpt lat="36.848637" lon="126.663671"/><trkpt lat="36.848661" lon="126.663631"/><trkpt lat="36.848731" lon="126.663529"/><trkpt lat="36.848777" lon="126.663468"/><trkpt lat="36.848807" lon="126.663436"/><trkpt lat="36.848849" lon="126.6634"/><trkpt lat="36.848881" lon="126.663376"/><trkpt lat="36.848916" lon="126.663362"/><trkpt lat="36.848951" lon="126.663361"/><trkpt lat="36.849011" lon="126.663367"/><trkpt lat="36.849047" lon="126.663358"/><trkpt lat="36.849082" lon="126.663337"/><trkpt lat="36.849112" lon="126.663309"/><trkpt lat="36.849135" lon="126.663271"/><trkpt lat="36.849151" lon="126.663227"/><trkpt lat="36.849172" lon="126.663148"/><trkpt lat="36.849182" lon="126.6631"/><trkpt lat="36.849187" lon="126.663051"/><trkpt lat="36.849185" lon="126.663002"/><trkpt lat="36.84917" lon="126.662854"/><trkpt lat="36.849165" lon="126.662789"/><trkpt lat="36.84917" lon="126.662743"/><trkpt lat="36.849185" lon="126.662704"/><trkpt lat="36.849222" lon="126.662643"/><trkpt lat="36.849243" lon="126.662605"/><trkpt lat="36.849257" lon="126.662563"/><trkpt lat="36.849266" lon="126.662518"/><trkpt lat="36.849279" lon="126.662441"/><trkpt lat="36.849292" lon="126.662396"/><trkpt lat="36.849308" lon="126.662351"/><trkpt lat="36.849375" lon="126.662191"/><trkpt lat="36.849404" lon="126.662118"/><trkpt lat="36.849416" lon="126.662073"/><trkpt lat="36.849418" lon="126.662027"/><trkpt lat="36.84941" lon="126.661979"/><trkpt lat="36.849396" lon="126.661899"/><trkpt lat="36.849392" lon="126.66185"/><trkpt lat="36.849395" lon="126.661801"/><trkpt lat="36.849436" lon="126.661505"/><trkpt lat="36.849473" lon="126.661241"/><trkpt lat="36.849482" lon="126.661193"/><trkpt lat="36.849496" lon="126.661149"/><trkpt lat="36.849519" lon="126.661111"/><trkpt lat="36.849558" lon="126.661066"/><trkpt lat="36.849774" lon="126.660837"/><trkpt lat="36.849817" lon="126.660797"/><trkpt lat="36.849851" lon="126.660773"/><trkpt lat="36.849958" lon="126.660708"/><trkpt lat="36.850004" lon="126.660677"/><trkpt lat="36.850034" lon="126.660647"/><trkpt lat="36.850059" lon="126.660608"/><trkpt lat="36.850169" lon="126.660397"/><trkpt lat="36.8503" lon="126.660142"/><trkpt lat="36.850317" lon="126.660098"/><trkpt lat="36.850358" lon="126.659978"/><trkpt lat="36.850433" lon="126.659752"/><trkpt lat="36.85045" lon="126.65971"/><trkpt lat="36.850474" lon="126.659674"/><trkpt lat="36.850504" lon="126.659645"/><trkpt lat="36.850561" lon="126.659604"/><trkpt lat="36.850768" lon="126.659459"/><trkpt lat="36.8508" lon="126.659432"/><trkpt lat="36.850829" lon="126.6594"/><trkpt lat="36.850864" lon="126.65935"/><trkpt lat="36.851115" lon="126.658959"/><trkpt lat="36.85124" lon="126.658764"/><trkpt lat="36.851267" lon="126.658728"/><trkpt lat="36.851297" lon="126.658697"/><trkpt lat="36.85133" lon="126.658671"/><trkpt lat="36.851454" lon="126.658581"/><trkpt lat="36.851497" lon="126.658546"/><trkpt lat="36.851527" lon="126.658514"/><trkpt lat="36.851583" lon="126.658442"/><trkpt lat="36.851719" lon="126.658257"/><trkpt lat="36.851749" lon="126.658224"/><trkpt lat="36.851781" lon="126.6582"/><trkpt lat="36.851861" lon="126.658151"/><trkpt lat="36.851893" lon="126.658127"/><trkpt lat="36.851924" lon="126.658096"/><trkpt lat="36.851962" lon="126.658049"/><trkpt lat="36.851999" lon="126.658"/></trkseg>
<trkseg><trkpt lat="36.845401" lon="126.664922"/><trkpt lat="36.844692" lon="126.665401"/><trkpt lat="36.844647" lon="126.665436"/><trkpt lat="36.844616" lon="126.665467"/><trkpt lat="36.844589" lon="126.665503"/><trkpt lat="36.844529" lon="126.665593"/><trkpt lat="36.8445" lon="126.665625"/><trkpt lat="36.844467" lon="126.665651"/><trkpt lat="36.844361" lon="126.665719"/><trkpt lat="36.844315" lon="126.66575"/><trkpt lat="36.844283" lon="126.665778"/><trkpt lat="36.844255" lon="126.665813"/><trkpt lat="36.844214" lon="126.665879"/><trkpt lat="36.844096" lon="126.666082"/><trkpt lat="36.844069" lon="126.666119"/><trkpt lat="36.844039" lon="126.66615"/><trkpt lat="36.844006" lon="126.666176"/><trkpt lat="36.843914" lon="126.666239"/><trkpt lat="36.843882" lon="126.666266"/><trkpt lat="36.843852" lon="126.666298"/><trkpt lat="36.843818" lon="126.666347"/><trkpt lat="36.843659" lon="126.666593"/><trkpt lat="36.843616" lon="126.666655"/><trkpt lat="36.843587" lon="126.666685"/><trkpt lat="36.843553" lon="126.666705"/><trkpt lat="36.843503" lon="126.666724"/><trkpt lat="36.843261" lon="126.6668"/><trkpt lat="36.84321" lon="126.666812"/><trkpt lat="36.843171" lon="126.666814"/><trkpt lat="36.843133" lon="126.666807"/><trkpt lat="36.842939" lon="126.666746"/><trkpt lat="36.842526" lon="126.666614"/><trkpt lat="36.842488" lon="126.666606"/><trkpt lat="36.842008" lon="126.666335"/><trkpt lat="36.84197" lon="126.666337"/><trkpt lat="36.841935" lon="126.66635"/><trkpt lat="36.8419" lon="126.666372"/><trkpt lat="36.841833" lon="126.666423"/><trkpt lat="36.841791" lon="126.66646"/><trkpt lat="36.841731" lon="126.666665"/><trkpt lat="36.841412" lon="126.66702"/><trkpt lat="36.841374" lon="126.667065"/><trkpt lat="36.841343" lon="126.667096"/><trkpt lat="36.841142" lon="126.667263"/><trkpt lat="36.840539" lon="126.66786"/><trkpt lat="36.840501" lon="126.667874"/><trkpt lat="36.840462" lon="126.667882"/><trkpt lat="36.840409" lon="126.667887"/><trkpt lat="36.840101" lon="126.667901"/><trkpt lat="36.840061" lon="126.667898"/><trkpt lat="36.840023" lon="126.667889"/><trkpt lat="36.83996" lon="126.667868"/><trkpt lat="36.839822" lon="126.667818"/><trkpt lat="36.839785" lon="126.66781"/><trkpt lat="36.839749" lon="126.667812"/><trkpt lat="36.839713" lon="126.667829"/><trkpt lat="36.839654" lon="126.667867"/><trkpt lat="36.839478" lon="126.667991"/><trkpt lat="36.839445" lon="126.668019"/><trkpt lat="36.839385" lon="126.668085"/><trkpt lat="36.839058" lon="126.668623"/><trkpt lat="36.839018" lon="126.668665"/><trkpt lat="36.838985" lon="126.668688"/><trkpt lat="36.838947" lon="126.668703"/><trkpt lat="36.838762" lon="126.66875"/><trkpt lat="36.838683" lon="126.668768"/><trkpt lat="36.838643" lon="126.668772"/><trkpt lat="36.838603" lon="126.668771"/><trkpt lat="36.838269" lon="126.668741"/><trkpt lat="36.838216" lon="126.668737"/><trkpt lat="36.838177" lon="126.668739"/><trkpt lat="36.83814" lon="126.668751"/><trkpt lat="36.838105" lon="126.668772"/><trkpt lat="36.837837" lon="126.668955"/><trkpt lat="36.837768" lon="126.669005"/><trkpt lat="36.837735" lon="126.669033"/><trkpt lat="36.837379" lon="126.66939"/><trkpt lat="36.837222" lon="126.669549"/><trkpt lat="36.83719" lon="126.669578"/><trkpt lat="36.837156" lon="126.6696"/><trkpt lat="36.837118" lon="126.669607"/><trkpt lat="36.837079" lon="126.669606"/><trkpt lat="36.836999" lon="126.669599"/><trkpt lat="36.836946" lon="126.669592"/><trkpt lat="36.836907" lon="126.669582"/><trkpt lat="36.836869" lon="126.669566"/><trkpt lat="36.836362" lon="126.669304"/><trkpt lat="36.836312" lon="126.669281"/><trkpt lat="36.836274" lon="126.669269"/><trkpt lat="36.836223" lon="126.669259"/><trkpt lat="36.836081" lon="126.669236"/><trkpt lat="36.836044" lon="126.669234"/><trkpt lat="36.836008" lon="126.669243"/><trkpt lat="36.835974" lon="126.669265"/><trkpt lat="36.83592" lon="126.669311"/><trkpt lat="36.835642" lon="126.669564"/><trkpt lat="36.835609" lon="126.669591"/><trkpt lat="36.835573" lon="126.669612"/><trkpt lat="36.835535" lon="126.669626"/><trkpt lat="36.835405" lon="126.669663"/><trkpt lat="36.835366" lon="126.669676"/><trkpt lat="36.835328" lon="126.669693"/><trkpt lat="36.834966" lon="126.669913"/></trkseg>
<trkseg><trkpt lat="36.846549" lon="126.639807"/><trkpt lat="36.846505" lon="126.64003"/><trkpt lat="36.846492" lon="126.64007"/><trkpt lat="36.846471" lon="126.64009"/><trkpt lat="36.846439" lon="126.640087"/><trkpt lat="36.84639" lon="126.640069"/><trkpt lat="36.846187" lon="126.639983"/><trkpt lat="36.846149" lon="126.63997"/><trkpt lat="36.846111" lon="126.639964"/><trkpt lat="36.846072" lon="126.639965"/><trkpt lat="36.845927" lon="126.639985"/><trkpt lat="36.845782" lon="126.640006"/><trkpt lat="36.845746" lon="126.640017"/><trkpt lat="36.845717" lon="126.640041"/><trkpt lat="36.845698" lon="126.640079"/><trkpt lat="36.845673" lon="126.640155"/><trkpt lat="36.84561" lon="126.640374"/><trkpt lat="36.8456" lon="126.640421"/><trkpt lat="36.845596" lon="126.640468"/><trkpt lat="36.845593" lon="126.640579"/><trkpt lat="36.845588" lon="126.640625"/><trkpt lat="36.845577" lon="126.640671"/><trkpt lat="36.845546" lon="126.640761"/><trkpt lat="36.845495" lon="126.640894"/><trkpt lat="36.845476" lon="126.640936"/><trkpt lat="36.845451" lon="126.640975"/><trkpt lat="36.845296" lon="126.641182"/><trkpt lat="36.844909" lon="126.641691"/><trkpt lat="36.844884" lon="126.641729"/><trkpt lat="36.844863" lon="126.64177"/><trkpt lat="36.844849" lon="126.641815"/><trkpt lat="36.84483" lon="126.641893"/><trkpt lat="36.844744" lon="126.642255"/><trkpt lat="36.844731" lon="126.642301"/><trkpt lat="36.844709" lon="126.642348"/><trkpt lat="36.84467" lon="126.642411"/><trkpt lat="36.844663" lon="126.642744"/><trkpt lat="36.844663" lon="126.64281"/><trkpt lat="36.844657" lon="126.642852"/><trkpt lat="36.844635" lon="126.64288"/><trkpt lat="36.844602" lon="126.642895"/><trkpt lat="36.844551" lon="126.642911"/><trkpt lat="36.844304" lon="126.642978"/><trkpt lat="36.844241" lon="126.642999"/><trkpt lat="36.844205" lon="126.643019"/><trkpt lat="36.844171" lon="126.643045"/><trkpt lat="36.843893" lon="126.643311"/><trkpt lat="36.843839" lon="126.64336"/><trkpt lat="36.843804" lon="126.643385"/><trkpt lat="36.843767" lon="126.643401"/><trkpt lat="36.843715" lon="126.643418"/><trkpt lat="36.843623" lon="126.643442"/><trkpt lat="36.84357" lon="126.643451"/><trkpt lat="36.84353" lon="126.643451"/><trkpt lat="36.843356" lon="126.643435"/><trkpt lat="36.843195" lon="126.643417"/><trkpt lat="36.843156" lon="126.643409"/><trkpt lat="36.843119" lon="126.643392"/><trkpt lat="36.843084" lon="126.643368"/><trkpt lat="36.843015" lon="126.643319"/><trkpt lat="36.842981" lon="126.643302"/><trkpt lat="36.842946" lon="126.643303"/><trkpt lat="36.84291" lon="126.643317"/><trkpt lat="36.842862" lon="126.643344"/><trkpt lat="36.842693" lon="126.643441"/><trkpt lat="36.842656" lon="126.643458"/><trkpt lat="36.842579" lon="126.643486"/><trkpt lat="36.842231" lon="126.643601"/><trkpt lat="36.842181" lon="126.64362"/><trkpt lat="36.842145" lon="126.64364"/><trkpt lat="36.842112" lon="126.643665"/><trkpt lat="36.841993" lon="126.643769"/><trkpt lat="36.841948" lon="126.643804"/><trkpt lat="36.841877" lon="126.643849"/><trkpt lat="36.841561" lon="126.644034"/><trkpt lat="36.841526" lon="126.644057"/><trkpt lat="36.841495" lon="126.644085"/><trkpt lat="36.841472" lon="126.644123"/><trkpt lat="36.841452" lon="126.644165"/><trkpt lat="36.841327" lon="126.644478"/><trkpt lat="36.840938" lon="126.645265"/><trkpt lat="36.840907" lon="126.64532"/><trkpt lat="36.840854" lon="126.645396"/><trkpt lat="36.840753" lon="126.645531"/><trkpt lat="36.840732" lon="126.64557"/><trkpt lat="36.840722" lon="126.645614"/><trkpt lat="36.840722" lon="126.645663"/><trkpt lat="36.84074" lon="126.645913"/><trkpt lat="36.840755" lon="126.646114"/><trkpt lat="36.840756" lon="126.646164"/><trkpt lat="36.840753" lon="126.646213"/><trkpt lat="36.840745" lon="126.646278"/><trkpt lat="36.84068" lon="126.646685"/><trkpt lat="36.840673" lon="126.64675"/><trkpt lat="36.840674" lon="126.646798"/><trkpt lat="36.840684" lon="126.646844"/><trkpt lat="36.84074" lon="126.647029"/><trkpt lat="36.840763" lon="126.647106"/><trkpt lat="36.840772" lon="126.647153"/><trkpt lat="36.840772" lon="126.6472"/><trkpt lat="36.840765" lon="126.647249"/><trkpt lat="36.840754" lon="126.647296"/><trkpt lat="36.840739" lon="126.647341"/><trkpt lat="36.840717" lon="126.64738"/><trkpt lat="36.84068" lon="126.647424"/><trkpt lat="36.840623" lon="126.647488"/><trkpt lat="36.840597" lon="126.647522"/><trkpt lat="36.840578" lon="126.647563"/><trkpt lat="36.840564" lon="126.647609"/><trkpt lat="36.840464" lon="126.648043"/><trkpt lat="36.840447" lon="126.648106"/><trkpt lat="36.840431" lon="126.648151"/><trkpt lat="36.84041" lon="126.648192"/><trkpt lat="36.840373" lon="126.648259"/><trkpt lat="36.840362" lon="126.648302"/><trkpt lat="36.840364" lon="126.648349"/><trkpt lat="36.840377" lon="126.64843"/><trkpt lat="36.840517" lon="126.6492"/><trkpt lat="36.840579" lon="126.649543"/><trkpt lat="36.840595" lon="126.649607"/><trkpt lat="36.84062" lon="126.649682"/><trkpt lat="36.840684" lon="126.649863"/><trkpt lat="36.840697" lon="126.64991"/><trkpt lat="36.840775" lon="126.6503"/><trkpt lat="36.840796" lon="126.650415"/><trkpt lat="36.840811" lon="126.650546"/><trkpt lat="36.840847" lon="126.650876"/><trkpt lat="36.840854" lon="126.650925"/><trkpt lat="36.840866" lon="126.650973"/><trkpt lat="36.840957" lon="126.651234"/><trkpt lat="36.84157" lon="126.652956"/><trkpt lat="36.84161" lon="126.653062"/><trkpt lat="36.841655" lon="126.653164"/><trkpt lat="36.842042" lon="126.653998"/><trkpt lat="36.842071" lon="126.654053"/><trkpt lat="36.842104" lon="126.654105"/><trkpt lat="36.842285" lon="126.654352"/><trkpt lat="36.842328" lon="126.654415"/><trkpt lat="36.842348" lon="126.654456"/><trkpt lat="36.842363" lon="126.654501"/><trkpt lat="36.842412" lon="126.654687"/><trkpt lat="36.842464" lon="126.654889"/><trkpt lat="36.842474" lon="126.654936"/><trkpt lat="36.842481" lon="126.655001"/><trkpt lat="36.842516" lon="126.655678"/><trkpt lat="36.842522" lon="126.655777"/><trkpt lat="36.842529" lon="126.655826"/><trkpt lat="36.84254" lon="126.655873"/><trkpt lat="36.842591" lon="126.656028"/><trkpt lat="36.842615" lon="126.656106"/><trkpt lat="36.842626" lon="126.656154"/><trkpt lat="36.842636" lon="126.656236"/><trkpt lat="36.842673" lon="126.656633"/><trkpt lat="36.842769" lon="126.657642"/><trkpt lat="36.842774" lon="126.657725"/><trkpt lat="36.842773" lon="126.657773"/><trkpt lat="36.842764" lon="126.657947"/><trkpt lat="36.842764" lon="126.657994"/><trkpt lat="36.84277" lon="126.658042"/><trkpt lat="36.84279" lon="126.658121"/><trkpt lat="36.842962" lon="126.658721"/><trkpt lat="36.84303" lon="126.658958"/><trkpt lat="36.843046" lon="126.659003"/><trkpt lat="36.843067" lon="126.659045"/><trkpt lat="36.843119" lon="126.659121"/><trkpt lat="36.843603" lon="126.659795"/><trkpt lat="36.843637" lon="126.659846"/><trkpt lat="36.843661" lon="126.659887"/><trkpt lat="36.843699" lon="126.659975"/><trkpt lat="36.843905" lon="126.660483"/><trkpt lat="36.843927" lon="126.660543"/><trkpt lat="36.843938" lon="126.660591"/><trkpt lat="36.843951" lon="126.660672"/><trkpt lat="36.843986" lon="126.660953"/><trkpt lat="36.843994" lon="126.661"/><trkpt lat="36.844009" lon="126.661042"/><trkpt lat="36.844036" lon="126.661073"/><trkpt lat="36.844082" lon="126.661106"/></trkseg>
<trkseg><trkpt lat="36.832242" lon="126.67495"/><trkpt lat="36.831922" lon="126.675238"/><trkpt lat="36.831876" lon="126.675271"/><trkpt lat="36.831593" lon="126.675459"/><trkpt lat="36.831523" lon="126.675507"/><trkpt lat="36.831492" lon="126.675536"/><trkpt lat="36.831466" lon="126.675572"/><trkpt lat="36.831376" lon="126.675686"/><trkpt lat="36.831226" lon="126.67597"/><trkpt lat="36.831207" lon="126.676012"/><trkpt lat="36.831192" lon="126.676058"/><trkpt lat="36.831178" lon="126.676122"/><trkpt lat="36.831056" lon="126.67692"/><trkpt lat="36.830994" lon="126.677291"/><trkpt lat="36.830987" lon="126.67734"/><trkpt lat="36.830985" lon="126.677389"/><trkpt lat="36.830988" lon="126.677437"/><trkpt lat="36.831029" lon="126.67775"/><trkpt lat="36.831036" lon="126.677814"/><trkpt lat="36.831035" lon="126.677858"/><trkpt lat="36.831019" lon="126.677894"/><trkpt lat="36.830991" lon="126.677925"/><trkpt lat="36.830855" lon="126.678034"/><trkpt lat="36.830154" lon="126.678414"/><trkpt lat="36.829726" lon="126.678676"/><trkpt lat="36.82964" lon="126.678755"/><trkpt lat="36.829251" lon="126.679335"/><trkpt lat="36.829182" lon="126.679414"/><trkpt lat="36.828762" lon="126.679894"/><trkpt lat="36.828722" lon="126.679938"/><trkpt lat="36.82869" lon="126.679967"/><trkpt lat="36.828642" lon="126.679997"/><trkpt lat="36.828024" lon="126.680335"/><trkpt lat="36.827801" lon="126.680457"/><trkpt lat="36.827754" lon="126.680487"/><trkpt lat="36.827721" lon="126.680515"/><trkpt lat="36.827554" lon="126.680677"/><trkpt lat="36.827367" lon="126.680861"/><trkpt lat="36.827338" lon="126.680895"/><trkpt lat="36.827284" lon="126.680969"/><trkpt lat="36.82693" lon="126.681484"/><trkpt lat="36.826898" lon="126.681537"/><trkpt lat="36.826876" lon="126.681579"/><trkpt lat="36.826834" lon="126.681792"/><trkpt lat="36.826813" lon="126.681833"/><trkpt lat="36.826788" lon="126.681866"/><trkpt lat="36.826754" lon="126.681885"/><trkpt lat="36.826715" lon="126.681896"/><trkpt lat="36.826425" lon="126.681875"/><trkpt lat="36.826098" lon="126.681934"/><trkpt lat="36.826046" lon="126.681946"/><trkpt lat="36.826008" lon="126.681961"/><trkpt lat="36.825971" lon="126.681981"/><trkpt lat="36.825573" lon="126.682167"/><trkpt lat="36.825504" lon="126.682215"/><trkpt lat="36.82547" lon="126.682243"/><trkpt lat="36.824962" lon="126.682535"/><trkpt lat="36.824887" lon="126.682564"/><trkpt lat="36.824853" lon="126.682584"/><trkpt lat="36.824824" lon="126.682615"/><trkpt lat="36.824622" lon="126.682796"/><trkpt lat="36.824189" lon="126.683575"/></trkseg>
<trkseg><trkpt lat="36.837929" lon="126.681796"/><trkpt lat="36.837688" lon="126.681516"/><trkpt lat="36.837656" lon="126.681464"/><trkpt lat="36.837637" lon="126.681422"/><trkpt lat="36.837622" lon="126.681376"/><trkpt lat="36.83757" lon="126.681171"/><trkpt lat="36.837521" lon="126.680965"/><trkpt lat="36.837513" lon="126.680917"/><trkpt lat="36.837508" lon="126.680851"/><trkpt lat="36.837499" lon="126.680553"/><trkpt lat="36.837499" lon="126.680504"/><trkpt lat="36.837504" lon="126.680455"/><trkpt lat="36.837515" lon="126.680389"/><trkpt lat="36.837545" lon="126.680225"/><trkpt lat="36.837549" lon="126.680178"/><trkpt lat="36.837542" lon="126.680135"/><trkpt lat="36.837521" lon="126.680099"/><trkpt lat="36.837486" lon="126.680053"/><trkpt lat="36.83738" lon="126.679802"/><trkpt lat="36.83735" lon="126.679772"/><trkpt lat="36.837316" lon="126.679747"/><trkpt lat="36.837117" lon="126.67953"/><trkpt lat="36.836839" lon="126.679436"/><trkpt lat="36.836802" lon="126.679419"/><trkpt lat="36.836488" lon="126.679362"/><trkpt lat="36.83624" lon="126.679355"/><trkpt lat="36.836201" lon="126.679346"/><trkpt lat="36.836161" lon="126.679342"/><trkpt lat="36.836067" lon="126.67934"/><trkpt lat="36.835823" lon="126.679341"/><trkpt lat="36.835784" lon="126.679337"/><trkpt lat="36.835747" lon="126.679323"/><trkpt lat="36.835715" lon="126.679297"/><trkpt lat="36.835663" lon="126.679246"/><trkpt lat="36.835572" lon="126.679148"/><trkpt lat="36.835543" lon="126.679114"/><trkpt lat="36.835519" lon="126.679075"/><trkpt lat="36.83548" lon="126.67899"/><trkpt lat="36.835266" lon="126.678494"/><trkpt lat="36.835232" lon="126.678405"/><trkpt lat="36.835087" lon="126.677928"/><trkpt lat="36.835071" lon="126.677865"/><trkpt lat="36.834872" lon="126.677444"/><trkpt lat="36.834938" lon="126.677118"/><trkpt lat="36.834927" lon="126.677071"/><trkpt lat="36.83491" lon="126.677027"/><trkpt lat="36.834886" lon="126.676988"/><trkpt lat="36.83471" lon="126.676758"/><trkpt lat="36.83423" lon="126.676126"/><trkpt lat="36.834184" lon="126.676067"/><trkpt lat="36.834153" lon="126.676038"/><trkpt lat="36.834119" lon="126.676025"/><trkpt lat="36.834081" lon="126.676022"/><trkpt lat="36.833583" lon="126.675992"/><trkpt lat="36.833546" lon="126.675976"/><trkpt lat="36.833515" lon="126.675953"/><trkpt lat="36.833493" lon="126.675917"/><trkpt lat="36.833476" lon="126.675873"/><trkpt lat="36.83339" lon="126.675597"/><trkpt lat="36.833364" lon="126.675521"/><trkpt lat="36.833346" lon="126.675478"/><trkpt lat="36.8333" lon="126.675397"/><trkpt lat="36.833053" lon="126.674984"/></trkseg>
<trkseg><trkpt lat="36.818025" lon="126.670914"/><trkpt lat="36.819423" lon="126.671646"/><trkpt lat="36.81947" lon="126.671678"/><trkpt lat="36.819506" lon="126.671696"/><trkpt lat="36.819545" lon="126.671705"/><trkpt lat="36.819883" lon="126.671606"/><trkpt lat="36.819976" lon="126.671611"/><trkpt lat="36.820029" lon="126.67162"/><trkpt lat="36.821704" lon="126.672004"/><trkpt lat="36.823648" lon="126.672591"/><trkpt lat="36.8237" lon="126.672607"/><trkpt lat="36.823789" lon="126.672648"/><trkpt lat="36.824065" lon="126.672785"/><trkpt lat="36.824116" lon="126.672805"/><trkpt lat="36.824154" lon="126.672811"/><trkpt lat="36.824193" lon="126.672807"/><trkpt lat="36.824245" lon="126.672794"/><trkpt lat="36.824582" lon="126.672699"/><trkpt lat="36.824634" lon="126.672687"/><trkpt lat="36.824673" lon="126.672682"/><trkpt lat="36.824725" lon="126.672683"/><trkpt lat="36.824896" lon="126.672698"/><trkpt lat="36.824935" lon="126.672704"/><trkpt lat="36.824972" lon="126.672716"/><trkpt lat="36.825009" lon="126.672737"/><trkpt lat="36.825209" lon="126.672877"/><trkpt lat="36.825492" lon="126.673101"/><trkpt lat="36.825537" lon="126.673138"/><trkpt lat="36.825796" lon="126.673286"/><trkpt lat="36.825926" lon="126.673696"/><trkpt lat="36.826342" lon="126.674162"/><trkpt lat="36.826573" lon="126.674469"/><trkpt lat="36.826833" lon="126.674672"/><trkpt lat="36.827046" lon="126.674554"/><trkpt lat="36.827216" lon="126.674499"/><trkpt lat="36.827295" lon="126.674523"/><trkpt lat="36.827332" lon="126.674541"/><trkpt lat="36.827369" lon="126.674554"/><trkpt lat="36.827503" lon="126.674557"/><trkpt lat="36.827556" lon="126.674565"/><trkpt lat="36.827609" lon="126.674568"/><trkpt lat="36.827767" lon="126.674645"/><trkpt lat="36.827806" lon="126.674642"/><trkpt lat="36.827845" lon="126.674634"/><trkpt lat="36.827881" lon="126.674618"/><trkpt lat="36.828083" lon="126.674456"/><trkpt lat="36.828273" lon="126.674345"/><trkpt lat="36.828307" lon="126.67433"/><trkpt lat="36.828338" lon="126.674329"/><trkpt lat="36.828362" lon="126.674353"/><trkpt lat="36.828382" lon="126.674392"/><trkpt lat="36.828413" lon="126.674746"/><trkpt lat="36.828451" lon="126.674832"/><trkpt lat="36.828473" lon="126.674872"/><trkpt lat="36.828502" lon="126.674905"/><trkpt lat="36.828535" lon="126.674931"/><trkpt lat="36.828939" lon="126.675364"/><trkpt lat="36.829047" lon="126.675495"/><trkpt lat="36.829082" lon="126.675513"/><trkpt lat="36.829116" lon="126.675514"/><trkpt lat="36.829149" lon="126.675494"/><trkpt lat="36.829181" lon="126.675466"/><trkpt lat="36.829503" lon="126.675182"/><trkpt lat="36.829978" lon="126.674772"/><trkpt lat="36.830023" lon="126.674735"/><trkpt lat="36.830058" lon="126.674713"/><trkpt lat="36.830107" lon="126.674689"/><trkpt lat="36.830544" lon="126.674417"/><trkpt lat="36.830594" lon="126.674398"/><trkpt lat="36.830631" lon="126.674388"/><trkpt lat="36.830669" lon="126.67439"/><trkpt lat="36.830708" lon="126.674402"/><trkpt lat="36.830848" lon="126.67446"/><trkpt lat="36.831198" lon="126.674664"/><trkpt lat="36.831262" lon="126.674688"/><trkpt lat="36.831301" lon="126.674697"/><trkpt lat="36.831353" lon="126.674702"/><trkpt lat="36.831632" lon="126.674731"/><trkpt lat="36.831684" lon="126.674735"/><trkpt lat="36.831723" lon="126.674743"/><trkpt lat="36.831773" lon="126.674762"/><trkpt lat="36.83202" lon="126.674876"/><trkpt lat="36.832095" lon="126.674906"/><trkpt lat="36.832242" lon="126.674949"/></trkseg>
<trkseg><trkpt lat="36.832676" lon="126.669933"/><trkpt lat="36.83265" lon="126.669897"/><trkpt lat="36.832628" lon="126.669857"/><trkpt lat="36.832612" lon="126.669812"/><trkpt lat="36.832582" lon="126.66972"/><trkpt lat="36.832562" lon="126.669678"/><trkpt lat="36.832536" lon="126.669642"/><trkpt lat="36.832488" lon="126.669585"/><trkpt lat="36.832408" lon="126.669497"/><trkpt lat="36.832377" lon="126.669467"/><trkpt lat="36.832343" lon="126.669445"/><trkpt lat="36.832259" lon="126.669409"/><trkpt lat="36.832223" lon="126.669393"/><trkpt lat="36.832191" lon="126.669371"/><trkpt lat="36.832164" lon="126.669338"/><trkpt lat="36.83214" lon="126.669299"/><trkpt lat="36.832081" lon="126.669189"/><trkpt lat="36.832062" lon="126.669147"/><trkpt lat="36.832053" lon="126.669103"/><trkpt lat="36.832053" lon="126.669057"/><trkpt lat="36.832064" lon="126.668949"/><trkpt lat="36.832065" lon="126.668903"/><trkpt lat="36.832058" lon="126.668859"/><trkpt lat="36.832043" lon="126.668815"/><trkpt lat="36.831983" lon="126.668672"/><trkpt lat="36.83196" lon="126.668614"/><trkpt lat="36.831948" lon="126.66857"/><trkpt lat="36.831944" lon="126.668521"/><trkpt lat="36.831944" lon="126.668471"/><trkpt lat="36.831953" lon="126.668237"/><trkpt lat="36.831953" lon="126.66817"/><trkpt lat="36.831947" lon="126.668123"/><trkpt lat="36.831935" lon="126.66808"/><trkpt lat="36.831914" lon="126.668025"/><trkpt lat="36.831895" lon="126.667985"/><trkpt lat="36.831872" lon="126.667945"/><trkpt lat="36.831715" lon="126.667717"/><trkpt lat="36.831332" lon="126.667163"/><trkpt lat="36.831307" lon="126.667124"/><trkpt lat="36.831288" lon="126.667083"/><trkpt lat="36.831277" lon="126.667036"/><trkpt lat="36.831269" lon="126.666971"/><trkpt lat="36.831201" lon="126.666185"/><trkpt lat="36.831174" lon="126.665884"/><trkpt lat="36.831164" lon="126.665818"/><trkpt lat="36.831153" lon="126.665774"/><trkpt lat="36.83112" lon="126.665657"/><trkpt lat="36.831113" lon="126.665611"/><trkpt lat="36.831111" lon="126.665562"/><trkpt lat="36.831115" lon="126.665462"/><trkpt lat="36.831132" lon="126.665077"/><trkpt lat="36.831131" lon="126.66501"/><trkpt lat="36.831125" lon="126.664961"/><trkpt lat="36.831099" lon="126.664849"/><trkpt lat="36.831053" lon="126.664674"/><trkpt lat="36.831038" lon="126.664628"/><trkpt lat="36.83102" lon="126.664583"/><trkpt lat="36.830872" lon="126.664265"/><trkpt lat="36.830286" lon="126.663009"/><trkpt lat="36.830245" lon="126.662923"/><trkpt lat="36.830222" lon="126.662883"/><trkpt lat="36.830189" lon="126.662834"/><trkpt lat="36.830145" lon="126.662777"/><trkpt lat="36.830117" lon="126.662748"/><trkpt lat="36.830085" lon="126.662731"/><trkpt lat="36.830048" lon="126.662729"/><trkpt lat="36.829996" lon="126.662735"/><trkpt lat="36.829864" lon="126.662757"/><trkpt lat="36.829826" lon="126.662758"/><trkpt lat="36.82979" lon="126.662747"/><trkpt lat="36.829758" lon="126.662722"/><trkpt lat="36.829717" lon="126.66268"/><trkpt lat="36.829178" lon="126.662097"/><trkpt lat="36.829016" lon="126.66192"/><trkpt lat="36.828975" lon="126.661879"/><trkpt lat="36.828941" lon="126.661858"/><trkpt lat="36.828904" lon="126.661853"/><trkpt lat="36.828865" lon="126.661857"/><trkpt lat="36.828651" lon="126.661893"/><trkpt lat="36.828104" lon="126.661984"/><trkpt lat="36.82805" lon="126.66199"/><trkpt lat="36.828011" lon="126.661989"/><trkpt lat="36.827973" lon="126.661981"/><trkpt lat="36.827871" lon="126.661954"/><trkpt lat="36.827834" lon="126.661946"/><trkpt lat="36.827797" lon="126.661946"/><trkpt lat="36.827762" lon="126.661962"/><trkpt lat="36.827727" lon="126.661986"/><trkpt lat="36.827422" lon="126.66223"/><trkpt lat="36.827364" lon="126.662273"/><trkpt lat="36.827329" lon="126.662292"/><trkpt lat="36.82729" lon="126.662301"/><trkpt lat="36.827238" lon="126.662305"/><trkpt lat="36.826971" lon="126.662315"/><trkpt lat="36.826919" lon="126.662314"/><trkpt lat="36.826882" lon="126.662304"/><trkpt lat="36.826851" lon="126.66228"/><trkpt lat="36.826823" lon="126.662248"/><trkpt lat="36.826749" lon="126.662157"/><trkpt lat="36.826719" lon="126.66213"/><trkpt lat="36.826686" lon="126.662119"/><trkpt lat="36.82665" lon="126.66212"/><trkpt lat="36.8266" lon="126.662128"/><trkpt lat="36.826525" lon="126.662146"/><trkpt lat="36.826474" lon="126.662165"/><trkpt lat="36.826247" lon="126.662262"/><trkpt lat="36.826198" lon="126.662288"/><trkpt lat="36.826165" lon="126.662314"/><trkpt lat="36.826124" lon="126.662356"/><trkpt lat="36.825748" lon="126.662781"/><trkpt lat="36.825687" lon="126.662847"/><trkpt lat="36.825655" lon="126.662877"/><trkpt lat="36.825343" lon="126.663133"/><trkpt lat="36.825232" lon="126.663225"/><trkpt lat="36.825198" lon="126.663248"/><trkpt lat="36.825164" lon="126.663259"/><trkpt lat="36.82513" lon="126.66325"/><trkpt lat="36.825095" lon="126.663228"/><trkpt lat="36.824944" lon="126.663115"/><trkpt lat="36.823748" lon="126.662231"/><trkpt lat="36.823689" lon="126.662192"/><trkpt lat="36.82323" lon="126.661926"/><trkpt lat="36.823195" lon="126.661903"/><trkpt lat="36.823161" lon="126.661875"/><trkpt lat="36.823109" lon="126.661824"/><trkpt lat="36.82289" lon="126.661601"/><trkpt lat="36.822858" lon="126.661572"/><trkpt lat="36.822823" lon="126.661552"/><trkpt lat="36.822786" lon="126.661541"/><trkpt lat="36.822709" lon="126.66153"/><trkpt lat="36.822672" lon="126.661528"/><trkpt lat="36.822639" lon="126.661534"/><trkpt lat="36.822615" lon="126.66156"/><trkpt lat="36.8226" lon="126.661602"/><trkpt lat="36.822576" lon="126.661697"/><trkpt lat="36.82256" lon="126.661741"/><trkpt lat="36.822537" lon="126.66177"/><trkpt lat="36.822503" lon="126.661783"/><trkpt lat="36.822465" lon="126.661789"/><trkpt lat="36.822293" lon="126.661804"/><trkpt lat="36.82224" lon="126.661805"/><trkpt lat="36.822201" lon="126.661799"/><trkpt lat="36.822123" lon="126.661776"/><trkpt lat="36.821994" lon="126.661734"/><trkpt lat="36.821955" lon="126.661725"/><trkpt lat="36.821916" lon="126.661723"/><trkpt lat="36.821864" lon="126.66173"/><trkpt lat="36.821745" lon="126.661753"/><trkpt lat="36.821694" lon="126.661766"/><trkpt lat="36.821657" lon="126.661783"/><trkpt lat="36.821609" lon="126.661812"/><trkpt lat="36.821184" lon="126.662092"/><trkpt lat="36.821136" lon="126.662119"/><trkpt lat="36.821098" lon="126.662132"/><trkpt lat="36.820862" lon="126.66219"/><trkpt lat="36.82077" lon="126.662209"/><trkpt lat="36.820611" lon="126.662227"/><trkpt lat="36.820558" lon="126.662229"/><trkpt lat="36.820518" lon="126.662225"/><trkpt lat="36.82048" lon="126.662213"/><trkpt lat="36.820366" lon="126.662167"/><trkpt lat="36.820315" lon="126.662148"/><trkpt lat="36.820276" lon="126.662139"/><trkpt lat="36.820237" lon="126.662139"/><trkpt lat="36.820147" lon="126.662154"/><trkpt lat="36.820095" lon="126.662159"/><trkpt lat="36.820057" lon="126.662154"/><trkpt lat="36.820011" lon="126.662137"/><trkpt lat="36.819936" lon="126.662104"/></trkseg>
<trkseg><trkpt lat="36.834966" lon="126.669913"/><trkpt lat="36.834692" lon="126.670304"/><trkpt lat="36.834663" lon="126.670339"/><trkpt lat="36.834632" lon="126.67037"/><trkpt lat="36.834445" lon="126.670529"/><trkpt lat="36.834317" lon="126.670789"/><trkpt lat="36.834282" lon="126.670813"/><trkpt lat="36.834245" lon="126.67083"/><trkpt lat="36.834167" lon="126.670851"/><trkpt lat="36.833604" lon="126.670879"/><trkpt lat="36.833565" lon="126.67089"/><trkpt lat="36.83353" lon="126.670906"/><trkpt lat="36.833505" lon="126.670936"/><trkpt lat="36.833148" lon="126.671424"/><trkpt lat="36.833106" lon="126.671463"/><trkpt lat="36.833078" lon="126.671495"/><trkpt lat="36.833055" lon="126.671535"/><trkpt lat="36.83303" lon="126.671593"/><trkpt lat="36.8329" lon="126.671972"/><trkpt lat="36.832823" lon="126.672166"/><trkpt lat="36.832809" lon="126.67221"/><trkpt lat="36.832807" lon="126.672255"/><trkpt lat="36.832817" lon="126.6723"/><trkpt lat="36.832838" lon="126.67236"/><trkpt lat="36.833079" lon="126.672991"/><trkpt lat="36.833151" lon="126.673209"/><trkpt lat="36.833163" lon="126.673254"/><trkpt lat="36.833165" lon="126.673298"/><trkpt lat="36.833152" lon="126.673343"/><trkpt lat="36.833134" lon="126.673387"/><trkpt lat="36.832964" lon="126.673634"/><trkpt lat="36.832718" lon="126.6741"/><trkpt lat="36.832701" lon="126.674145"/><trkpt lat="36.832689" lon="126.674191"/><trkpt lat="36.832685" lon="126.674238"/><trkpt lat="36.832682" lon="126.674482"/><trkpt lat="36.832683" lon="126.674546"/><trkpt lat="36.832691" lon="126.674591"/><trkpt lat="36.832708" lon="126.674633"/><trkpt lat="36.832731" lon="126.674672"/><trkpt lat="36.832943" lon="126.674905"/><trkpt lat="36.832976" lon="126.674944"/><trkpt lat="36.833016" lon="126.674972"/><trkpt lat="36.833046" lon="126.674983"/><trkpt lat="36.833053" lon="126.674984"/></trkseg>
<trkseg><trkpt lat="36.84785" lon="126.6401"/><trkpt lat="36.84788" lon="126.640173"/><trkpt lat="36.847896" lon="126.640218"/><trkpt lat="36.847906" lon="126.640265"/><trkpt lat="36.847958" lon="126.640658"/><trkpt lat="36.847985" lon="126.640871"/><trkpt lat="36.847994" lon="126.640919"/><trkpt lat="36.848009" lon="126.640963"/><trkpt lat="36.848031" lon="126.641004"/><trkpt lat="36.84816" lon="126.641195"/><trkpt lat="36.848349" lon="126.641476"/><trkpt lat="36.848378" lon="126.64153"/><trkpt lat="36.848529" lon="126.641858"/><trkpt lat="36.848563" lon="126.641927"/><trkpt lat="36.848586" lon="126.641964"/><trkpt lat="36.848617" lon="126.641991"/><trkpt lat="36.848653" lon="126.642009"/><trkpt lat="36.848716" lon="126.642033"/><trkpt lat="36.848794" lon="126.642058"/><trkpt lat="36.848847" lon="126.64207"/><trkpt lat="36.849475" lon="126.642167"/><trkpt lat="36.849528" lon="126.642178"/><trkpt lat="36.849564" lon="126.642194"/><trkpt lat="36.849594" lon="126.642221"/><trkpt lat="36.849621" lon="126.642255"/><trkpt lat="36.849645" lon="126.642293"/><trkpt lat="36.849663" lon="126.642335"/><trkpt lat="36.849674" lon="126.642382"/><trkpt lat="36.849723" lon="126.642711"/><trkpt lat="36.849742" lon="126.642825"/><trkpt lat="36.849754" lon="126.642871"/><trkpt lat="36.849787" lon="126.642976"/><trkpt lat="36.849829" lon="126.643093"/><trkpt lat="36.849855" lon="126.64315"/><trkpt lat="36.849995" lon="126.643406"/><trkpt lat="36.850022" lon="126.643462"/><trkpt lat="36.850046" lon="126.643522"/><trkpt lat="36.850296" lon="126.644263"/><trkpt lat="36.85039" lon="126.644541"/><trkpt lat="36.850409" lon="126.644584"/><trkpt lat="36.850433" lon="126.644622"/><trkpt lat="36.850592" lon="126.644825"/><trkpt lat="36.850779" lon="126.645061"/><trkpt lat="36.850811" lon="126.645092"/><trkpt lat="36.850888" lon="126.645158"/><trkpt lat="36.851154" lon="126.645381"/><trkpt lat="36.851185" lon="126.645412"/><trkpt lat="36.851211" lon="126.645447"/><trkpt lat="36.85129" lon="126.645574"/><trkpt lat="36.851323" lon="126.645624"/><trkpt lat="36.85135" lon="126.645657"/><trkpt lat="36.851382" lon="126.645686"/><trkpt lat="36.851428" lon="126.64572"/><trkpt lat="36.851533" lon="126.645794"/><trkpt lat="36.851565" lon="126.645824"/><trkpt lat="36.851591" lon="126.64586"/><trkpt lat="36.851621" lon="126.645914"/><trkpt lat="36.851767" lon="126.646191"/><trkpt lat="36.851794" lon="126.646247"/><trkpt lat="36.851823" lon="126.646322"/><trkpt lat="36.85209" lon="126.64707"/><trkpt lat="36.852194" lon="126.64736"/><trkpt lat="36.852214" lon="126.647403"/><trkpt lat="36.852238" lon="126.647442"/><trkpt lat="36.852292" lon="126.647516"/><trkpt lat="36.852496" lon="126.647784"/><trkpt lat="36.852521" lon="126.647822"/><trkpt lat="36.85254" lon="126.647863"/><trkpt lat="36.852548" lon="126.647909"/><trkpt lat="36.852549" lon="126.647958"/><trkpt lat="36.852546" lon="126.648225"/><trkpt lat="36.852543" lon="126.64829"/><trkpt lat="36.852535" lon="126.648336"/><trkpt lat="36.852516" lon="126.648378"/><trkpt lat="36.852491" lon="126.648417"/><trkpt lat="36.85219" lon="126.648846"/><trkpt lat="36.852147" lon="126.64891"/><trkpt lat="36.852124" lon="126.64895"/><trkpt lat="36.851974" lon="126.649283"/><trkpt lat="36.851852" lon="126.649559"/><trkpt lat="36.851837" lon="126.649605"/><trkpt lat="36.851829" lon="126.649653"/><trkpt lat="36.851801" lon="126.650002"/><trkpt lat="36.851745" lon="126.650717"/></trkseg>
<trkseg><trkpt lat="36.839901" lon="126.667874"/><trkpt lat="36.83988" lon="126.667896"/></trkseg>
<trkseg><trkpt lat="36.845406" lon="126.636763"/><trkpt lat="36.845601" lon="126.636718"/><trkpt lat="36.845652" lon="126.636709"/><trkpt lat="36.84569" lon="126.63671"/><trkpt lat="36.845725" lon="126.636725"/><trkpt lat="36.84576" lon="126.636746"/><trkpt lat="36.845955" lon="126.636883"/><trkpt lat="36.846023" lon="126.636932"/><trkpt lat="36.846054" lon="126.636961"/><trkpt lat="36.846104" lon="126.637018"/><trkpt lat="36.84616" lon="126.637089"/><trkpt lat="36.846186" lon="126.637127"/><trkpt lat="36.846206" lon="126.637168"/><trkpt lat="36.846218" lon="126.637214"/><trkpt lat="36.846262" lon="126.637454"/><trkpt lat="36.846294" lon="126.637631"/></trkseg>
<trkseg><trkpt lat="36.85245" lon="126.657579"/><trkpt lat="36.852063" lon="126.657505"/><trkpt lat="36.851739" lon="126.657469"/><trkpt lat="36.851335" lon="126.657352"/><trkpt lat="36.85103" lon="126.657298"/><trkpt lat="36.850771" lon="126.657306"/><trkpt lat="36.850539" lon="126.657259"/><trkpt lat="36.850122" lon="126.657424"/><trkpt lat="36.849687" lon="126.657509"/><trkpt lat="36.849207" lon="126.657608"/><trkpt lat="36.848739" lon="126.65768"/><trkpt lat="36.848478" lon="126.657938"/></trkseg>
<trkseg><trkpt lat="36.848478" lon="126.657938"/><trkpt lat="36.848114" lon="126.657676"/><trkpt lat="36.847975" lon="126.657565"/><trkpt lat="36.847845" lon="126.656997"/><trkpt lat="36.84786" lon="126.656559"/><trkpt lat="36.847857" lon="126.655442"/></trkseg>
<trkseg><trkpt lat="36.848478" lon="126.657938"/><trkpt lat="36.848167" lon="126.658387"/><trkpt lat="36.847978" lon="126.65861"/><trkpt lat="36.847783" lon="126.658871"/><trkpt lat="36.847652" lon="126.658968"/><trkpt lat="36.847639" lon="126.659184"/><trkpt lat="36.847654" lon="126.659409"/><trkpt lat="36.847501" lon="126.659608"/><trkpt lat="36.847599" lon="126.659812"/><trkpt lat="36.847516" lon="126.660073"/><trkpt lat="36.847375" lon="126.660441"/><trkpt lat="36.847373" lon="126.660868"/><trkpt lat="36.8475" lon="126.661155"/><trkpt lat="36.847392" lon="126.661687"/><trkpt lat="36.847201" lon="126.66209"/><trkpt lat="36.846897" lon="126.662196"/><trkpt lat="36.846442" lon="126.661896"/><trkpt lat="36.846062" lon="126.661554"/><trkpt lat="36.845776" lon="126.661149"/><trkpt lat="36.845566" lon="126.660831"/><trkpt lat="36.845058" lon="126.660677"/><trkpt lat="36.844737" lon="126.660626"/><trkpt lat="36.844509" lon="126.66071"/><trkpt lat="36.844194" lon="126.66091"/><trkpt lat="36.844082" lon="126.661106"/></trkseg>
<trkseg><trkpt lat="36.844082" lon="126.661106"/><trkpt lat="36.844173" lon="126.661475"/><trkpt lat="36.84452" lon="126.661758"/><trkpt lat="36.8448" lon="126.66217"/><trkpt lat="36.844907" lon="126.6626"/><trkpt lat="36.844608" lon="126.663253"/><trkpt lat="36.844293" lon="126.663383"/><trkpt lat="36.844107" lon="126.663755"/><trkpt lat="36.843896" lon="126.664135"/><trkpt lat="36.843551" lon="126.664244"/><trkpt lat="36.843401" lon="126.664584"/><trkpt lat="36.843227" lon="126.664974"/><trkpt lat="36.843013" lon="126.665193"/><trkpt lat="36.84295" lon="126.665617"/><trkpt lat="36.842795" lon="126.666131"/><trkpt lat="36.842488" lon="126.666606"/></trkseg>
<trkseg><trkpt lat="36.846549" lon="126.639807"/><trkpt lat="36.846798" lon="126.639807"/><trkpt lat="36.847147" lon="126.639937"/><trkpt lat="36.847404" lon="126.640047"/><trkpt lat="36.847594" lon="126.640171"/><trkpt lat="36.847795" lon="126.640132"/><trkpt lat="36.84785" lon="126.6401"/></trkseg>
<trkseg><trkpt lat="36.851999" lon="126.658"/><trkpt lat="36.852065" lon="126.658654"/><trkpt lat="36.852195" lon="126.659174"/><trkpt lat="36.852449" lon="126.659565"/><trkpt lat="36.852688" lon="126.65997"/><trkpt lat="36.852719" lon="126.660313"/><trkpt lat="36.852422" lon="126.660672"/><trkpt lat="36.852119" lon="126.660996"/><trkpt lat="36.852078" lon="126.661291"/><trkpt lat="36.85221" lon="126.661686"/><trkpt lat="36.85273" lon="126.661989"/><trkpt lat="36.853176" lon="126.662001"/><trkpt lat="36.853527" lon="126.662045"/><trkpt lat="36.853944" lon="126.662331"/><trkpt lat="36.854187" lon="126.662698"/><trkpt lat="36.854451" lon="126.663096"/><trkpt lat="36.854658" lon="126.66331"/><trkpt lat="36.854806" lon="126.663528"/><trkpt lat="36.855058" lon="126.663975"/><trkpt lat="36.85499" lon="126.664416"/><trkpt lat="36.854375" lon="126.664949"/><trkpt lat="36.853546" lon="126.665619"/><trkpt lat="36.853376" lon="126.666515"/><trkpt lat="36.853373" lon="126.667577"/><trkpt lat="36.853536" lon="126.668187"/><trkpt lat="36.853577" lon="126.66859"/><trkpt lat="36.853063" lon="126.66846"/><trkpt lat="36.85295" lon="126.668044"/><trkpt lat="36.852875" lon="126.667094"/><trkpt lat="36.852417" lon="126.666721"/><trkpt lat="36.851518" lon="126.666405"/><trkpt lat="36.85116" lon="126.666143"/><trkpt lat="36.850652" lon="126.666125"/><trkpt lat="36.850188" lon="126.665689"/><trkpt lat="36.849608" lon="126.665623"/><trkpt lat="36.848757" lon="126.66641"/></trkseg>
<trkseg><trkpt lat="36.848757" lon="126.66641"/><trkpt lat="36.848854" lon="126.667083"/><trkpt lat="36.848677" lon="126.667841"/><trkpt lat="36.848315" lon="126.668064"/><trkpt lat="36.848216" lon="126.668641"/><trkpt lat="36.848619" lon="126.668951"/><trkpt lat="36.849077" lon="126.669157"/></trkseg>
<trkseg><trkpt lat="36.848757" lon="126.66641"/><trkpt lat="36.848151" lon="126.667246"/><trkpt lat="36.847251" lon="126.668395"/><trkpt lat="36.846795" lon="126.668959"/><trkpt lat="36.846299" lon="126.669183"/><trkpt lat="36.845768" lon="126.668762"/><trkpt lat="36.845337" lon="126.66814"/><trkpt lat="36.844818" lon="126.668024"/><trkpt lat="36.844356" lon="126.668352"/><trkpt lat="36.843827" lon="126.668646"/><trkpt lat="36.843268" lon="126.668405"/><trkpt lat="36.842848" lon="126.667512"/><trkpt lat="36.842488" lon="126.666606"/></trkseg>
<trkseg><trkpt lat="36.832676" lon="126.669933"/><trkpt lat="36.832279" lon="126.670652"/><trkpt lat="36.831724" lon="126.671307"/><trkpt lat="36.831022" lon="126.671782"/><trkpt lat="36.830638" lon="126.671971"/><trkpt lat="36.830253" lon="126.672146"/><trkpt lat="36.829785" lon="126.672044"/><trkpt lat="36.82902" lon="126.671763"/><trkpt lat="36.828678" lon="126.671452"/><trkpt lat="36.828298" lon="126.670884"/><trkpt lat="36.827937" lon="126.670463"/><trkpt lat="36.827607" lon="126.670318"/><trkpt lat="36.827431" lon="126.669976"/><trkpt lat="36.827112" lon="126.669752"/><trkpt lat="36.826758" lon="126.669687"/><trkpt lat="36.826435" lon="126.670077"/><trkpt lat="36.8259" lon="126.670121"/><trkpt lat="36.825609" lon="126.669782"/><trkpt lat="36.824927" lon="126.669327"/><trkpt lat="36.824413" lon="126.66892"/><trkpt lat="36.823636" lon="126.668459"/><trkpt lat="36.823128" lon="126.668093"/><trkpt lat="36.822664" lon="126.667665"/><trkpt lat="36.822128" lon="126.667709"/><trkpt lat="36.821582" lon="126.668003"/><trkpt lat="36.821432" lon="126.668114"/></trkseg>
<trkseg><trkpt lat="36.832242" lon="126.674949"/><trkpt lat="36.832561" lon="126.675113"/><trkpt lat="36.832614" lon="126.675125"/><trkpt lat="36.832653" lon="126.675128"/><trkpt lat="36.832706" lon="126.675122"/><trkpt lat="36.833053" lon="126.674984"/></trkseg>
<trkseg><trkpt lat="36.834966" lon="126.669913"/><trkpt lat="36.834268" lon="126.670225"/><trkpt lat="36.834217" lon="126.670245"/><trkpt lat="36.834179" lon="126.670253"/><trkpt lat="36.83414" lon="126.670249"/><trkpt lat="36.834063" lon="126.670225"/><trkpt lat="36.833433" lon="126.670007"/><trkpt lat="36.833381" lon="126.669991"/><trkpt lat="36.833342" lon="126.669982"/><trkpt lat="36.833249" lon="126.669969"/><trkpt lat="36.833196" lon="126.669966"/><trkpt lat="36.833158" lon="126.669972"/><trkpt lat="36.833124" lon="126.669991"/><trkpt lat="36.833069" lon="126.670035"/><trkpt lat="36.833036" lon="126.670061"/><trkpt lat="36.833001" lon="126.670077"/><trkpt lat="36.832965" lon="126.670076"/><trkpt lat="36.832915" lon="126.670062"/><trkpt lat="36.832813" lon="126.670025"/><trkpt lat="36.832762" lon="126.670004"/><trkpt lat="36.832727" lon="126.669984"/><trkpt lat="36.832696" lon="126.669955"/><trkpt lat="36.832676" lon="126.669933"/></trkseg>
<trkseg><trkpt lat="36.846294" lon="126.637631"/><trkpt lat="36.846714" lon="126.638042"/><trkpt lat="36.846754" lon="126.638086"/><trkpt lat="36.84699" lon="126.63838"/><trkpt lat="36.847035" lon="126.638441"/><trkpt lat="36.847074" lon="126.638508"/><trkpt lat="36.84728" lon="126.638895"/><trkpt lat="36.847323" lon="126.638979"/><trkpt lat="36.84734" lon="126.639023"/><trkpt lat="36.84737" lon="126.639124"/><trkpt lat="36.847389" lon="126.639181"/><trkpt lat="36.847409" lon="126.639223"/><trkpt lat="36.847455" lon="126.639303"/><trkpt lat="36.84761" lon="126.639567"/><trkpt lat="36.847645" lon="126.639637"/><trkpt lat="36.84785" lon="126.6401"/></trkseg>
<trkseg><trkpt lat="36.846294" lon="126.637631"/><trkpt lat="36.846553" lon="126.639563"/><trkpt lat="36.846564" lon="126.639662"/><trkpt lat="36.846564" lon="126.639711"/><trkpt lat="36.846558" lon="126.639759"/><trkpt lat="36.846549" lon="126.639807"/></trkseg>
<trkseg><trkpt lat="36.844082" lon="126.661106"/><trkpt lat="36.844262" lon="126.66122"/><trkpt lat="36.844765" lon="126.66154"/><trkpt lat="36.8448" lon="126.661565"/><trkpt lat="36.84483" lon="126.661595"/><trkpt lat="36.844852" lon="126.661634"/><trkpt lat="36.844875" lon="126.661692"/><trkpt lat="36.845095" lon="126.662316"/><trkpt lat="36.845117" lon="126.662393"/><trkpt lat="36.845183" lon="126.662691"/><trkpt lat="36.845205" lon="126.662784"/><trkpt lat="36.845221" lon="126.662828"/><trkpt lat="36.845243" lon="126.662866"/><trkpt lat="36.845293" lon="126.662937"/><trkpt lat="36.845314" lon="126.662974"/><trkpt lat="36.845324" lon="126.663016"/><trkpt lat="36.845326" lon="126.663062"/><trkpt lat="36.845318" lon="126.663222"/><trkpt lat="36.845317" lon="126.66327"/><trkpt lat="36.845321" lon="126.663318"/><trkpt lat="36.84533" lon="126.663366"/><trkpt lat="36.845369" lon="126.663524"/><trkpt lat="36.845382" lon="126.663588"/><trkpt lat="36.845386" lon="126.663638"/><trkpt lat="36.845391" lon="126.663856"/><trkpt lat="36.845395" lon="126.663974"/><trkpt lat="36.845399" lon="126.664023"/><trkpt lat="36.845448" lon="126.664402"/><trkpt lat="36.84548" lon="126.664649"/><trkpt lat="36.845482" lon="126.664698"/><trkpt lat="36.845474" lon="126.664744"/><trkpt lat="36.845458" lon="126.664791"/><trkpt lat="36.845405" lon="126.664912"/><trkpt lat="36.845401" lon="126.664922"/></trkseg>
<trkseg><trkpt lat="36.851999" lon="126.658"/><trkpt lat="36.852227" lon="126.657723"/><trkpt lat="36.852257" lon="126.657689"/><trkpt lat="36.852289" lon="126.65766"/><trkpt lat="36.852325" lon="126.657639"/><trkpt lat="36.85245" lon="126.657579"/></trkseg>
<trkseg><trkpt lat="36.85245" lon="126.657579"/><trkpt lat="36.852589" lon="126.657515"/><trkpt lat="36.852627" lon="126.657501"/><trkpt lat="36.852666" lon="126.657496"/><trkpt lat="36.852719" lon="126.657498"/><trkpt lat="36.852838" lon="126.65751"/><trkpt lat="36.852877" lon="126.65751"/><trkpt lat="36.852916" lon="126.657502"/><trkpt lat="36.852955" lon="126.657488"/><trkpt lat="36.853121" lon="126.657415"/><trkpt lat="36.853159" lon="126.657402"/><trkpt lat="36.853195" lon="126.6574"/><trkpt lat="36.853227" lon="126.657418"/><trkpt lat="36.853258" lon="126.657446"/><trkpt lat="36.8534" lon="126.657598"/><trkpt lat="36.853521" lon="126.657727"/><trkpt lat="36.853553" lon="126.657756"/><trkpt lat="36.853587" lon="126.65778"/><trkpt lat="36.853636" lon="126.657806"/><trkpt lat="36.853931" lon="126.657953"/><trkpt lat="36.853992" lon="126.65798"/><trkpt lat="36.854028" lon="126.657989"/><trkpt lat="36.854062" lon="126.657979"/><trkpt lat="36.854095" lon="126.657956"/><trkpt lat="36.854233" lon="126.657826"/><trkpt lat="36.854439" lon="126.657666"/><trkpt lat="36.85447" lon="126.657639"/><trkpt lat="36.854501" lon="126.657623"/><trkpt lat="36.854529" lon="126.657631"/><trkpt lat="36.854556" lon="126.65766"/><trkpt lat="36.85459" lon="126.657708"/><trkpt lat="36.854876" lon="126.657873"/></trkseg>
</trk>
</gpx>
