<?xml version="1.0" encoding="UTF-8"?>
<gpx version="1.1" creator="letnaturechoose" xmlns="http://www.topografix.com/GPX/1/1">
<metadata><name>묵방산 등산로</name></metadata>
<trk><name>묵방산</name>
<trkseg><trkpt lat="35.828074" lon="127.136644"/><trkpt lat="35.828847" lon="127.13933"/><trkpt lat="35.829071" lon="127.140687"/><trkpt lat="35.8294" lon="127.141091"/><trkpt lat="35.829902" lon="127.141716"/><trkpt lat="35.830483" lon="127.142352"/><trkpt lat="35.831654" lon="127.143712"/><trkpt lat="35.832608" lon="127.144864"/><trkpt lat="35.833961" lon="127.14653"/><trkpt lat="35.83501" lon="127.14823"/><trkpt lat="35.836072" lon="127.150649"/><trkpt lat="35.836263" lon="127.152514"/><trkpt lat="35.836464" lon="127.15404"/><trkpt lat="35.836654" lon="127.156154"/><trkpt lat="35.836865" lon="127.15772"/><trkpt lat="35.83785" lon="127.162067"/><trkpt lat="35.838363" lon="127.16435"/><trkpt lat="35.838847" lon="127.166463"/><trkpt lat="35.839294" lon="127.167682"/><trkpt lat="35.839639" lon="127.168488"/><trkpt lat="35.839877" lon="127.168997"/><trkpt lat="35.839902" lon="127.169036"/></trkseg>
<trkseg><trkpt lat="35.817254" lon="127.220222"/><trkpt lat="35.817111" lon="127.219995"/><trkpt lat="35.817032" lon="127.219831"/><trkpt lat="35.816972" lon="127.219633"/><trkpt lat="35.816949" lon="127.219412"/><trkpt lat="35.816964" lon="127.219133"/><trkpt lat="35.816985" lon="127.219001"/><trkpt lat="35.81703" lon="127.21863"/><trkpt lat="35.816992" lon="127.218143"/><trkpt lat="35.816906" lon="127.217714"/><trkpt lat="35.816801" lon="127.217405"/><trkpt lat="35.816717" lon="127.217118"/><trkpt lat="35.816712" lon="127.216758"/><trkpt lat="35.81664" lon="127.216474"/><trkpt lat="35.816721" lon="127.216347"/><trkpt lat="35.816876" lon="127.215961"/><trkpt lat="35.816984" lon="127.215589"/><trkpt lat="35.817193" lon="127.215212"/><trkpt lat="35.817338" lon="127.214655"/><trkpt lat="35.817424" lon="127.21405"/><trkpt lat="35.817404" lon="127.213369"/><trkpt lat="35.817373" lon="127.21287"/><trkpt lat="35.817412" lon="127.212283"/></trkseg>
<trkseg><trkpt lat="35.832044" lon="127.179698"/><trkpt lat="35.83225" lon="127.180105"/><trkpt lat="35.832543" lon="127.180481"/><trkpt lat="35.832676" lon="127.180653"/><trkpt lat="35.832817" lon="127.180905"/><trkpt lat="35.833143" lon="127.181265"/><trkpt lat="35.833212" lon="127.181406"/></trkseg>
<trkseg><trkpt lat="35.831084" lon="127.177185"/><trkpt lat="35.830939" lon="127.177218"/><trkpt lat="35.830784" lon="127.177233"/><trkpt lat="35.830702" lon="127.177343"/><trkpt lat="35.830657" lon="127.177503"/><trkpt lat="35.830542" lon="127.177629"/><trkpt lat="35.830464" lon="127.177716"/><trkpt lat="35.830317" lon="127.1778"/><trkpt lat="35.830173" lon="127.177906"/><trkpt lat="35.83003" lon="127.178021"/><trkpt lat="35.829947" lon="127.178258"/><trkpt lat="35.829824" lon="127.178375"/><trkpt lat="35.829727" lon="127.178222"/><trkpt lat="35.829683" lon="127.178357"/><trkpt lat="35.829393" lon="127.178771"/><trkpt lat="35.829255" lon="127.178858"/><trkpt lat="35.829083" lon="127.179033"/><trkpt lat="35.828663" lon="127.179309"/><trkpt lat="35.828529" lon="127.179484"/><trkpt lat="35.828504" lon="127.179504"/></trkseg>
<trkseg><trkpt lat="35.82508" lon="127.184459"/><trkpt lat="35.825635" lon="127.184457"/><trkpt lat="35.825773" lon="127.184386"/><trkpt lat="35.825816" lon="127.184513"/><trkpt lat="35.825848" lon="127.184616"/><trkpt lat="35.825933" lon="127.184713"/><trkpt lat="35.825944" lon="127.185015"/><trkpt lat="35.826018" lon="127.185124"/><trkpt lat="35.826131" lon="127.185212"/><trkpt lat="35.82631" lon="127.185242"/><trkpt lat="35.826471" lon="127.185339"/><trkpt lat="35.82666" lon="127.185443"/></trkseg>
<trkseg><trkpt lat="35.826379" lon="127.186716"/><trkpt lat="35.826274" lon="127.186639"/><trkpt lat="35.826161" lon="127.186626"/><trkpt lat="35.825989" lon="127.186565"/><trkpt lat="35.825859" lon="127.186488"/><trkpt lat="35.82573" lon="127.186423"/><trkpt lat="35.825622" lon="127.186291"/><trkpt lat="35.825555" lon="127.186118"/><trkpt lat="35.825553" lon="127.185832"/><trkpt lat="35.825607" lon="127.185608"/><trkpt lat="35.825273" lon="127.185561"/></trkseg>
<trkseg><trkpt lat="35.824159" lon="127.179474"/><trkpt lat="35.823926" lon="127.179503"/><trkpt lat="35.823769" lon="127.179459"/><trkpt lat="35.823632" lon="127.17941"/><trkpt lat="35.823482" lon="127.17943"/><trkpt lat="35.823408" lon="127.179502"/><trkpt lat="35.823399" lon="127.179618"/><trkpt lat="35.823434" lon="127.179747"/><trkpt lat="35.823538" lon="127.179931"/><trkpt lat="35.823667" lon="127.180148"/><trkpt lat="35.823688" lon="127.18043"/><trkpt lat="35.823621" lon="127.180671"/><trkpt lat="35.823498" lon="127.180888"/><trkpt lat="35.823418" lon="127.18119"/><trkpt lat="35.823422" lon="127.181354"/><trkpt lat="35.823323" lon="127.181434"/><trkpt lat="35.823173" lon="127.181516"/><trkpt lat="35.823156" lon="127.181671"/><trkpt lat="35.823055" lon="127.181829"/><trkpt lat="35.823048" lon="127.181982"/><trkpt lat="35.823044" lon="127.182153"/><trkpt lat="35.822988" lon="127.182319"/><trkpt lat="35.823026" lon="127.182473"/><trkpt lat="35.822997" lon="127.182671"/><trkpt lat="35.822937" lon="127.182811"/><trkpt lat="35.822842" lon="127.182923"/><trkpt lat="35.822751" lon="127.183017"/><trkpt lat="35.82266" lon="127.183116"/><trkpt lat="35.822606" lon="127.183216"/><trkpt lat="35.822559" lon="127.183303"/><trkpt lat="35.822542" lon="127.183328"/></trkseg>
<trkseg><trkpt lat="35.822542" lon="127.183328"/><trkpt lat="35.822665" lon="127.183433"/><trkpt lat="35.822797" lon="127.183503"/><trkpt lat="35.823037" lon="127.183618"/><trkpt lat="35.823172" lon="127.183667"/><trkpt lat="35.823319" lon="127.183578"/><trkpt lat="35.823474" lon="127.183481"/><trkpt lat="35.82359" lon="127.183534"/></trkseg>
<trkseg><trkpt lat="35.822542" lon="127.183328"/><trkpt lat="35.8225" lon="127.183516"/><trkpt lat="35.822466" lon="127.183645"/><trkpt lat="35.822387" lon="127.18378"/><trkpt lat="35.822405" lon="127.18398"/><trkpt lat="35.822334" lon="127.184214"/><trkpt lat="35.822369" lon="127.184405"/><trkpt lat="35.822304" lon="127.184758"/><trkpt lat="35.822235" lon="127.185023"/><trkpt lat="35.822291" lon="127.185175"/><trkpt lat="35.822294" lon="127.185327"/><trkpt lat="35.822329" lon="127.185497"/><trkpt lat="35.822321" lon="127.185687"/><trkpt lat="35.822343" lon="127.185815"/><trkpt lat="35.822332" lon="127.18599"/><trkpt lat="35.822252" lon="127.186184"/><trkpt lat="35.822278" lon="127.186383"/><trkpt lat="35.822221" lon="127.186557"/><trkpt lat="35.822184" lon="127.186679"/><trkpt lat="35.822079" lon="127.187091"/><trkpt lat="35.822031" lon="127.187347"/><trkpt lat="35.821999" lon="127.187574"/><trkpt lat="35.822003" lon="127.187735"/><trkpt lat="35.82205" lon="127.187897"/><trkpt lat="35.822176" lon="127.188093"/><trkpt lat="35.822206" lon="127.188364"/><trkpt lat="35.822248" lon="127.188527"/><trkpt lat="35.822284" lon="127.188751"/><trkpt lat="35.822477" lon="127.188966"/><trkpt lat="35.822693" lon="127.18907"/><trkpt lat="35.822956" lon="127.189189"/><trkpt lat="35.823323" lon="127.189362"/><trkpt lat="35.823627" lon="127.189694"/><trkpt lat="35.82376" lon="127.189842"/><trkpt lat="35.82398" lon="127.19019"/><trkpt lat="35.823979" lon="127.190371"/><trkpt lat="35.823983" lon="127.190417"/></trkseg>
<trkseg><trkpt lat="35.825549" lon="127.188819"/><trkpt lat="35.825547" lon="127.188584"/><trkpt lat="35.825502" lon="127.188289"/><trkpt lat="35.825454" lon="127.188072"/><trkpt lat="35.825379" lon="127.18788"/><trkpt lat="35.825304" lon="127.187748"/><trkpt lat="35.825242" lon="127.187593"/><trkpt lat="35.825195" lon="127.18739"/><trkpt lat="35.825133" lon="127.187203"/><trkpt lat="35.825177" lon="127.187026"/><trkpt lat="35.825197" lon="127.186928"/><trkpt lat="35.825204" lon="127.186835"/><trkpt lat="35.825235" lon="127.186711"/><trkpt lat="35.825325" lon="127.186599"/><trkpt lat="35.825261" lon="127.18652"/><trkpt lat="35.825192" lon="127.186368"/></trkseg>
<trkseg><trkpt lat="35.816374" lon="127.182825"/><trkpt lat="35.816298" lon="127.183575"/><trkpt lat="35.815324" lon="127.186787"/><trkpt lat="35.815167" lon="127.189346"/><trkpt lat="35.815189" lon="127.190428"/><trkpt lat="35.816865" lon="127.192904"/><trkpt lat="35.817564" lon="127.194244"/><trkpt lat="35.818274" lon="127.195266"/><trkpt lat="35.818844" lon="127.19635"/><trkpt lat="35.818935" lon="127.197207"/><trkpt lat="35.820009" lon="127.198772"/><trkpt lat="35.820114" lon="127.200357"/><trkpt lat="35.820403" lon="127.201612"/><trkpt lat="35.820039" lon="127.202998"/><trkpt lat="35.818461" lon="127.205812"/><trkpt lat="35.817676" lon="127.208313"/><trkpt lat="35.817748" lon="127.208574"/><trkpt lat="35.817574" lon="127.208966"/><trkpt lat="35.817488" lon="127.209067"/></trkseg>
<trkseg><trkpt lat="35.839902" lon="127.169036"/><trkpt lat="35.839633" lon="127.169267"/><trkpt lat="35.839249" lon="127.169567"/><trkpt lat="35.838778" lon="127.170018"/><trkpt lat="35.838296" lon="127.170312"/><trkpt lat="35.837751" lon="127.17091"/><trkpt lat="35.83721" lon="127.17144"/><trkpt lat="35.836877" lon="127.171727"/><trkpt lat="35.835883" lon="127.172503"/><trkpt lat="35.833927" lon="127.173532"/><trkpt lat="35.830564" lon="127.175081"/><trkpt lat="35.82944" lon="127.175482"/><trkpt lat="35.828684" lon="127.175983"/><trkpt lat="35.826262" lon="127.177236"/><trkpt lat="35.821588" lon="127.179934"/><trkpt lat="35.816401" lon="127.182813"/><trkpt lat="35.816374" lon="127.182825"/></trkseg>
<trkseg><trkpt lat="35.816374" lon="127.182825"/><trkpt lat="35.815202" lon="127.183357"/><trkpt lat="35.815191" lon="127.183066"/><trkpt lat="35.815427" lon="127.182687"/><trkpt lat="35.816371" lon="127.182801"/><trkpt lat="35.816374" lon="127.182825"/></trkseg>
<trkseg><trkpt lat="35.817412" lon="127.212283"/><trkpt lat="35.817551" lon="127.211517"/><trkpt lat="35.817478" lon="127.211117"/><trkpt lat="35.817375" lon="127.210581"/><trkpt lat="35.817459" lon="127.209278"/><trkpt lat="35.817488" lon="127.209067"/></trkseg>
<trkseg><trkpt lat="35.808245" lon="127.226203"/><trkpt lat="35.808102" lon="127.22619"/><trkpt lat="35.808065" lon="127.22619"/><trkpt lat="35.807984" lon="127.226113"/><trkpt lat="35.807908" lon="127.226097"/><trkpt lat="35.807787" lon="127.226037"/><trkpt lat="35.807668" lon="127.226"/><trkpt lat="35.807488" lon="127.225912"/><trkpt lat="35.80742" lon="127.225743"/><trkpt lat="35.807331" lon="127.225547"/><trkpt lat="35.807275" lon="127.225374"/><trkpt lat="35.807291" lon="127.225286"/><trkpt lat="35.807237" lon="127.225181"/><trkpt lat="35.807199" lon="127.225045"/><trkpt lat="35.807146" lon="127.224773"/><trkpt lat="35.806987" lon="127.224477"/><trkpt lat="35.806868" lon="127.224361"/><trkpt lat="35.806792" lon="127.224204"/><trkpt lat="35.806596" lon="127.224078"/><trkpt lat="35.80638" lon="127.223977"/><trkpt lat="35.806143" lon="127.223738"/><trkpt lat="35.805946" lon="127.223512"/><trkpt lat="35.8058" lon="127.223386"/><trkpt lat="35.805677" lon="127.223349"/><trkpt lat="35.805547" lon="127.223193"/><trkpt lat="35.805301" lon="127.223023"/><trkpt lat="35.805091" lon="127.22282"/><trkpt lat="35.804962" lon="127.222691"/><trkpt lat="35.80476" lon="127.222538"/><trkpt lat="35.804607" lon="127.22244"/><trkpt lat="35.804574" lon="127.222286"/><trkpt lat="35.804453" lon="127.22201"/><trkpt lat="35.804377" lon="127.221784"/><trkpt lat="35.804275" lon="127.221585"/><trkpt lat="35.804156" lon="127.221293"/><trkpt lat="35.80394" lon="127.22115"/><trkpt lat="35.803722" lon="127.220934"/><trkpt lat="35.803579" lon="127.220758"/><trkpt lat="35.803401" lon="127.220718"/><trkpt lat="35.803252" lon="127.220652"/><trkpt lat="35.803245" lon="127.220463"/><trkpt lat="35.803277" lon="127.220227"/><trkpt lat="35.803177" lon="127.22001"/><trkpt lat="35.80304" lon="127.219734"/><trkpt lat="35.802876" lon="127.219524"/><trkpt lat="35.802773" lon="127.219398"/><trkpt lat="35.802661" lon="127.219224"/><trkpt lat="35.802474" lon="127.218979"/><trkpt lat="35.80232" lon="127.218749"/><trkpt lat="35.802328" lon="127.218473"/><trkpt lat="35.802275" lon="127.218291"/><trkpt lat="35.802155" lon="127.218037"/><trkpt lat="35.802037" lon="127.217835"/><trkpt lat="35.801938" lon="127.217738"/><trkpt lat="35.801825" lon="127.217632"/><trkpt lat="35.801698" lon="127.217519"/><trkpt lat="35.801645" lon="127.217448"/><trkpt lat="35.801571" lon="127.21732"/><trkpt lat="35.801714" lon="127.217097"/><trkpt lat="35.80193" lon="127.216841"/><trkpt lat="35.802062" lon="127.216686"/><trkpt lat="35.802215" lon="127.216516"/><trkpt lat="35.802327" lon="127.216445"/><trkpt lat="35.802358" lon="127.216171"/><trkpt lat="35.802401" lon="127.215878"/><trkpt lat="35.802444" lon="127.215639"/><trkpt lat="35.802539" lon="127.21557"/><trkpt lat="35.802803" lon="127.215473"/><trkpt lat="35.803059" lon="127.21528"/><trkpt lat="35.803237" lon="127.214918"/><trkpt lat="35.803361" lon="127.214549"/><trkpt lat="35.80342" lon="127.21434"/><trkpt lat="35.803442" lon="127.21421"/><trkpt lat="35.803509" lon="127.214101"/><trkpt lat="35.803803" lon="127.214028"/><trkpt lat="35.804024" lon="127.213934"/><trkpt lat="35.804207" lon="127.213881"/><trkpt lat="35.804487" lon="127.213848"/><trkpt lat="35.804682" lon="127.213769"/><trkpt lat="35.80483" lon="127.21349"/><trkpt lat="35.804868" lon="127.213214"/><trkpt lat="35.804897" lon="127.213041"/><trkpt lat="35.804854" lon="127.212704"/><trkpt lat="35.804927" lon="127.21236"/><trkpt lat="35.804951" lon="127.212068"/><trkpt lat="35.80493" lon="127.211805"/><trkpt lat="35.804943" lon="127.21148"/><trkpt lat="35.80507" lon="127.211021"/><trkpt lat="35.805278" lon="127.210721"/><trkpt lat="35.805288" lon="127.210518"/><trkpt lat="35.805262" lon="127.21014"/><trkpt lat="35.805176" lon="127.209883"/><trkpt lat="35.805111" lon="127.209714"/><trkpt lat="35.805113" lon="127.209428"/><trkpt lat="35.805226" lon="127.209086"/><trkpt lat="35.805332" lon="127.208704"/><trkpt lat="35.805402" lon="127.208475"/><trkpt lat="35.805415" lon="127.208116"/><trkpt lat="35.805456" lon="127.207943"/><trkpt lat="35.805402" lon="127.207724"/><trkpt lat="35.805431" lon="127.207608"/><trkpt lat="35.805499" lon="127.207449"/><trkpt lat="35.80559" lon="127.207253"/><trkpt lat="35.805768" lon="127.207103"/><trkpt lat="35.805973" lon="127.206943"/><trkpt lat="35.806232" lon="127.206804"/><trkpt lat="35.806458" lon="127.206608"/><trkpt lat="35.806606" lon="127.206485"/><trkpt lat="35.806717" lon="127.206212"/><trkpt lat="35.806892" lon="127.206023"/><trkpt lat="35.807026" lon="127.205749"/><trkpt lat="35.807205" lon="127.205495"/><trkpt lat="35.807366" lon="127.205232"/><trkpt lat="35.807552" lon="127.205063"/><trkpt lat="35.807738" lon="127.204923"/><trkpt lat="35.807935" lon="127.2048"/><trkpt lat="35.807997" lon="127.20453"/><trkpt lat="35.808132" lon="127.204407"/><trkpt lat="35.808283" lon="127.204434"/><trkpt lat="35.808359" lon="127.204378"/><trkpt lat="35.808555" lon="127.204334"/><trkpt lat="35.808741" lon="127.204261"/><trkpt lat="35.808962" lon="127.204112"/><trkpt lat="35.809142" lon="127.203987"/><trkpt lat="35.80921" lon="127.203861"/><trkpt lat="35.80934" lon="127.203771"/><trkpt lat="35.809398" lon="127.203656"/><trkpt lat="35.809431" lon="127.203409"/><trkpt lat="35.809479" lon="127.203276"/><trkpt lat="35.809461" lon="127.2032"/><trkpt lat="35.809507" lon="127.20302"/><trkpt lat="35.809561" lon="127.202784"/><trkpt lat="35.809601" lon="127.202591"/><trkpt lat="35.809679" lon="127.202365"/><trkpt lat="35.809746" lon="127.202163"/><trkpt lat="35.809807" lon="127.201926"/><trkpt lat="35.809776" lon="127.201709"/><trkpt lat="35.809803" lon="127.201516"/><trkpt lat="35.809906" lon="127.201267"/><trkpt lat="35.809981" lon="127.20107"/><trkpt lat="35.810086" lon="127.200808"/><trkpt lat="35.81027" lon="127.200625"/><trkpt lat="35.810523" lon="127.200426"/><trkpt lat="35.810636" lon="127.20023"/><trkpt lat="35.81076" lon="127.199951"/><trkpt lat="35.810761" lon="127.199723"/><trkpt lat="35.810725" lon="127.199565"/><trkpt lat="35.8108" lon="127.199392"/><trkpt lat="35.810871" lon="127.19908"/><trkpt lat="35.810844" lon="127.198788"/><trkpt lat="35.810844" lon="127.198533"/><trkpt lat="35.810892" lon="127.198386"/><trkpt lat="35.81093" lon="127.198247"/><trkpt lat="35.810989" lon="127.198087"/><trkpt lat="35.810938" lon="127.197961"/><trkpt lat="35.810838" lon="127.197782"/><trkpt lat="35.810687" lon="127.197605"/><trkpt lat="35.81059" lon="127.197433"/><trkpt lat="35.810544" lon="127.197227"/><trkpt lat="35.81048" lon="127.197077"/><trkpt lat="35.810445" lon="127.197014"/><trkpt lat="35.810342" lon="127.196775"/><trkpt lat="35.810375" lon="127.196586"/><trkpt lat="35.810342" lon="127.19639"/><trkpt lat="35.810294" lon="127.196051"/><trkpt lat="35.8102" lon="127.195809"/><trkpt lat="35.810043" lon="127.195609"/><trkpt lat="35.81" lon="127.195363"/><trkpt lat="35.810011" lon="127.195141"/><trkpt lat="35.81014" lon="127.194878"/><trkpt lat="35.810216" lon="127.194739"/><trkpt lat="35.810248" lon="127.194545"/><trkpt lat="35.810176" lon="127.194289"/><trkpt lat="35.810119" lon="127.193904"/><trkpt lat="35.810014" lon="127.193612"/><trkpt lat="35.809879" lon="127.193319"/><trkpt lat="35.80978" lon="127.193058"/><trkpt lat="35.809848" lon="127.192811"/><trkpt lat="35.809898" lon="127.192518"/><trkpt lat="35.810008" lon="127.192229"/><trkpt lat="35.810073" lon="127.192026"/><trkpt lat="35.809995" lon="127.19181"/><trkpt lat="35.810022" lon="127.191601"/><trkpt lat="35.810099" lon="127.191401"/><trkpt lat="35.810207" lon="127.191271"/><trkpt lat="35.810183" lon="127.191105"/><trkpt lat="35.810188" lon="127.190866"/><trkpt lat="35.810299" lon="127.190713"/><trkpt lat="35.810371" lon="127.190594"/><trkpt lat="35.810483" lon="127.190416"/><trkpt lat="35.810599" lon="127.190316"/><trkpt lat="35.810768" lon="127.190186"/><trkpt lat="35.810963" lon="127.190164"/><trkpt lat="35.811058" lon="127.189989"/><trkpt lat="35.811102" lon="127.189813"/><trkpt lat="35.811082" lon="127.189712"/><trkpt lat="35.81108" lon="127.189606"/><trkpt lat="35.811099" lon="127.189442"/><trkpt lat="35.811087" lon="127.189232"/><trkpt lat="35.81104" lon="127.189104"/><trkpt lat="35.81106" lon="127.18887"/><trkpt lat="35.811018" lon="127.188618"/><trkpt lat="35.811091" lon="127.188408"/><trkpt lat="35.811296" lon="127.18817"/><trkpt lat="35.811409" lon="127.18812"/><trkpt lat="35.811361" lon="127.187978"/><trkpt lat="35.811262" lon="127.187875"/><trkpt lat="35.811318" lon="127.187691"/><trkpt lat="35.811235" lon="127.187555"/><trkpt lat="35.811243" lon="127.187325"/><trkpt lat="35.811169" lon="127.187235"/><trkpt lat="35.811232" lon="127.187093"/><trkpt lat="35.811211" lon="127.187054"/><trkpt lat="35.811135" lon="127.186979"/><trkpt lat="35.811102" lon="127.186877"/><trkpt lat="35.810969" lon="127.186793"/><trkpt lat="35.81081" lon="127.186759"/><trkpt lat="35.810648" lon="127.186835"/><trkpt lat="35.810252" lon="127.187087"/><trkpt lat="35.810173" lon="127.187205"/><trkpt lat="35.810064" lon="127.187368"/><trkpt lat="35.809822" lon="127.187246"/><trkpt lat="35.809793" lon="127.187149"/></trkseg>
<trkseg><trkpt lat="35.808245" lon="127.226203"/><trkpt lat="35.808388" lon="127.225896"/><trkpt lat="35.80848" lon="127.225584"/><trkpt lat="35.808504" lon="127.225338"/><trkpt lat="35.80845" lon="127.224883"/><trkpt lat="35.808469" lon="127.224461"/><trkpt lat="35.80861" lon="127.224226"/><trkpt lat="35.80868" lon="127.224004"/><trkpt lat="35.808717" lon="127.223784"/><trkpt lat="35.808774" lon="127.223588"/><trkpt lat="35.808833" lon="127.223419"/><trkpt lat="35.808936" lon="127.22317"/><trkpt lat="35.809009" lon="127.22303"/><trkpt lat="35.809154" lon="127.222817"/><trkpt lat="35.809278" lon="127.222721"/><trkpt lat="35.809642" lon="127.222726"/><trkpt lat="35.809844" lon="127.222683"/><trkpt lat="35.8102" lon="127.222473"/><trkpt lat="35.810384" lon="127.222334"/><trkpt lat="35.810551" lon="127.222252"/><trkpt lat="35.810823" lon="127.22228"/><trkpt lat="35.811036" lon="127.222274"/><trkpt lat="35.811241" lon="127.222131"/><trkpt lat="35.811486" lon="127.221981"/><trkpt lat="35.811815" lon="127.221848"/><trkpt lat="35.812107" lon="127.221592"/><trkpt lat="35.812271" lon="127.221416"/><trkpt lat="35.812406" lon="127.22116"/><trkpt lat="35.812398" lon="127.220951"/><trkpt lat="35.812443" lon="127.220755"/><trkpt lat="35.812527" lon="127.220619"/><trkpt lat="35.812627" lon="127.220442"/><trkpt lat="35.812829" lon="127.22016"/><trkpt lat="35.813029" lon="127.219848"/><trkpt lat="35.813112" lon="127.219472"/><trkpt lat="35.813158" lon="127.219326"/><trkpt lat="35.813169" lon="127.219223"/><trkpt lat="35.813295" lon="127.21898"/><trkpt lat="35.813411" lon="127.218821"/><trkpt lat="35.813535" lon="127.218571"/><trkpt lat="35.813597" lon="127.218468"/><trkpt lat="35.813768" lon="127.218243"/><trkpt lat="35.813892" lon="127.218037"/><trkpt lat="35.813991" lon="127.217804"/><trkpt lat="35.814083" lon="127.217462"/><trkpt lat="35.814121" lon="127.217209"/><trkpt lat="35.814264" lon="127.21681"/><trkpt lat="35.814352" lon="127.216614"/><trkpt lat="35.814423" lon="127.216515"/><trkpt lat="35.814498" lon="127.216305"/><trkpt lat="35.814643" lon="127.216066"/><trkpt lat="35.814697" lon="127.215996"/><trkpt lat="35.814743" lon="127.215893"/><trkpt lat="35.814827" lon="127.215634"/><trkpt lat="35.814924" lon="127.215332"/><trkpt lat="35.814902" lon="127.215156"/><trkpt lat="35.814919" lon="127.214774"/><trkpt lat="35.814913" lon="127.214475"/><trkpt lat="35.814867" lon="127.214229"/><trkpt lat="35.81497" lon="127.213783"/><trkpt lat="35.815177" lon="127.213547"/><trkpt lat="35.815247" lon="127.213285"/><trkpt lat="35.815315" lon="127.213065"/><trkpt lat="35.815319" lon="127.212963"/></trkseg>
<trkseg><trkpt lat="35.808245" lon="127.226203"/><trkpt lat="35.808288" lon="127.226579"/><trkpt lat="35.808404" lon="127.226788"/><trkpt lat="35.808428" lon="127.226971"/><trkpt lat="35.808436" lon="127.227321"/><trkpt lat="35.808463" lon="127.22748"/><trkpt lat="35.808447" lon="127.22765"/><trkpt lat="35.808434" lon="127.227786"/><trkpt lat="35.808488" lon="127.227969"/><trkpt lat="35.808475" lon="127.228173"/><trkpt lat="35.808587" lon="127.228278"/><trkpt lat="35.808731" lon="127.228234"/><trkpt lat="35.808855" lon="127.228221"/><trkpt lat="35.809129" lon="127.228291"/><trkpt lat="35.809229" lon="127.228321"/><trkpt lat="35.809545" lon="127.228334"/><trkpt lat="35.809768" lon="127.228284"/><trkpt lat="35.810024" lon="127.228319"/><trkpt lat="35.81013" lon="127.228292"/><trkpt lat="35.810377" lon="127.228279"/><trkpt lat="35.810633" lon="127.228316"/><trkpt lat="35.810806" lon="127.228382"/><trkpt lat="35.810957" lon="127.228316"/><trkpt lat="35.81111" lon="127.228276"/><trkpt lat="35.811326" lon="127.228282"/><trkpt lat="35.811687" lon="127.228282"/><trkpt lat="35.811968" lon="127.228284"/><trkpt lat="35.812124" lon="127.228284"/><trkpt lat="35.812337" lon="127.228247"/><trkpt lat="35.812598" lon="127.228297"/><trkpt lat="35.812728" lon="127.22838"/><trkpt lat="35.812787" lon="127.22852"/><trkpt lat="35.813064" lon="127.228598"/><trkpt lat="35.813196" lon="127.228698"/><trkpt lat="35.813404" lon="127.228937"/><trkpt lat="35.813558" lon="127.229072"/></trkseg>
<trkseg><trkpt lat="35.813558" lon="127.229072"/><trkpt lat="35.813642" lon="127.229415"/><trkpt lat="35.813803" lon="127.229645"/><trkpt lat="35.813954" lon="127.229857"/><trkpt lat="35.814043" lon="127.230132"/><trkpt lat="35.814199" lon="127.230158"/><trkpt lat="35.81455" lon="127.230132"/><trkpt lat="35.814741" lon="127.230125"/><trkpt lat="35.814858" lon="127.230147"/><trkpt lat="35.814951" lon="127.230133"/><trkpt lat="35.815105" lon="127.23013"/><trkpt lat="35.815272" lon="127.230177"/><trkpt lat="35.81556" lon="127.230223"/><trkpt lat="35.815666" lon="127.230354"/><trkpt lat="35.815744" lon="127.230416"/><trkpt lat="35.815848" lon="127.230418"/><trkpt lat="35.816024" lon="127.230374"/><trkpt lat="35.816207" lon="127.230314"/><trkpt lat="35.816331" lon="127.230432"/><trkpt lat="35.816567" lon="127.230432"/><trkpt lat="35.816824" lon="127.230479"/><trkpt lat="35.816902" lon="127.230505"/><trkpt lat="35.817078" lon="127.230527"/><trkpt lat="35.817226" lon="127.2306"/><trkpt lat="35.817326" lon="127.230699"/><trkpt lat="35.817517" lon="127.230888"/><trkpt lat="35.817682" lon="127.230978"/><trkpt lat="35.817814" lon="127.230974"/><trkpt lat="35.817911" lon="127.230951"/><trkpt lat="35.818135" lon="127.230939"/><trkpt lat="35.818284" lon="127.230989"/><trkpt lat="35.818383" lon="127.231046"/><trkpt lat="35.818458" lon="127.231072"/><trkpt lat="35.818585" lon="127.231095"/><trkpt lat="35.818752" lon="127.231257"/><trkpt lat="35.818981" lon="127.231413"/><trkpt lat="35.819132" lon="127.231579"/><trkpt lat="35.819272" lon="127.231895"/><trkpt lat="35.819342" lon="127.231941"/><trkpt lat="35.819574" lon="127.232139"/><trkpt lat="35.819666" lon="127.232166"/><trkpt lat="35.819841" lon="127.232322"/><trkpt lat="35.819906" lon="127.232591"/><trkpt lat="35.81992" lon="127.232947"/><trkpt lat="35.819882" lon="127.23313"/><trkpt lat="35.81993" lon="127.233392"/><trkpt lat="35.820103" lon="127.233701"/><trkpt lat="35.820186" lon="127.233977"/><trkpt lat="35.820211" lon="127.234057"/><trkpt lat="35.820313" lon="127.234296"/><trkpt lat="35.820289" lon="127.234522"/><trkpt lat="35.820315" lon="127.234682"/><trkpt lat="35.820415" lon="127.234825"/><trkpt lat="35.820491" lon="127.235001"/><trkpt lat="35.820669" lon="127.235203"/><trkpt lat="35.820733" lon="127.23533"/><trkpt lat="35.820779" lon="127.235421"/><trkpt lat="35.820849" lon="127.235576"/><trkpt lat="35.820876" lon="127.235599"/><trkpt lat="35.820998" lon="127.235636"/><trkpt lat="35.821254" lon="127.23566"/><trkpt lat="35.821453" lon="127.23572"/><trkpt lat="35.821523" lon="127.235318"/><trkpt lat="35.821582" lon="127.235095"/><trkpt lat="35.821574" lon="127.234816"/><trkpt lat="35.821599" lon="127.234461"/><trkpt lat="35.821574" lon="127.234215"/><trkpt lat="35.821572" lon="127.233786"/><trkpt lat="35.821564" lon="127.23362"/><trkpt lat="35.821577" lon="127.233218"/><trkpt lat="35.821626" lon="127.232904"/><trkpt lat="35.821712" lon="127.232608"/><trkpt lat="35.821754" lon="127.232406"/><trkpt lat="35.821739" lon="127.232306"/><trkpt lat="35.821696" lon="127.232133"/><trkpt lat="35.821652" lon="127.231827"/><trkpt lat="35.821652" lon="127.231427"/><trkpt lat="35.821704" lon="127.231065"/><trkpt lat="35.821698" lon="127.230872"/><trkpt lat="35.821782" lon="127.230556"/><trkpt lat="35.821865" lon="127.230293"/><trkpt lat="35.821903" lon="127.229923"/><trkpt lat="35.821865" lon="127.229617"/><trkpt lat="35.821849" lon="127.229448"/><trkpt lat="35.821782" lon="127.229155"/><trkpt lat="35.82182" lon="127.228886"/><trkpt lat="35.821946" lon="127.22866"/><trkpt lat="35.822" lon="127.228496"/><trkpt lat="35.822076" lon="127.228254"/><trkpt lat="35.822181" lon="127.227998"/><trkpt lat="35.822192" lon="127.227848"/><trkpt lat="35.822232" lon="127.227582"/><trkpt lat="35.822205" lon="127.22733"/><trkpt lat="35.822232" lon="127.22717"/><trkpt lat="35.822294" lon="127.226914"/><trkpt lat="35.822203" lon="127.226781"/><trkpt lat="35.822159" lon="127.226648"/><trkpt lat="35.82207" lon="127.226559"/><trkpt lat="35.822014" lon="127.226442"/><trkpt lat="35.821874" lon="127.226306"/><trkpt lat="35.821693" lon="127.226007"/></trkseg>
<trkseg><trkpt lat="35.815319" lon="127.212963"/><trkpt lat="35.81532" lon="127.212653"/><trkpt lat="35.815345" lon="127.212341"/><trkpt lat="35.815409" lon="127.212119"/><trkpt lat="35.815393" lon="127.211846"/><trkpt lat="35.815452" lon="127.211454"/><trkpt lat="35.815541" lon="127.211218"/><trkpt lat="35.815734" lon="127.211009"/><trkpt lat="35.81592" lon="127.210886"/><trkpt lat="35.816197" lon="127.210848"/><trkpt lat="35.816374" lon="127.210759"/><trkpt lat="35.816443" lon="127.210429"/><trkpt lat="35.816382" lon="127.210311"/><trkpt lat="35.81627" lon="127.210044"/><trkpt lat="35.816461" lon="127.209799"/><trkpt lat="35.816617" lon="127.209822"/><trkpt lat="35.81675" lon="127.209732"/><trkpt lat="35.816893" lon="127.209503"/><trkpt lat="35.81725" lon="127.209266"/><trkpt lat="35.817488" lon="127.209067"/></trkseg>
<trkseg><trkpt lat="35.815319" lon="127.212963"/><trkpt lat="35.815494" lon="127.213007"/><trkpt lat="35.815599" lon="127.212978"/><trkpt lat="35.815669" lon="127.212848"/><trkpt lat="35.815866" lon="127.212968"/><trkpt lat="35.81586" lon="127.212788"/><trkpt lat="35.815936" lon="127.212506"/><trkpt lat="35.815987" lon="127.212389"/><trkpt lat="35.816114" lon="127.212087"/><trkpt lat="35.816214" lon="127.211798"/><trkpt lat="35.816363" lon="127.211701"/><trkpt lat="35.816559" lon="127.211601"/><trkpt lat="35.816825" lon="127.211588"/><trkpt lat="35.816925" lon="127.211592"/><trkpt lat="35.817078" lon="127.211678"/><trkpt lat="35.817227" lon="127.211905"/><trkpt lat="35.817376" lon="127.21213"/><trkpt lat="35.817412" lon="127.212283"/></trkseg>
<trkseg><trkpt lat="35.821693" lon="127.226007"/><trkpt lat="35.821595" lon="127.226111"/><trkpt lat="35.821508" lon="127.226226"/><trkpt lat="35.821423" lon="127.226164"/><trkpt lat="35.82133" lon="127.226299"/><trkpt lat="35.82122" lon="127.226365"/><trkpt lat="35.820922" lon="127.226208"/><trkpt lat="35.820672" lon="127.226162"/><trkpt lat="35.820498" lon="127.226082"/><trkpt lat="35.820423" lon="127.225869"/><trkpt lat="35.820201" lon="127.225554"/><trkpt lat="35.820086" lon="127.225398"/><trkpt lat="35.820051" lon="127.225222"/><trkpt lat="35.820024" lon="127.225054"/><trkpt lat="35.820024" lon="127.22492"/><trkpt lat="35.819976" lon="127.224646"/><trkpt lat="35.819921" lon="127.224552"/><trkpt lat="35.819789" lon="127.224323"/><trkpt lat="35.819696" lon="127.224146"/><trkpt lat="35.819513" lon="127.223868"/><trkpt lat="35.819315" lon="127.223715"/><trkpt lat="35.819176" lon="127.223628"/><trkpt lat="35.819005" lon="127.223504"/><trkpt lat="35.818857" lon="127.223347"/><trkpt lat="35.818676" lon="127.223147"/><trkpt lat="35.818448" lon="127.222569"/><trkpt lat="35.8182" lon="127.222029"/><trkpt lat="35.817986" lon="127.221606"/><trkpt lat="35.817767" lon="127.221185"/><trkpt lat="35.817588" lon="127.220838"/><trkpt lat="35.817478" lon="127.22063"/><trkpt lat="35.81728" lon="127.220266"/><trkpt lat="35.817254" lon="127.220222"/></trkseg>
<trkseg><trkpt lat="35.813558" lon="127.229072"/><trkpt lat="35.813686" lon="127.228948"/><trkpt lat="35.813731" lon="127.228861"/><trkpt lat="35.813839" lon="127.228685"/><trkpt lat="35.813939" lon="127.228552"/><trkpt lat="35.814012" lon="127.228459"/><trkpt lat="35.814071" lon="127.228406"/><trkpt lat="35.814216" lon="127.22833"/><trkpt lat="35.814394" lon="127.22822"/><trkpt lat="35.814578" lon="127.228072"/><trkpt lat="35.814667" lon="127.227976"/><trkpt lat="35.81468" lon="127.227906"/><trkpt lat="35.814686" lon="127.227813"/><trkpt lat="35.814753" lon="127.22769"/><trkpt lat="35.814804" lon="127.22754"/><trkpt lat="35.814812" lon="127.2275"/><trkpt lat="35.814858" lon="127.227377"/><trkpt lat="35.814839" lon="127.227251"/><trkpt lat="35.81481" lon="127.227088"/><trkpt lat="35.814807" lon="127.226902"/><trkpt lat="35.81482" lon="127.226806"/><trkpt lat="35.814839" lon="127.22662"/><trkpt lat="35.814818" lon="127.226563"/><trkpt lat="35.814794" lon="127.226364"/><trkpt lat="35.814799" lon="127.226274"/><trkpt lat="35.814785" lon="127.226124"/><trkpt lat="35.814783" lon="127.226028"/><trkpt lat="35.814796" lon="127.225882"/><trkpt lat="35.814856" lon="127.225762"/><trkpt lat="35.814955" lon="127.225589"/><trkpt lat="35.815077" lon="127.225363"/><trkpt lat="35.815168" lon="127.225264"/><trkpt lat="35.815271" lon="127.225177"/><trkpt lat="35.815311" lon="127.225024"/><trkpt lat="35.815395" lon="127.225061"/><trkpt lat="35.815481" lon="127.224984"/><trkpt lat="35.815597" lon="127.224948"/><trkpt lat="35.815627" lon="127.224825"/><trkpt lat="35.81574" lon="127.224712"/><trkpt lat="35.815794" lon="127.224522"/><trkpt lat="35.815891" lon="127.224472"/><trkpt lat="35.81584" lon="127.224416"/><trkpt lat="35.815883" lon="127.224167"/><trkpt lat="35.815915" lon="127.22403"/><trkpt lat="35.815937" lon="127.223818"/><trkpt lat="35.815955" lon="127.223578"/><trkpt lat="35.815927" lon="127.22344"/><trkpt lat="35.815912" lon="127.223274"/><trkpt lat="35.816161" lon="127.223005"/><trkpt lat="35.816328" lon="127.222816"/><trkpt lat="35.816487" lon="127.222515"/><trkpt lat="35.816495" lon="127.222216"/><trkpt lat="35.81644" lon="127.221869"/><trkpt lat="35.816413" lon="127.221492"/><trkpt lat="35.816344" lon="127.221226"/><trkpt lat="35.816308" lon="127.220906"/><trkpt lat="35.816478" lon="127.220743"/><trkpt lat="35.816665" lon="127.220621"/><trkpt lat="35.816871" lon="127.220474"/><trkpt lat="35.816945" lon="127.220425"/><trkpt lat="35.817075" lon="127.220336"/><trkpt lat="35.817254" lon="127.220222"/></trkseg>
<trkseg><trkpt lat="35.819763" lon="127.219733"/><trkpt lat="35.819852" lon="127.219516"/><trkpt lat="35.820013" lon="127.219267"/><trkpt lat="35.820221" lon="127.219117"/><trkpt lat="35.82041" lon="127.218858"/><trkpt lat="35.820531" lon="127.218668"/><trkpt lat="35.820523" lon="127.218359"/><trkpt lat="35.82059" lon="127.218073"/><trkpt lat="35.820695" lon="127.217847"/><trkpt lat="35.820744" lon="127.217667"/><trkpt lat="35.820811" lon="127.217338"/><trkpt lat="35.820863" lon="127.217085"/><trkpt lat="35.820838" lon="127.216899"/><trkpt lat="35.820868" lon="127.216753"/><trkpt lat="35.82096" lon="127.21652"/><trkpt lat="35.821005" lon="127.216377"/><trkpt lat="35.821049" lon="127.216115"/><trkpt lat="35.821124" lon="127.215865"/><trkpt lat="35.821288" lon="127.215626"/><trkpt lat="35.821445" lon="127.215433"/><trkpt lat="35.821609" lon="127.215185"/><trkpt lat="35.821725" lon="127.215128"/><trkpt lat="35.821839" lon="127.214992"/><trkpt lat="35.82193" lon="127.214846"/><trkpt lat="35.822025" lon="127.214623"/><trkpt lat="35.822068" lon="127.21442"/><trkpt lat="35.822111" lon="127.214231"/><trkpt lat="35.822248" lon="127.214121"/><trkpt lat="35.822415" lon="127.213998"/><trkpt lat="35.822591" lon="127.213888"/><trkpt lat="35.822752" lon="127.213689"/><trkpt lat="35.822949" lon="127.213556"/><trkpt lat="35.823148" lon="127.213523"/><trkpt lat="35.823275" lon="127.213463"/><trkpt lat="35.823434" lon="127.213406"/><trkpt lat="35.823596" lon="127.213305"/><trkpt lat="35.823722" lon="127.213228"/><trkpt lat="35.823898" lon="127.213165"/><trkpt lat="35.823989" lon="127.213046"/><trkpt lat="35.824121" lon="127.212959"/><trkpt lat="35.824334" lon="127.212756"/><trkpt lat="35.824504" lon="127.21257"/><trkpt lat="35.824542" lon="127.212407"/><trkpt lat="35.824698" lon="127.212148"/><trkpt lat="35.824793" lon="127.211991"/><trkpt lat="35.824879" lon="127.211882"/><trkpt lat="35.82497" lon="127.211715"/><trkpt lat="35.824957" lon="127.211506"/><trkpt lat="35.824938" lon="127.211343"/><trkpt lat="35.824965" lon="127.211267"/><trkpt lat="35.825103" lon="127.211179"/><trkpt lat="35.825181" lon="127.211107"/><trkpt lat="35.825383" lon="127.211001"/><trkpt lat="35.825544" lon="127.210889"/><trkpt lat="35.825571" lon="127.210813"/><trkpt lat="35.825682" lon="127.210687"/><trkpt lat="35.825946" lon="127.210514"/><trkpt lat="35.826036" lon="127.210353"/><trkpt lat="35.826121" lon="127.210301"/><trkpt lat="35.82625" lon="127.210138"/><trkpt lat="35.826407" lon="127.210118"/><trkpt lat="35.826622" lon="127.210088"/><trkpt lat="35.826731" lon="127.210036"/><trkpt lat="35.826834" lon="127.209994"/><trkpt lat="35.826967" lon="127.209922"/><trkpt lat="35.827056" lon="127.209829"/><trkpt lat="35.827194" lon="127.209837"/><trkpt lat="35.827353" lon="127.209778"/><trkpt lat="35.827509" lon="127.209788"/><trkpt lat="35.827628" lon="127.209741"/><trkpt lat="35.827827" lon="127.209627"/><trkpt lat="35.827889" lon="127.209488"/><trkpt lat="35.827919" lon="127.209378"/><trkpt lat="35.828003" lon="127.209255"/><trkpt lat="35.82811" lon="127.209152"/><trkpt lat="35.828334" lon="127.208943"/><trkpt lat="35.828385" lon="127.208859"/><trkpt lat="35.828407" lon="127.20874"/><trkpt lat="35.8285" lon="127.20852"/><trkpt lat="35.828544" lon="127.208228"/><trkpt lat="35.828533" lon="127.207912"/><trkpt lat="35.828598" lon="127.207713"/><trkpt lat="35.828612" lon="127.207586"/><trkpt lat="35.828766" lon="127.207172"/><trkpt lat="35.828797" lon="127.206729"/><trkpt lat="35.828878" lon="127.206435"/><trkpt lat="35.828999" lon="127.205881"/><trkpt lat="35.828988" lon="127.205558"/><trkpt lat="35.82886" lon="127.205072"/><trkpt lat="35.828749" lon="127.204749"/><trkpt lat="35.828668" lon="127.204629"/><trkpt lat="35.828657" lon="127.20441"/><trkpt lat="35.828625" lon="127.204143"/><trkpt lat="35.828562" lon="127.203946"/><trkpt lat="35.828547" lon="127.203698"/><trkpt lat="35.82855" lon="127.20341"/><trkpt lat="35.828545" lon="127.203099"/><trkpt lat="35.828553" lon="127.202815"/><trkpt lat="35.828527" lon="127.20249"/><trkpt lat="35.828527" lon="127.20223"/><trkpt lat="35.828609" lon="127.201901"/><trkpt lat="35.828738" lon="127.201575"/><trkpt lat="35.828857" lon="127.201436"/><trkpt lat="35.828919" lon="127.201253"/><trkpt lat="35.828744" lon="127.201007"/><trkpt lat="35.828682" lon="127.200758"/><trkpt lat="35.828644" lon="127.200485"/><trkpt lat="35.828436" lon="127.200289"/><trkpt lat="35.828164" lon="127.20004"/><trkpt lat="35.827976" lon="127.19982"/><trkpt lat="35.827954" lon="127.199751"/><trkpt lat="35.827903" lon="127.199468"/><trkpt lat="35.827854" lon="127.199205"/><trkpt lat="35.8278" lon="127.198909"/><trkpt lat="35.8277" lon="127.198699"/><trkpt lat="35.827603" lon="127.198357"/><trkpt lat="35.827563" lon="127.198128"/><trkpt lat="35.827512" lon="127.197792"/><trkpt lat="35.827353" lon="127.197406"/><trkpt lat="35.827242" lon="127.1972"/><trkpt lat="35.827067" lon="127.196979"/><trkpt lat="35.826962" lon="127.196885"/><trkpt lat="35.826846" lon="127.196669"/><trkpt lat="35.826641" lon="127.196436"/><trkpt lat="35.826571" lon="127.196343"/><trkpt lat="35.826337" lon="127.196204"/><trkpt lat="35.82611" lon="127.196081"/><trkpt lat="35.825905" lon="127.195958"/><trkpt lat="35.82572" lon="127.195785"/><trkpt lat="35.825555" lon="127.195426"/><trkpt lat="35.825288" lon="127.195134"/><trkpt lat="35.825208" lon="127.194898"/><trkpt lat="35.825251" lon="127.194632"/><trkpt lat="35.825243" lon="127.194363"/><trkpt lat="35.825189" lon="127.194004"/><trkpt lat="35.824992" lon="127.193588"/><trkpt lat="35.824913" lon="127.193198"/><trkpt lat="35.824862" lon="127.19279"/><trkpt lat="35.824829" lon="127.19258"/><trkpt lat="35.824697" lon="127.192361"/><trkpt lat="35.824536" lon="127.192115"/><trkpt lat="35.824463" lon="127.191875"/><trkpt lat="35.824344" lon="127.191676"/><trkpt lat="35.824264" lon="127.19155"/><trkpt lat="35.824121" lon="127.191432"/><trkpt lat="35.824044" lon="127.191344"/><trkpt lat="35.823952" lon="127.191285"/><trkpt lat="35.823967" lon="127.191152"/><trkpt lat="35.82404" lon="127.190822"/><trkpt lat="35.824037" lon="127.190692"/><trkpt lat="35.823983" lon="127.190417"/></trkseg>
<trkseg><trkpt lat="35.821693" lon="127.226007"/><trkpt lat="35.82151" lon="127.225704"/><trkpt lat="35.821472" lon="127.225498"/><trkpt lat="35.821472" lon="127.225318"/><trkpt lat="35.821453" lon="127.224989"/><trkpt lat="35.821375" lon="127.224779"/><trkpt lat="35.821305" lon="127.224573"/><trkpt lat="35.821143" lon="127.224371"/><trkpt lat="35.821167" lon="127.224234"/><trkpt lat="35.82114" lon="127.224131"/><trkpt lat="35.821019" lon="127.223872"/><trkpt lat="35.820914" lon="127.223693"/><trkpt lat="35.820774" lon="127.223517"/><trkpt lat="35.820636" lon="127.22316"/><trkpt lat="35.82056" lon="127.222983"/><trkpt lat="35.820399" lon="127.222731"/><trkpt lat="35.820197" lon="127.222418"/><trkpt lat="35.82014" lon="127.222136"/><trkpt lat="35.820129" lon="127.2219"/><trkpt lat="35.82018" lon="127.221677"/><trkpt lat="35.820199" lon="127.221342"/><trkpt lat="35.820145" lon="127.221092"/><trkpt lat="35.820102" lon="127.2209"/><trkpt lat="35.82003" lon="127.22069"/><trkpt lat="35.819973" lon="127.220477"/><trkpt lat="35.819957" lon="127.220315"/><trkpt lat="35.819941" lon="127.220188"/><trkpt lat="35.819862" lon="127.219958"/><trkpt lat="35.819787" lon="127.219818"/><trkpt lat="35.819763" lon="127.219733"/></trkseg>
<trkseg><trkpt lat="35.825549" lon="127.188819"/><trkpt lat="35.825738" lon="127.188659"/><trkpt lat="35.825913" lon="127.188672"/><trkpt lat="35.825997" lon="127.188636"/><trkpt lat="35.826236" lon="127.188371"/><trkpt lat="35.82643" lon="127.188212"/><trkpt lat="35.826568" lon="127.188102"/><trkpt lat="35.826692" lon="127.187769"/><trkpt lat="35.826716" lon="127.187563"/><trkpt lat="35.826608" lon="127.1874"/><trkpt lat="35.826522" lon="127.187218"/><trkpt lat="35.826482" lon="127.186998"/><trkpt lat="35.826379" lon="127.186716"/></trkseg>
<trkseg><trkpt lat="35.826379" lon="127.186716"/><trkpt lat="35.826393" lon="127.186483"/><trkpt lat="35.826471" lon="127.186121"/><trkpt lat="35.8266" lon="127.185872"/><trkpt lat="35.8266" lon="127.185606"/><trkpt lat="35.82666" lon="127.185443"/></trkseg>
<trkseg><trkpt lat="35.82666" lon="127.185443"/><trkpt lat="35.82683" lon="127.185169"/><trkpt lat="35.827059" lon="127.185013"/><trkpt lat="35.827137" lon="127.184657"/><trkpt lat="35.827248" lon="127.184335"/><trkpt lat="35.827296" lon="127.184062"/><trkpt lat="35.82739" lon="127.1839"/><trkpt lat="35.827566" lon="127.183713"/><trkpt lat="35.827679" lon="127.183604"/><trkpt lat="35.827759" lon="127.183549"/><trkpt lat="35.827826" lon="127.18342"/><trkpt lat="35.827834" lon="127.183201"/><trkpt lat="35.827822" lon="127.182969"/><trkpt lat="35.827884" lon="127.182753"/><trkpt lat="35.827978" lon="127.18262"/><trkpt lat="35.828057" lon="127.182507"/><trkpt lat="35.828118" lon="127.182429"/><trkpt lat="35.828133" lon="127.182308"/></trkseg>
<trkseg><trkpt lat="35.828133" lon="127.182308"/><trkpt lat="35.828105" lon="127.182114"/><trkpt lat="35.828035" lon="127.181855"/><trkpt lat="35.827963" lon="127.18152"/><trkpt lat="35.827884" lon="127.181277"/><trkpt lat="35.827758" lon="127.180878"/><trkpt lat="35.827732" lon="127.180735"/><trkpt lat="35.827803" lon="127.18054"/><trkpt lat="35.827943" lon="127.180294"/><trkpt lat="35.828081" lon="127.18004"/><trkpt lat="35.828175" lon="127.179913"/><trkpt lat="35.828313" lon="127.17974"/><trkpt lat="35.828404" lon="127.179617"/><trkpt lat="35.82845" lon="127.179561"/><trkpt lat="35.828504" lon="127.179504"/></trkseg>
<trkseg><trkpt lat="35.835987" lon="127.177687"/><trkpt lat="35.836064" lon="127.177468"/><trkpt lat="35.836204" lon="127.177096"/><trkpt lat="35.836404" lon="127.176737"/><trkpt lat="35.836474" lon="127.176527"/><trkpt lat="35.836608" lon="127.176222"/><trkpt lat="35.836837" lon="127.175995"/><trkpt lat="35.83704" lon="127.175846"/><trkpt lat="35.837201" lon="127.175508"/><trkpt lat="35.837403" lon="127.17533"/><trkpt lat="35.837619" lon="127.175231"/><trkpt lat="35.837938" lon="127.175228"/><trkpt lat="35.838225" lon="127.175211"/><trkpt lat="35.838505" lon="127.175095"/><trkpt lat="35.838502" lon="127.174726"/><trkpt lat="35.83865" lon="127.174322"/><trkpt lat="35.838852" lon="127.173977"/><trkpt lat="35.83906" lon="127.173878"/><trkpt lat="35.839286" lon="127.173832"/><trkpt lat="35.839591" lon="127.173798"/><trkpt lat="35.839892" lon="127.17368"/><trkpt lat="35.840094" lon="127.17361"/><trkpt lat="35.840207" lon="127.173411"/><trkpt lat="35.840355" lon="127.173172"/><trkpt lat="35.84054" lon="127.172852"/><trkpt lat="35.840517" lon="127.172623"/><trkpt lat="35.840465" lon="127.172438"/></trkseg>
<trkseg><trkpt lat="35.832044" lon="127.179698"/><trkpt lat="35.83214" lon="127.179566"/><trkpt lat="35.832412" lon="127.17928"/><trkpt lat="35.832703" lon="127.179187"/><trkpt lat="35.832927" lon="127.179104"/><trkpt lat="35.833072" lon="127.17906"/><trkpt lat="35.833183" lon="127.178971"/><trkpt lat="35.833342" lon="127.178904"/><trkpt lat="35.833558" lon="127.178698"/><trkpt lat="35.833648" lon="127.178616"/><trkpt lat="35.833722" lon="127.178545"/><trkpt lat="35.833878" lon="127.178445"/><trkpt lat="35.834084" lon="127.178332"/><trkpt lat="35.834206" lon="127.178123"/><trkpt lat="35.834272" lon="127.17799"/><trkpt lat="35.834333" lon="127.177941"/><trkpt lat="35.834523" lon="127.17795"/><trkpt lat="35.834646" lon="127.178004"/><trkpt lat="35.834876" lon="127.17797"/><trkpt lat="35.835111" lon="127.177946"/><trkpt lat="35.835272" lon="127.177996"/><trkpt lat="35.835388" lon="127.177933"/><trkpt lat="35.835528" lon="127.177896"/><trkpt lat="35.835787" lon="127.177743"/><trkpt lat="35.835879" lon="127.177682"/><trkpt lat="35.835987" lon="127.177687"/></trkseg>
<trkseg><trkpt lat="35.835987" lon="127.177687"/><trkpt lat="35.836102" lon="127.17782"/><trkpt lat="35.836302" lon="127.177936"/><trkpt lat="35.836456" lon="127.178026"/><trkpt lat="35.836566" lon="127.178146"/><trkpt lat="35.83668" lon="127.178245"/><trkpt lat="35.836731" lon="127.178319"/><trkpt lat="35.836852" lon="127.178535"/><trkpt lat="35.836933" lon="127.178614"/><trkpt lat="35.837105" lon="127.178717"/><trkpt lat="35.83728" lon="127.17879"/><trkpt lat="35.837439" lon="127.17881"/><trkpt lat="35.837539" lon="127.178801"/><trkpt lat="35.837668" lon="127.178817"/><trkpt lat="35.837962" lon="127.17895"/><trkpt lat="35.838197" lon="127.179053"/><trkpt lat="35.838526" lon="127.179069"/><trkpt lat="35.838668" lon="127.17908"/><trkpt lat="35.838765" lon="127.179176"/><trkpt lat="35.838992" lon="127.179316"/><trkpt lat="35.839109" lon="127.179368"/><trkpt lat="35.839307" lon="127.17938"/><trkpt lat="35.839544" lon="127.179224"/><trkpt lat="35.839744" lon="127.179061"/><trkpt lat="35.839935" lon="127.178942"/><trkpt lat="35.840055" lon="127.178864"/><trkpt lat="35.840133" lon="127.178855"/><trkpt lat="35.840399" lon="127.17898"/><trkpt lat="35.840612" lon="127.179065"/><trkpt lat="35.840671" lon="127.179023"/><trkpt lat="35.840886" lon="127.179076"/><trkpt lat="35.841021" lon="127.179146"/><trkpt lat="35.841164" lon="127.179136"/><trkpt lat="35.841347" lon="127.179068"/><trkpt lat="35.841498" lon="127.179021"/><trkpt lat="35.841627" lon="127.178828"/><trkpt lat="35.841816" lon="127.178782"/><trkpt lat="35.841938" lon="127.178489"/><trkpt lat="35.842115" lon="127.17832"/><trkpt lat="35.84208" lon="127.17817"/><trkpt lat="35.842037" lon="127.177848"/><trkpt lat="35.841978" lon="127.177658"/><trkpt lat="35.842016" lon="127.177439"/><trkpt lat="35.842023" lon="127.177332"/><trkpt lat="35.841902" lon="127.176379"/><trkpt lat="35.841775" lon="127.174213"/><trkpt lat="35.841563" lon="127.172678"/><trkpt lat="35.841377" lon="127.172189"/><trkpt lat="35.841028" lon="127.171642"/><trkpt lat="35.84039" lon="127.169993"/><trkpt lat="35.839902" lon="127.169036"/></trkseg>
<trkseg><trkpt lat="35.828133" lon="127.182308"/><trkpt lat="35.828323" lon="127.182307"/><trkpt lat="35.828417" lon="127.182325"/><trkpt lat="35.828531" lon="127.182337"/><trkpt lat="35.828633" lon="127.182274"/><trkpt lat="35.828743" lon="127.182169"/><trkpt lat="35.829058" lon="127.182111"/><trkpt lat="35.829201" lon="127.182116"/><trkpt lat="35.829292" lon="127.182106"/><trkpt lat="35.829371" lon="127.182033"/><trkpt lat="35.829476" lon="127.181997"/><trkpt lat="35.829585" lon="127.181944"/><trkpt lat="35.829731" lon="127.181915"/><trkpt lat="35.829889" lon="127.181822"/><trkpt lat="35.829984" lon="127.1817"/><trkpt lat="35.830096" lon="127.181651"/><trkpt lat="35.830194" lon="127.181707"/><trkpt lat="35.830326" lon="127.181629"/><trkpt lat="35.830497" lon="127.181618"/><trkpt lat="35.830518" lon="127.181514"/><trkpt lat="35.830571" lon="127.181401"/><trkpt lat="35.830624" lon="127.18125"/><trkpt lat="35.83073" lon="127.180999"/><trkpt lat="35.830832" lon="127.180746"/><trkpt lat="35.83101" lon="127.18046"/><trkpt lat="35.831206" lon="127.180381"/><trkpt lat="35.8314" lon="127.180365"/><trkpt lat="35.831542" lon="127.180295"/><trkpt lat="35.831673" lon="127.180115"/><trkpt lat="35.831797" lon="127.179952"/><trkpt lat="35.831962" lon="127.179755"/><trkpt lat="35.832044" lon="127.179698"/></trkseg>
<trkseg><trkpt lat="35.823983" lon="127.190417"/><trkpt lat="35.824081" lon="127.190139"/><trkpt lat="35.824177" lon="127.189881"/><trkpt lat="35.824203" lon="127.189789"/><trkpt lat="35.824354" lon="127.189742"/><trkpt lat="35.824374" lon="127.189661"/><trkpt lat="35.824466" lon="127.189505"/><trkpt lat="35.824611" lon="127.189405"/><trkpt lat="35.824794" lon="127.189189"/><trkpt lat="35.825021" lon="127.189138"/><trkpt lat="35.82518" lon="127.189081"/><trkpt lat="35.825334" lon="127.188998"/><trkpt lat="35.825549" lon="127.188819"/></trkseg>
<trkseg><trkpt lat="35.828504" lon="127.179504"/><trkpt lat="35.828569" lon="127.179647"/><trkpt lat="35.82865" lon="127.179774"/><trkpt lat="35.82876" lon="127.179923"/><trkpt lat="35.828803" lon="127.180083"/><trkpt lat="35.828863" lon="127.180197"/><trkpt lat="35.828846" lon="127.180433"/><trkpt lat="35.82893" lon="127.180523"/><trkpt lat="35.829027" lon="127.18061"/><trkpt lat="35.829057" lon="127.180467"/><trkpt lat="35.8291" lon="127.18033"/><trkpt lat="35.829235" lon="127.180076"/><trkpt lat="35.829327" lon="127.180182"/><trkpt lat="35.829537" lon="127.180209"/><trkpt lat="35.829823" lon="127.179978"/><trkpt lat="35.83013" lon="127.179758"/><trkpt lat="35.830386" lon="127.179373"/><trkpt lat="35.83055" lon="127.179097"/><trkpt lat="35.830566" lon="127.178924"/><trkpt lat="35.830672" lon="127.178731"/><trkpt lat="35.830734" lon="127.178601"/><trkpt lat="35.83082" lon="127.178344"/><trkpt lat="35.831042" lon="127.177985"/><trkpt lat="35.831063" lon="127.177676"/><trkpt lat="35.831193" lon="127.177531"/><trkpt lat="35.831337" lon="127.177619"/><trkpt lat="35.831451" lon="127.177937"/><trkpt lat="35.83153" lon="127.178114"/><trkpt lat="35.831621" lon="127.178291"/><trkpt lat="35.831708" lon="127.178577"/><trkpt lat="35.831716" lon="127.178774"/><trkpt lat="35.831638" lon="127.178953"/><trkpt lat="35.831676" lon="127.179182"/><trkpt lat="35.831867" lon="127.179441"/><trkpt lat="35.832016" lon="127.179637"/><trkpt lat="35.832044" lon="127.179698"/></trkseg>
</trk>
</gpx>
