<?xml version="1.0" encoding="UTF-8"?>
<gpx version="1.1" creator="letnaturechoose" xmlns="http://www.topografix.com/GPX/1/1">
<metadata><name>백련산 등산로</name></metadata>
<trk><name>백련산</name>
<trkseg><trkpt lat="35.584069" lon="127.1567"/><trkpt lat="35.584136" lon="127.156657"/><trkpt lat="35.584177" lon="127.156627"/><trkpt lat="35.584207" lon="127.156597"/><trkpt lat="35.584244" lon="127.156552"/><trkpt lat="35.584407" lon="127.15634"/><trkpt lat="35.584454" lon="127.156283"/><trkpt lat="35.584485" lon="127.156253"/><trkpt lat="35.584532" lon="127.156221"/><trkpt lat="35.584703" lon="127.15612"/><trkpt lat="35.584742" lon="127.156024"/><trkpt lat="35.584716" lon="127.155975"/><trkpt lat="35.584696" lon="127.155942"/><trkpt lat="35.584681" lon="127.155901"/><trkpt lat="35.584675" lon="127.155857"/><trkpt lat="35.58468" lon="127.155812"/><trkpt lat="35.584699" lon="127.155736"/><trkpt lat="35.584704" lon="127.155689"/><trkpt lat="35.584704" lon="127.155641"/><trkpt lat="35.584696" lon="127.155529"/><trkpt lat="35.58469" lon="127.155482"/><trkpt lat="35.584679" lon="127.155437"/><trkpt lat="35.584662" lon="127.155396"/><trkpt lat="35.584602" lon="127.155275"/><trkpt lat="35.584576" lon="127.15522"/><trkpt lat="35.584559" lon="127.155178"/><trkpt lat="35.584547" lon="127.155132"/><trkpt lat="35.584527" lon="127.155021"/><trkpt lat="35.584488" lon="127.154798"/><trkpt lat="35.584475" lon="127.154753"/><trkpt lat="35.584456" lon="127.154713"/><trkpt lat="35.584422" lon="127.154667"/><trkpt lat="35.58434" lon="127.154566"/><trkpt lat="35.584316" lon="127.154529"/><trkpt lat="35.58429" lon="127.154477"/><trkpt lat="35.584267" lon="127.154423"/><trkpt lat="35.584255" lon="127.15438"/><trkpt lat="35.584246" lon="127.154306"/><trkpt lat="35.58424" lon="127.154262"/><trkpt lat="35.584225" lon="127.154218"/><trkpt lat="35.584205" lon="127.154175"/><trkpt lat="35.584052" lon="127.153883"/><trkpt lat="35.584026" lon="127.153825"/><trkpt lat="35.584011" lon="127.153781"/><trkpt lat="35.58399" lon="127.153687"/><trkpt lat="35.583947" lon="127.153482"/><trkpt lat="35.583934" lon="127.153437"/><trkpt lat="35.583915" lon="127.153396"/><trkpt lat="35.583882" lon="127.153345"/><trkpt lat="35.583714" lon="127.15311"/><trkpt lat="35.583663" lon="127.153034"/><trkpt lat="35.583641" lon="127.152994"/><trkpt lat="35.583536" lon="127.152784"/><trkpt lat="35.583499" lon="127.152715"/><trkpt lat="35.583474" lon="127.152678"/><trkpt lat="35.583444" lon="127.15265"/><trkpt lat="35.583411" lon="127.152626"/><trkpt lat="35.583366" lon="127.152598"/><trkpt lat="35.58333" lon="127.152582"/><trkpt lat="35.583296" lon="127.152578"/><trkpt lat="35.583252" lon="127.152577"/><trkpt lat="35.583219" lon="127.152564"/><trkpt lat="35.583186" lon="127.152539"/><trkpt lat="35.583123" lon="127.152479"/><trkpt lat="35.58308" lon="127.15244"/><trkpt lat="35.583046" lon="127.152416"/><trkpt lat="35.58301" lon="127.152403"/><trkpt lat="35.582973" lon="127.1524"/><trkpt lat="35.582937" lon="127.152409"/><trkpt lat="35.582889" lon="127.15243"/><trkpt lat="35.582806" lon="127.152471"/><trkpt lat="35.582771" lon="127.152492"/><trkpt lat="35.582738" lon="127.152517"/><trkpt lat="35.582641" lon="127.1526"/><trkpt lat="35.582608" lon="127.152625"/><trkpt lat="35.582574" lon="127.152643"/><trkpt lat="35.582531" lon="127.152659"/><trkpt lat="35.582503" lon="127.152676"/><trkpt lat="35.582483" lon="127.152706"/><trkpt lat="35.582454" lon="127.152766"/><trkpt lat="35.582427" lon="127.152799"/><trkpt lat="35.582386" lon="127.152838"/><trkpt lat="35.582342" lon="127.152873"/><trkpt lat="35.582308" lon="127.152894"/><trkpt lat="35.582273" lon="127.152903"/><trkpt lat="35.582225" lon="127.152907"/><trkpt lat="35.582188" lon="127.152916"/><trkpt lat="35.582139" lon="127.15294"/><trkpt lat="35.582078" lon="127.152971"/><trkpt lat="35.582041" lon="127.152985"/><trkpt lat="35.582003" lon="127.152988"/><trkpt lat="35.581938" lon="127.152985"/><trkpt lat="35.58173" lon="127.152963"/><trkpt lat="35.581692" lon="127.152954"/><trkpt lat="35.581657" lon="127.152937"/><trkpt lat="35.581613" lon="127.152903"/><trkpt lat="35.58154" lon="127.152836"/><trkpt lat="35.581511" lon="127.152804"/><trkpt lat="35.581486" lon="127.152766"/><trkpt lat="35.581446" lon="127.152701"/><trkpt lat="35.581418" lon="127.15267"/><trkpt lat="35.581385" lon="127.152647"/><trkpt lat="35.581302" lon="127.152603"/><trkpt lat="35.581268" lon="127.152581"/><trkpt lat="35.581238" lon="127.152551"/><trkpt lat="35.581212" lon="127.152514"/><trkpt lat="35.581138" lon="127.152396"/><trkpt lat="35.581113" lon="127.152358"/><trkpt lat="35.581085" lon="127.152322"/><trkpt lat="35.581034" lon="127.152268"/><trkpt lat="35.580909" lon="127.152142"/><trkpt lat="35.580844" lon="127.152084"/><trkpt lat="35.580508" lon="127.151808"/><trkpt lat="35.580474" lon="127.151784"/><trkpt lat="35.580438" lon="127.151766"/><trkpt lat="35.5804" lon="127.151756"/><trkpt lat="35.580295" lon="127.151742"/><trkpt lat="35.58023" lon="127.151731"/><trkpt lat="35.580165" lon="127.151713"/><trkpt lat="35.579534" lon="127.151497"/><trkpt lat="35.579444" lon="127.151465"/><trkpt lat="35.579407" lon="127.151447"/><trkpt lat="35.579351" lon="127.151409"/><trkpt lat="35.579318" lon="127.151389"/><trkpt lat="35.579282" lon="127.151382"/><trkpt lat="35.579244" lon="127.151385"/><trkpt lat="35.579127" lon="127.151408"/><trkpt lat="35.579088" lon="127.151413"/><trkpt lat="35.57905" lon="127.151412"/><trkpt lat="35.579012" lon="127.151402"/><trkpt lat="35.578809" lon="127.151325"/><trkpt lat="35.578595" lon="127.151242"/><trkpt lat="35.578559" lon="127.151223"/><trkpt lat="35.578525" lon="127.151198"/><trkpt lat="35.578483" lon="127.15116"/><trkpt lat="35.578366" lon="127.151054"/><trkpt lat="35.578333" lon="127.15103"/><trkpt lat="35.578296" lon="127.151012"/><trkpt lat="35.578257" lon="127.151001"/><trkpt lat="35.578218" lon="127.150996"/><trkpt lat="35.578179" lon="127.151001"/><trkpt lat="35.578102" lon="127.151025"/><trkpt lat="35.577612" lon="127.151187"/><trkpt lat="35.57738" lon="127.151264"/><trkpt lat="35.577343" lon="127.151279"/><trkpt lat="35.577311" lon="127.1513"/><trkpt lat="35.577266" lon="127.151339"/><trkpt lat="35.577232" lon="127.151361"/><trkpt lat="35.577183" lon="127.151384"/><trkpt lat="35.576896" lon="127.151506"/><trkpt lat="35.57682" lon="127.151536"/><trkpt lat="35.576782" lon="127.151546"/><trkpt lat="35.576729" lon="127.151551"/><trkpt lat="35.57661" lon="127.151557"/><trkpt lat="35.576557" lon="127.151556"/><trkpt lat="35.576518" lon="127.151549"/><trkpt lat="35.576468" lon="127.151528"/><trkpt lat="35.576382" lon="127.151488"/><trkpt lat="35.576346" lon="127.151477"/><trkpt lat="35.57631" lon="127.151479"/><trkpt lat="35.576252" lon="127.151496"/><trkpt lat="35.576215" lon="127.151497"/><trkpt lat="35.576177" lon="127.151489"/><trkpt lat="35.576088" lon="127.151462"/><trkpt lat="35.575923" lon="127.151408"/><trkpt lat="35.575885" lon="127.151399"/><trkpt lat="35.575846" lon="127.151398"/><trkpt lat="35.575808" lon="127.151407"/><trkpt lat="35.575604" lon="127.151483"/><trkpt lat="35.57545" lon="127.15154"/><trkpt lat="35.575413" lon="127.151548"/><trkpt lat="35.575377" lon="127.151543"/><trkpt lat="35.575344" lon="127.151522"/><trkpt lat="35.57529" lon="127.151474"/><trkpt lat="35.575183" lon="127.151371"/><trkpt lat="35.575155" lon="127.151337"/><trkpt lat="35.575132" lon="127.151299"/><trkpt lat="35.575107" lon="127.151246"/><trkpt lat="35.575086" lon="127.151213"/><trkpt lat="35.575059" lon="127.151198"/><trkpt lat="35.575007" lon="127.15119"/><trkpt lat="35.574975" lon="127.151175"/><trkpt lat="35.574944" lon="127.151149"/><trkpt lat="35.574856" lon="127.151054"/><trkpt lat="35.574806" lon="127.151003"/><trkpt lat="35.574773" lon="127.150977"/><trkpt lat="35.574703" lon="127.150933"/><trkpt lat="35.574527" lon="127.150826"/><trkpt lat="35.57447" lon="127.150784"/><trkpt lat="35.57426" lon="127.150605"/><trkpt lat="35.574193" lon="127.15055"/><trkpt lat="35.574159" lon="127.150527"/><trkpt lat="35.574125" lon="127.150515"/><trkpt lat="35.574071" lon="127.150509"/><trkpt lat="35.574036" lon="127.150498"/><trkpt lat="35.574001" lon="127.150479"/><trkpt lat="35.573968" lon="127.150456"/><trkpt lat="35.57394" lon="127.150426"/><trkpt lat="35.573918" lon="127.150388"/><trkpt lat="35.573878" lon="127.150305"/><trkpt lat="35.573856" lon="127.150267"/><trkpt lat="35.573827" lon="127.150235"/><trkpt lat="35.573794" lon="127.150209"/><trkpt lat="35.573663" lon="127.150125"/><trkpt lat="35.573605" lon="127.150086"/><trkpt lat="35.573573" lon="127.150058"/><trkpt lat="35.573546" lon="127.150024"/><trkpt lat="35.573505" lon="127.149961"/><trkpt lat="35.573432" lon="127.149846"/><trkpt lat="35.573405" lon="127.149811"/><trkpt lat="35.573374" lon="127.149783"/><trkpt lat="35.573339" lon="127.14976"/><trkpt lat="35.573008" lon="127.149578"/><trkpt lat="35.572849" lon="127.149491"/><trkpt lat="35.572814" lon="127.149468"/><trkpt lat="35.572786" lon="127.149437"/><trkpt lat="35.572765" lon="127.149399"/><trkpt lat="35.572741" lon="127.149343"/><trkpt lat="35.572679" lon="127.149183"/><trkpt lat="35.572665" lon="127.149139"/><trkpt lat="35.572657" lon="127.149093"/><trkpt lat="35.572655" lon="127.149046"/><trkpt lat="35.572654" lon="127.148854"/><trkpt lat="35.572651" lon="127.148807"/><trkpt lat="35.572643" lon="127.148763"/><trkpt lat="35.572624" lon="127.148724"/><trkpt lat="35.5726" lon="127.148688"/><trkpt lat="35.572554" lon="127.148632"/><trkpt lat="35.572525" lon="127.148602"/><trkpt lat="35.572492" lon="127.148579"/><trkpt lat="35.572436" lon="127.148545"/><trkpt lat="35.572408" lon="127.148515"/><trkpt lat="35.572385" lon="127.148476"/><trkpt lat="35.57235" lon="127.148408"/><trkpt lat="35.572326" lon="127.148369"/><trkpt lat="35.572297" lon="127.148338"/><trkpt lat="35.572252" lon="127.148304"/><trkpt lat="35.571921" lon="127.148094"/><trkpt lat="35.571851" lon="127.148047"/><trkpt lat="35.571819" lon="127.148019"/><trkpt lat="35.571794" lon="127.147984"/><trkpt lat="35.571764" lon="127.147932"/><trkpt lat="35.571738" lon="127.147878"/><trkpt lat="35.571724" lon="127.147835"/><trkpt lat="35.571717" lon="127.147765"/><trkpt lat="35.571708" lon="127.147723"/><trkpt lat="35.571689" lon="127.147683"/><trkpt lat="35.57165" lon="127.147617"/><trkpt lat="35.571517" lon="127.147411"/><trkpt lat="35.57149" lon="127.147377"/><trkpt lat="35.571459" lon="127.147353"/><trkpt lat="35.571422" lon="127.147343"/><trkpt lat="35.571357" lon="127.147335"/><trkpt lat="35.571052" lon="127.14731"/><trkpt lat="35.571014" lon="127.147302"/><trkpt lat="35.570981" lon="127.147283"/><trkpt lat="35.570954" lon="127.147251"/><trkpt lat="35.57093" lon="127.147214"/><trkpt lat="35.570908" lon="127.147174"/><trkpt lat="35.57089" lon="127.147132"/><trkpt lat="35.570881" lon="127.147088"/><trkpt lat="35.57088" lon="127.147009"/><trkpt lat="35.570878" lon="127.146962"/><trkpt lat="35.57087" lon="127.146916"/><trkpt lat="35.570858" lon="127.14687"/><trkpt lat="35.570843" lon="127.146827"/><trkpt lat="35.570823" lon="127.146789"/><trkpt lat="35.570795" lon="127.146759"/><trkpt lat="35.570751" lon="127.146727"/><trkpt lat="35.57059" lon="127.146621"/><trkpt lat="35.570555" lon="127.146601"/><trkpt lat="35.570517" lon="127.146586"/><trkpt lat="35.570452" lon="127.146568"/><trkpt lat="35.570108" lon="127.146484"/><trkpt lat="35.570056" lon="127.146476"/><trkpt lat="35.570017" lon="127.146478"/><trkpt lat="35.569979" lon="127.146491"/><trkpt lat="35.569917" lon="127.146519"/><trkpt lat="35.56978" lon="127.146586"/><trkpt lat="35.569742" lon="127.146601"/><trkpt lat="35.569703" lon="127.14661"/><trkpt lat="35.56965" lon="127.146616"/><trkpt lat="35.569261" lon="127.146642"/><trkpt lat="35.569222" lon="127.146642"/><trkpt lat="35.569185" lon="127.146634"/><trkpt lat="35.569152" lon="127.146612"/><trkpt lat="35.569113" lon="127.146572"/><trkpt lat="35.569006" lon="127.146451"/><trkpt lat="35.568976" lon="127.146421"/><trkpt lat="35.568943" lon="127.146396"/><trkpt lat="35.568907" lon="127.146378"/><trkpt lat="35.568719" lon="127.146304"/><trkpt lat="35.568643" lon="127.146277"/><trkpt lat="35.568605" lon="127.146267"/><trkpt lat="35.568514" lon="127.146251"/><trkpt lat="35.568345" lon="127.146223"/><trkpt lat="35.568307" lon="127.146213"/><trkpt lat="35.568258" lon="127.146193"/><trkpt lat="35.568187" lon="127.146155"/><trkpt lat="35.568142" lon="127.146125"/><trkpt lat="35.568112" lon="127.146097"/><trkpt lat="35.568076" lon="127.146053"/><trkpt lat="35.568014" lon="127.145973"/><trkpt lat="35.567984" lon="127.145944"/><trkpt lat="35.567952" lon="127.145919"/><trkpt lat="35.567918" lon="127.145899"/><trkpt lat="35.567883" lon="127.145885"/><trkpt lat="35.567846" lon="127.145885"/><trkpt lat="35.567808" lon="127.145896"/><trkpt lat="35.567667" lon="127.145954"/><trkpt lat="35.567577" lon="127.145991"/><trkpt lat="35.567538" lon="127.146002"/><trkpt lat="35.567501" lon="127.146009"/><trkpt lat="35.567464" lon="127.146013"/><trkpt lat="35.567428" lon="127.146009"/><trkpt lat="35.567396" lon="127.145992"/><trkpt lat="35.567348" lon="127.145946"/><trkpt lat="35.567318" lon="127.145928"/><trkpt lat="35.567286" lon="127.145931"/><trkpt lat="35.567241" lon="127.145948"/><trkpt lat="35.567208" lon="127.145953"/><trkpt lat="35.567177" lon="127.145938"/><trkpt lat="35.567147" lon="127.145912"/><trkpt lat="35.567077" lon="127.145843"/><trkpt lat="35.567046" lon="127.145817"/><trkpt lat="35.567015" lon="127.145801"/><trkpt lat="35.566972" lon="127.145786"/><trkpt lat="35.566938" lon="127.145765"/><trkpt lat="35.566805" lon="127.145658"/><trkpt lat="35.566728" lon="127.145592"/><trkpt lat="35.566698" lon="127.14556"/><trkpt lat="35.566673" lon="127.145525"/><trkpt lat="35.566626" lon="127.14545"/><trkpt lat="35.5666" lon="127.145416"/><trkpt lat="35.56657" lon="127.145388"/><trkpt lat="35.566536" lon="127.145365"/><trkpt lat="35.566502" lon="127.145344"/><trkpt lat="35.566452" lon="127.145321"/><trkpt lat="35.566402" lon="127.145304"/><trkpt lat="35.566363" lon="127.145295"/><trkpt lat="35.56631" lon="127.145293"/><trkpt lat="35.56607" lon="127.1453"/><trkpt lat="35.56599" lon="127.145298"/><trkpt lat="35.565937" lon="127.14529"/><trkpt lat="35.565804" lon="127.145261"/><trkpt lat="35.565752" lon="127.145246"/><trkpt lat="35.565716" lon="127.145229"/><trkpt lat="35.565682" lon="127.145203"/><trkpt lat="35.56552" lon="127.145056"/><trkpt lat="35.565197" lon="127.144761"/><trkpt lat="35.565153" lon="127.144725"/><trkpt lat="35.565117" lon="127.144704"/><trkpt lat="35.565079" lon="127.144692"/><trkpt lat="35.564843" lon="127.144639"/><trkpt lat="35.564093" lon="127.144472"/><trkpt lat="35.564054" lon="127.144461"/><trkpt lat="35.564017" lon="127.144445"/><trkpt lat="35.563971" lon="127.144416"/><trkpt lat="35.5638" lon="127.144289"/><trkpt lat="35.563721" lon="127.144232"/><trkpt lat="35.563686" lon="127.14421"/><trkpt lat="35.563651" lon="127.144195"/><trkpt lat="35.563593" lon="127.144183"/><trkpt lat="35.563558" lon="127.144168"/><trkpt lat="35.56351" lon="127.144138"/><trkpt lat="35.563416" lon="127.144075"/><trkpt lat="35.56338" lon="127.144059"/><trkpt lat="35.563341" lon="127.144055"/><trkpt lat="35.563288" lon="127.144061"/><trkpt lat="35.563237" lon="127.144072"/><trkpt lat="35.563206" lon="127.144087"/><trkpt lat="35.563194" lon="127.144116"/><trkpt lat="35.563202" lon="127.144151"/><trkpt lat="35.563239" lon="127.144204"/><trkpt lat="35.56326" lon="127.144239"/><trkpt lat="35.563269" lon="127.144279"/><trkpt lat="35.56327" lon="127.144321"/><trkpt lat="35.563262" lon="127.144359"/><trkpt lat="35.56324" lon="127.144385"/><trkpt lat="35.563207" lon="127.144401"/><trkpt lat="35.563142" lon="127.144419"/><trkpt lat="35.562998" lon="127.144457"/><trkpt lat="35.562965" lon="127.14447"/><trkpt lat="35.562946" lon="127.144489"/><trkpt lat="35.562951" lon="127.14452"/><trkpt lat="35.562971" lon="127.144556"/><trkpt lat="35.563016" lon="127.144635"/><trkpt lat="35.563029" lon="127.144674"/><trkpt lat="35.563024" lon="127.14471"/><trkpt lat="35.563001" lon="127.144735"/><trkpt lat="35.562968" lon="127.144752"/><trkpt lat="35.562892" lon="127.144775"/><trkpt lat="35.562841" lon="127.144787"/><trkpt lat="35.562774" lon="127.144795"/><trkpt lat="35.561943" lon="127.144862"/></trkseg>
<trkseg><trkpt lat="35.570159" lon="127.170969"/><trkpt lat="35.570537" lon="127.171048"/><trkpt lat="35.5706" lon="127.171064"/><trkpt lat="35.570635" lon="127.17108"/><trkpt lat="35.57066" lon="127.171108"/><trkpt lat="35.570679" lon="127.171147"/><trkpt lat="35.570706" lon="127.171218"/><trkpt lat="35.570725" lon="127.171258"/><trkpt lat="35.57075" lon="127.171292"/><trkpt lat="35.570781" lon="127.171321"/><trkpt lat="35.570867" lon="127.171392"/><trkpt lat="35.570901" lon="127.171415"/><trkpt lat="35.570935" lon="127.171431"/><trkpt lat="35.570973" lon="127.171436"/><trkpt lat="35.571026" lon="127.171432"/><trkpt lat="35.571104" lon="127.171424"/><trkpt lat="35.571141" lon="127.171426"/><trkpt lat="35.57117" lon="127.171441"/><trkpt lat="35.571204" lon="127.17148"/><trkpt lat="35.571233" lon="127.171507"/><trkpt lat="35.571287" lon="127.171549"/><trkpt lat="35.571332" lon="127.171579"/><trkpt lat="35.571368" lon="127.171597"/><trkpt lat="35.57142" lon="127.171613"/><trkpt lat="35.571776" lon="127.1717"/><trkpt lat="35.571841" lon="127.171718"/><trkpt lat="35.571878" lon="127.171735"/><trkpt lat="35.571913" lon="127.171758"/><trkpt lat="35.572082" lon="127.171887"/><trkpt lat="35.572307" lon="127.172058"/><trkpt lat="35.572355" lon="127.172088"/><trkpt lat="35.572811" lon="127.17233"/><trkpt lat="35.572846" lon="127.172353"/><trkpt lat="35.572879" lon="127.17238"/><trkpt lat="35.57293" lon="127.172432"/><trkpt lat="35.57308" lon="127.172595"/><trkpt lat="35.573122" lon="127.172636"/><trkpt lat="35.573167" lon="127.172671"/><trkpt lat="35.573782" lon="127.173085"/><trkpt lat="35.573853" lon="127.173131"/><trkpt lat="35.57389" lon="127.17315"/><trkpt lat="35.574015" lon="127.173204"/><trkpt lat="35.574065" lon="127.173221"/><trkpt lat="35.574103" lon="127.173228"/><trkpt lat="35.574141" lon="127.173223"/><trkpt lat="35.574205" lon="127.173205"/><trkpt lat="35.574243" lon="127.173198"/><trkpt lat="35.574279" lon="127.173201"/><trkpt lat="35.574314" lon="127.173209"/><trkpt lat="35.57435" lon="127.173222"/><trkpt lat="35.574412" lon="127.173251"/><trkpt lat="35.574633" lon="127.173362"/><trkpt lat="35.574666" lon="127.173384"/><trkpt lat="35.57469" lon="127.173413"/><trkpt lat="35.5747" lon="127.173449"/><trkpt lat="35.574696" lon="127.173494"/><trkpt lat="35.57467" lon="127.173587"/><trkpt lat="35.57466" lon="127.173631"/><trkpt lat="35.574661" lon="127.173668"/><trkpt lat="35.57468" lon="127.17369"/><trkpt lat="35.574716" lon="127.173716"/><trkpt lat="35.574747" lon="127.173745"/><trkpt lat="35.574796" lon="127.1738"/><trkpt lat="35.574828" lon="127.17383"/><trkpt lat="35.574862" lon="127.173855"/><trkpt lat="35.575052" lon="127.173975"/><trkpt lat="35.5751" lon="127.174002"/><trkpt lat="35.575138" lon="127.174017"/><trkpt lat="35.575191" lon="127.174028"/><trkpt lat="35.575392" lon="127.174053"/><trkpt lat="35.575444" lon="127.174063"/><trkpt lat="35.575482" lon="127.174077"/><trkpt lat="35.575544" lon="127.17411"/><trkpt lat="35.575983" lon="127.174365"/><trkpt lat="35.576055" lon="127.17441"/><trkpt lat="35.576087" lon="127.174438"/><trkpt lat="35.576126" lon="127.174483"/><trkpt lat="35.576243" lon="127.174641"/><trkpt lat="35.576287" lon="127.174703"/><trkpt lat="35.576309" lon="127.174742"/><trkpt lat="35.576325" lon="127.174783"/><trkpt lat="35.576343" lon="127.174838"/><trkpt lat="35.576363" lon="127.174879"/><trkpt lat="35.576394" lon="127.17493"/><trkpt lat="35.576459" lon="127.175033"/><trkpt lat="35.576478" lon="127.175074"/><trkpt lat="35.576487" lon="127.175117"/><trkpt lat="35.576489" lon="127.175161"/><trkpt lat="35.576486" lon="127.1752"/><trkpt lat="35.576469" lon="127.175227"/><trkpt lat="35.576436" lon="127.175238"/><trkpt lat="35.576374" lon="127.175246"/><trkpt lat="35.576344" lon="127.175256"/><trkpt lat="35.576335" lon="127.175281"/><trkpt lat="35.576343" lon="127.175317"/><trkpt lat="35.576357" lon="127.175357"/><trkpt lat="35.576376" lon="127.175396"/><trkpt lat="35.576402" lon="127.175431"/><trkpt lat="35.576443" lon="127.175472"/><trkpt lat="35.576671" lon="127.175671"/><trkpt lat="35.576714" lon="127.175707"/><trkpt lat="35.576748" lon="127.175729"/><trkpt lat="35.576783" lon="127.175738"/><trkpt lat="35.57682" lon="127.175738"/><trkpt lat="35.576856" lon="127.175733"/><trkpt lat="35.576893" lon="127.175726"/><trkpt lat="35.576929" lon="127.175712"/><trkpt lat="35.576965" lon="127.175691"/><trkpt lat="35.577116" lon="127.175582"/><trkpt lat="35.577726" lon="127.175088"/><trkpt lat="35.578335" lon="127.174708"/><trkpt lat="35.578371" lon="127.174689"/><trkpt lat="35.578408" lon="127.17468"/><trkpt lat="35.578459" lon="127.174681"/><trkpt lat="35.578667" lon="127.174701"/><trkpt lat="35.578705" lon="127.174708"/><trkpt lat="35.578741" lon="127.174721"/><trkpt lat="35.578775" lon="127.174743"/><trkpt lat="35.578841" lon="127.174791"/><trkpt lat="35.578877" lon="127.174809"/><trkpt lat="35.578914" lon="127.174822"/><trkpt lat="35.578978" lon="127.174839"/><trkpt lat="35.579017" lon="127.174844"/><trkpt lat="35.579056" lon="127.174842"/><trkpt lat="35.579095" lon="127.174833"/><trkpt lat="35.579332" lon="127.174759"/><trkpt lat="35.579384" lon="127.174744"/><trkpt lat="35.579423" lon="127.174739"/><trkpt lat="35.579461" lon="127.174744"/><trkpt lat="35.579498" lon="127.17476"/><trkpt lat="35.579658" lon="127.174843"/><trkpt lat="35.579781" lon="127.174906"/><trkpt lat="35.57982" lon="127.174919"/><trkpt lat="35.579856" lon="127.174924"/><trkpt lat="35.579917" lon="127.17493"/><trkpt lat="35.579947" lon="127.174941"/><trkpt lat="35.579967" lon="127.174967"/><trkpt lat="35.579987" lon="127.175033"/><trkpt lat="35.580006" lon="127.17507"/><trkpt lat="35.580048" lon="127.175125"/><trkpt lat="35.580068" lon="127.17516"/><trkpt lat="35.580075" lon="127.175203"/><trkpt lat="35.580075" lon="127.17525"/><trkpt lat="35.580072" lon="127.175346"/><trkpt lat="35.580076" lon="127.175393"/><trkpt lat="35.580089" lon="127.175434"/><trkpt lat="35.580108" lon="127.175471"/><trkpt lat="35.580134" lon="127.175506"/><trkpt lat="35.580194" lon="127.175571"/><trkpt lat="35.580326" lon="127.175706"/><trkpt lat="35.580358" lon="127.175733"/><trkpt lat="35.580404" lon="127.175763"/><trkpt lat="35.580497" lon="127.175819"/><trkpt lat="35.580527" lon="127.175844"/><trkpt lat="35.580545" lon="127.175876"/><trkpt lat="35.580549" lon="127.175915"/><trkpt lat="35.580546" lon="127.175958"/><trkpt lat="35.580538" lon="127.176001"/><trkpt lat="35.580524" lon="127.176047"/><trkpt lat="35.580488" lon="127.176136"/><trkpt lat="35.580408" lon="127.176326"/><trkpt lat="35.580394" lon="127.17637"/><trkpt lat="35.580391" lon="127.176414"/><trkpt lat="35.580399" lon="127.176459"/><trkpt lat="35.580428" lon="127.176549"/><trkpt lat="35.580446" lon="127.17661"/><trkpt lat="35.580458" lon="127.176673"/><trkpt lat="35.580493" lon="127.17693"/><trkpt lat="35.580508" lon="127.177025"/><trkpt lat="35.580519" lon="127.177071"/><trkpt lat="35.580541" lon="127.177129"/><trkpt lat="35.580635" lon="127.17734"/><trkpt lat="35.580658" lon="127.177396"/><trkpt lat="35.580673" lon="127.17744"/><trkpt lat="35.580679" lon="127.177486"/><trkpt lat="35.580679" lon="127.177551"/><trkpt lat="35.580659" lon="127.177961"/><trkpt lat="35.58065" lon="127.178158"/><trkpt lat="35.58065" lon="127.178206"/><trkpt lat="35.580657" lon="127.178253"/><trkpt lat="35.580673" lon="127.178297"/><trkpt lat="35.58076" lon="127.178484"/><trkpt lat="35.580861" lon="127.178699"/><trkpt lat="35.580885" lon="127.178739"/><trkpt lat="35.580953" lon="127.178836"/><trkpt lat="35.580986" lon="127.178885"/><trkpt lat="35.581003" lon="127.178927"/><trkpt lat="35.581013" lon="127.178974"/><trkpt lat="35.58102" lon="127.179039"/><trkpt lat="35.581036" lon="127.179187"/><trkpt lat="35.581046" lon="127.179233"/><trkpt lat="35.581065" lon="127.179272"/><trkpt lat="35.581091" lon="127.179307"/><trkpt lat="35.581288" lon="127.179524"/><trkpt lat="35.581415" lon="127.179666"/><trkpt lat="35.58144" lon="127.1797"/><trkpt lat="35.581455" lon="127.17974"/><trkpt lat="35.581457" lon="127.179786"/><trkpt lat="35.581452" lon="127.17985"/><trkpt lat="35.581422" lon="127.180145"/><trkpt lat="35.581414" lon="127.180193"/><trkpt lat="35.581402" lon="127.180239"/><trkpt lat="35.581374" lon="127.180314"/><trkpt lat="35.581145" lon="127.180875"/><trkpt lat="35.581122" lon="127.180934"/><trkpt lat="35.58111" lon="127.180976"/><trkpt lat="35.581112" lon="127.181016"/><trkpt lat="35.581133" lon="127.181051"/><trkpt lat="35.58117" lon="127.181096"/><trkpt lat="35.58157" lon="127.181538"/><trkpt lat="35.58166" lon="127.181638"/><trkpt lat="35.581686" lon="127.181672"/><trkpt lat="35.581703" lon="127.181709"/><trkpt lat="35.581702" lon="127.181752"/><trkpt lat="35.581692" lon="127.181797"/><trkpt lat="35.581626" lon="127.182015"/><trkpt lat="35.581605" lon="127.182092"/><trkpt lat="35.581597" lon="127.182139"/><trkpt lat="35.581602" lon="127.182183"/><trkpt lat="35.581616" lon="127.182227"/><trkpt lat="35.581635" lon="127.18227"/><trkpt lat="35.581656" lon="127.182311"/><trkpt lat="35.58168" lon="127.182347"/><trkpt lat="35.581715" lon="127.18238"/><trkpt lat="35.581731" lon="127.182403"/><trkpt lat="35.581723" lon="127.182432"/><trkpt lat="35.581705" lon="127.182478"/><trkpt lat="35.581678" lon="127.182555"/><trkpt lat="35.581621" lon="127.182634"/><trkpt lat="35.581602" lon="127.182684"/><trkpt lat="35.581524" lon="127.182926"/><trkpt lat="35.581503" lon="127.182983"/><trkpt lat="35.581484" lon="127.183018"/><trkpt lat="35.58146" lon="127.183039"/><trkpt lat="35.581431" lon="127.183057"/><trkpt lat="35.581419" lon="127.183092"/><trkpt lat="35.581397" lon="127.183121"/><trkpt lat="35.581346" lon="127.18316"/><trkpt lat="35.581316" lon="127.183184"/><trkpt lat="35.581296" lon="127.183218"/><trkpt lat="35.581284" lon="127.183259"/><trkpt lat="35.581278" lon="127.183304"/><trkpt lat="35.581278" lon="127.18335"/><trkpt lat="35.581285" lon="127.183413"/><trkpt lat="35.581313" lon="127.183601"/><trkpt lat="35.581323" lon="127.183647"/><trkpt lat="35.581335" lon="127.183693"/><trkpt lat="35.581408" lon="127.184051"/><trkpt lat="35.581456" lon="127.184202"/><trkpt lat="35.581483" lon="127.184311"/><trkpt lat="35.581691" lon="127.185043"/></trkseg>
<trkseg><trkpt lat="35.560683" lon="127.194399"/><trkpt lat="35.560879" lon="127.194343"/><trkpt lat="35.560922" lon="127.194309"/><trkpt lat="35.560951" lon="127.194279"/><trkpt lat="35.560974" lon="127.194241"/><trkpt lat="35.560999" lon="127.194184"/><trkpt lat="35.561373" lon="127.193274"/><trkpt lat="35.561458" lon="127.193069"/><trkpt lat="35.561473" lon="127.193025"/><trkpt lat="35.561479" lon="127.192979"/><trkpt lat="35.561475" lon="127.192932"/><trkpt lat="35.561464" lon="127.192868"/><trkpt lat="35.561376" lon="127.19242"/><trkpt lat="35.56137" lon="127.192372"/><trkpt lat="35.56137" lon="127.192324"/><trkpt lat="35.561375" lon="127.192277"/><trkpt lat="35.561383" lon="127.19223"/><trkpt lat="35.561395" lon="127.192185"/><trkpt lat="35.561415" lon="127.192142"/><trkpt lat="35.561446" lon="127.192089"/><trkpt lat="35.563352" lon="127.188963"/><trkpt lat="35.563571" lon="127.188606"/><trkpt lat="35.563613" lon="127.188545"/><trkpt lat="35.563666" lon="127.188479"/><trkpt lat="35.563703" lon="127.188438"/><trkpt lat="35.563735" lon="127.188411"/><trkpt lat="35.563858" lon="127.188323"/><trkpt lat="35.5639" lon="127.188289"/><trkpt lat="35.563927" lon="127.188258"/><trkpt lat="35.563946" lon="127.188218"/><trkpt lat="35.56396" lon="127.188174"/><trkpt lat="35.563978" lon="127.188096"/><trkpt lat="35.563985" lon="127.188049"/><trkpt lat="35.563986" lon="127.188001"/><trkpt lat="35.563982" lon="127.187936"/><trkpt lat="35.563969" lon="127.187757"/><trkpt lat="35.56397" lon="127.187708"/><trkpt lat="35.563978" lon="127.187627"/><trkpt lat="35.563993" lon="127.18753"/><trkpt lat="35.564004" lon="127.187484"/><trkpt lat="35.564025" lon="127.187424"/><trkpt lat="35.564306" lon="127.18674"/><trkpt lat="35.564343" lon="127.186653"/><trkpt lat="35.564365" lon="127.186612"/><trkpt lat="35.56442" lon="127.186518"/><trkpt lat="35.564654" lon="127.186133"/><trkpt lat="35.564688" lon="127.186065"/><trkpt lat="35.564763" lon="127.185896"/><trkpt lat="35.564786" lon="127.18584"/><trkpt lat="35.564798" lon="127.185796"/><trkpt lat="35.564802" lon="127.18575"/><trkpt lat="35.564801" lon="127.185686"/><trkpt lat="35.564796" lon="127.185558"/><trkpt lat="35.564799" lon="127.185512"/><trkpt lat="35.56481" lon="127.185468"/><trkpt lat="35.564828" lon="127.185426"/><trkpt lat="35.56492" lon="127.185248"/><trkpt lat="35.564961" lon="127.185165"/><trkpt lat="35.564977" lon="127.185121"/><trkpt lat="35.564987" lon="127.185075"/><trkpt lat="35.565002" lon="127.184962"/><trkpt lat="35.565029" lon="127.184718"/><trkpt lat="35.565038" lon="127.184671"/><trkpt lat="35.565052" lon="127.184627"/><trkpt lat="35.565074" lon="127.184588"/><trkpt lat="35.565184" lon="127.184426"/><trkpt lat="35.565391" lon="127.184128"/><trkpt lat="35.565423" lon="127.184077"/><trkpt lat="35.565439" lon="127.184036"/><trkpt lat="35.565444" lon="127.183991"/><trkpt lat="35.565442" lon="127.183944"/><trkpt lat="35.56538" lon="127.183689"/><trkpt lat="35.565364" lon="127.183624"/><trkpt lat="35.565369" lon="127.183549"/><trkpt lat="35.565456" lon="127.183552"/><trkpt lat="35.565693" lon="127.183125"/><trkpt lat="35.565722" lon="127.183051"/><trkpt lat="35.565735" lon="127.183005"/><trkpt lat="35.565741" lon="127.182959"/><trkpt lat="35.565744" lon="127.182864"/><trkpt lat="35.565747" lon="127.182816"/><trkpt lat="35.565755" lon="127.182772"/><trkpt lat="35.565774" lon="127.182731"/><trkpt lat="35.565798" lon="127.182693"/><trkpt lat="35.565834" lon="127.182646"/><trkpt lat="35.565863" lon="127.182613"/><trkpt lat="35.565896" lon="127.182587"/><trkpt lat="35.56599" lon="127.182525"/><trkpt lat="35.566023" lon="127.1825"/><trkpt lat="35.566053" lon="127.182469"/><trkpt lat="35.566078" lon="127.182432"/><trkpt lat="35.566108" lon="127.182377"/><trkpt lat="35.566128" lon="127.182334"/><trkpt lat="35.566143" lon="127.18229"/><trkpt lat="35.566151" lon="127.182243"/><trkpt lat="35.566166" lon="127.182115"/><trkpt lat="35.566171" lon="127.182051"/><trkpt lat="35.56617" lon="127.182004"/><trkpt lat="35.566162" lon="127.181957"/><trkpt lat="35.566146" lon="127.181894"/><trkpt lat="35.566046" lon="127.181554"/><trkpt lat="35.566031" lon="127.181491"/><trkpt lat="35.566027" lon="127.181444"/><trkpt lat="35.56603" lon="127.181396"/><trkpt lat="35.56605" lon="127.181266"/><trkpt lat="35.566063" lon="127.181203"/><trkpt lat="35.56608" lon="127.181141"/><trkpt lat="35.566096" lon="127.181096"/><trkpt lat="35.566115" lon="127.181056"/><trkpt lat="35.56614" lon="127.181021"/><trkpt lat="35.566204" lon="127.180943"/><trkpt lat="35.566228" lon="127.180907"/><trkpt lat="35.566246" lon="127.180866"/><trkpt lat="35.566259" lon="127.180819"/><trkpt lat="35.566297" lon="127.180644"/><trkpt lat="35.566313" lon="127.180582"/><trkpt lat="35.566329" lon="127.180539"/><trkpt lat="35.566383" lon="127.180434"/><trkpt lat="35.566401" lon="127.180393"/><trkpt lat="35.566416" lon="127.180349"/><trkpt lat="35.566438" lon="127.180254"/><trkpt lat="35.56646" lon="127.180141"/><trkpt lat="35.566467" lon="127.180093"/><trkpt lat="35.566469" lon="127.180044"/><trkpt lat="35.566465" lon="127.179929"/><trkpt lat="35.566465" lon="127.17988"/><trkpt lat="35.566472" lon="127.179833"/><trkpt lat="35.566486" lon="127.179789"/><trkpt lat="35.56651" lon="127.179731"/><trkpt lat="35.566598" lon="127.17953"/><trkpt lat="35.566621" lon="127.179472"/><trkpt lat="35.566631" lon="127.179427"/><trkpt lat="35.566635" lon="127.179381"/><trkpt lat="35.566638" lon="127.179272"/><trkpt lat="35.566642" lon="127.179227"/><trkpt lat="35.566655" lon="127.179184"/><trkpt lat="35.566675" lon="127.179142"/><trkpt lat="35.566861" lon="127.178823"/><trkpt lat="35.566898" lon="127.178756"/><trkpt lat="35.566918" lon="127.178715"/><trkpt lat="35.56693" lon="127.17867"/><trkpt lat="35.566938" lon="127.178623"/><trkpt lat="35.566956" lon="127.178448"/><trkpt lat="35.566965" lon="127.178385"/><trkpt lat="35.566977" lon="127.17834"/><trkpt lat="35.567017" lon="127.178224"/><trkpt lat="35.567034" lon="127.178166"/><trkpt lat="35.567041" lon="127.17812"/><trkpt lat="35.567044" lon="127.178056"/><trkpt lat="35.567043" lon="127.177782"/><trkpt lat="35.567046" lon="127.177719"/><trkpt lat="35.567055" lon="127.177675"/><trkpt lat="35.567074" lon="127.177638"/><trkpt lat="35.567114" lon="127.177586"/><trkpt lat="35.56713" lon="127.177562"/><trkpt lat="35.567143" lon="127.177554"/><trkpt lat="35.567224" lon="127.177516"/><trkpt lat="35.567263" lon="127.177479"/><trkpt lat="35.567336" lon="127.177415"/><trkpt lat="35.567363" lon="127.177386"/><trkpt lat="35.567382" lon="127.17735"/><trkpt lat="35.56739" lon="127.177306"/><trkpt lat="35.567401" lon="127.17723"/><trkpt lat="35.567415" lon="127.177185"/><trkpt lat="35.567445" lon="127.177113"/><trkpt lat="35.567504" lon="127.176984"/><trkpt lat="35.567518" lon="127.17694"/><trkpt lat="35.567523" lon="127.176897"/><trkpt lat="35.567519" lon="127.176856"/><trkpt lat="35.567503" lon="127.176818"/><trkpt lat="35.567476" lon="127.176785"/><trkpt lat="35.567429" lon="127.176732"/><trkpt lat="35.567413" lon="127.176695"/><trkpt lat="35.567412" lon="127.176652"/><trkpt lat="35.567417" lon="127.176607"/><trkpt lat="35.567427" lon="127.176561"/><trkpt lat="35.567442" lon="127.176517"/><trkpt lat="35.567463" lon="127.176476"/><trkpt lat="35.567512" lon="127.176398"/><trkpt lat="35.567546" lon="127.176348"/><trkpt lat="35.567575" lon="127.176314"/><trkpt lat="35.567884" lon="127.176007"/><trkpt lat="35.567985" lon="127.175754"/><trkpt lat="35.567952" lon="127.175683"/><trkpt lat="35.567944" lon="127.175639"/><trkpt lat="35.567942" lon="127.175591"/><trkpt lat="35.567939" lon="127.175161"/><trkpt lat="35.56794" lon="127.175097"/><trkpt lat="35.567945" lon="127.175051"/><trkpt lat="35.56796" lon="127.175016"/><trkpt lat="35.567977" lon="127.174881"/><trkpt lat="35.567934" lon="127.174795"/><trkpt lat="35.56791" lon="127.174769"/><trkpt lat="35.567892" lon="127.17473"/><trkpt lat="35.567874" lon="127.174669"/><trkpt lat="35.567861" lon="127.174607"/><trkpt lat="35.567857" lon="127.17456"/><trkpt lat="35.567864" lon="127.174515"/><trkpt lat="35.567881" lon="127.174456"/><trkpt lat="35.567919" lon="127.174338"/><trkpt lat="35.56793" lon="127.174293"/><trkpt lat="35.567933" lon="127.174246"/><trkpt lat="35.56793" lon="127.174198"/><trkpt lat="35.567919" lon="127.174085"/><trkpt lat="35.56792" lon="127.174039"/><trkpt lat="35.567931" lon="127.173997"/><trkpt lat="35.567959" lon="127.173932"/><trkpt lat="35.56797" lon="127.173891"/><trkpt lat="35.567971" lon="127.173844"/><trkpt lat="35.567966" lon="127.17378"/><trkpt lat="35.567899" lon="127.173195"/><trkpt lat="35.56788" lon="127.173032"/><trkpt lat="35.567878" lon="127.172985"/><trkpt lat="35.567884" lon="127.172943"/><trkpt lat="35.567906" lon="127.172909"/><trkpt lat="35.567946" lon="127.172871"/><trkpt lat="35.568057" lon="127.172782"/><trkpt lat="35.568091" lon="127.172761"/><trkpt lat="35.568125" lon="127.172756"/><trkpt lat="35.568159" lon="127.172769"/><trkpt lat="35.568252" lon="127.172798"/><trkpt lat="35.568487" lon="127.172814"/><trkpt lat="35.56852" lon="127.172804"/><trkpt lat="35.568553" lon="127.172815"/><trkpt lat="35.568584" lon="127.172837"/><trkpt lat="35.568726" lon="127.172962"/><trkpt lat="35.568764" lon="127.172996"/></trkseg>
<trkseg><trkpt lat="35.584542" lon="127.176409"/><trkpt lat="35.584602" lon="127.176212"/><trkpt lat="35.584619" lon="127.176169"/><trkpt lat="35.584641" lon="127.176129"/><trkpt lat="35.584764" lon="127.175939"/><trkpt lat="35.584795" lon="127.175887"/><trkpt lat="35.584814" lon="127.175847"/><trkpt lat="35.584821" lon="127.175803"/><trkpt lat="35.58482" lon="127.175755"/><trkpt lat="35.584796" lon="127.175542"/><trkpt lat="35.584754" lon="127.175181"/><trkpt lat="35.58475" lon="127.175116"/><trkpt lat="35.584754" lon="127.175069"/><trkpt lat="35.584766" lon="127.175024"/><trkpt lat="35.584798" lon="127.174936"/><trkpt lat="35.584909" lon="127.174725"/><trkpt lat="35.584928" lon="127.174683"/><trkpt lat="35.585067" lon="127.174429"/><trkpt lat="35.585175" lon="127.174195"/><trkpt lat="35.585199" lon="127.174158"/><trkpt lat="35.585227" lon="127.174122"/><trkpt lat="35.58538" lon="127.173951"/><trkpt lat="35.585513" lon="127.173822"/><trkpt lat="35.585544" lon="127.173792"/><trkpt lat="35.585578" lon="127.173772"/><trkpt lat="35.585616" lon="127.173764"/><trkpt lat="35.585683" lon="127.173759"/><trkpt lat="35.585831" lon="127.173762"/><trkpt lat="35.585871" lon="127.173755"/><trkpt lat="35.585909" lon="127.173743"/><trkpt lat="35.586074" lon="127.173672"/><trkpt lat="35.586148" lon="127.173636"/><trkpt lat="35.586181" lon="127.173612"/><trkpt lat="35.586207" lon="127.173578"/><trkpt lat="35.58623" lon="127.173539"/><trkpt lat="35.586392" lon="127.173225"/><trkpt lat="35.586429" lon="127.173159"/><trkpt lat="35.586453" lon="127.173123"/><trkpt lat="35.586484" lon="127.173097"/><trkpt lat="35.586519" lon="127.173078"/><trkpt lat="35.586657" lon="127.173021"/><trkpt lat="35.586732" lon="127.172988"/><trkpt lat="35.586767" lon="127.172967"/><trkpt lat="35.5868" lon="127.172941"/><trkpt lat="35.586896" lon="127.172855"/><trkpt lat="35.586937" lon="127.172815"/><trkpt lat="35.586963" lon="127.172781"/><trkpt lat="35.586983" lon="127.17274"/><trkpt lat="35.587013" lon="127.172649"/><trkpt lat="35.587153" lon="127.172124"/><trkpt lat="35.587173" lon="127.172064"/><trkpt lat="35.587193" lon="127.172028"/><trkpt lat="35.587221" lon="127.172009"/><trkpt lat="35.587256" lon="127.172004"/><trkpt lat="35.587308" lon="127.172005"/><trkpt lat="35.587448" lon="127.172042"/><trkpt lat="35.587486" lon="127.172039"/><trkpt lat="35.587521" lon="127.172026"/><trkpt lat="35.587554" lon="127.172001"/><trkpt lat="35.587595" lon="127.171961"/><trkpt lat="35.58777" lon="127.17178"/><trkpt lat="35.587799" lon="127.171746"/><trkpt lat="35.587824" lon="127.171709"/><trkpt lat="35.587843" lon="127.171667"/><trkpt lat="35.587946" lon="127.171508"/><trkpt lat="35.58813" lon="127.170907"/><trkpt lat="35.588156" lon="127.170832"/><trkpt lat="35.588168" lon="127.170785"/><trkpt lat="35.588176" lon="127.170737"/><trkpt lat="35.588246" lon="127.170066"/><trkpt lat="35.588256" lon="127.169985"/><trkpt lat="35.588266" lon="127.169938"/><trkpt lat="35.588282" lon="127.169895"/><trkpt lat="35.588316" lon="127.169826"/><trkpt lat="35.588435" lon="127.169595"/><trkpt lat="35.588454" lon="127.169553"/><trkpt lat="35.58847" lon="127.169508"/><trkpt lat="35.58853" lon="127.169309"/><trkpt lat="35.588584" lon="127.169124"/><trkpt lat="35.588595" lon="127.169077"/><trkpt lat="35.5886" lon="127.169029"/><trkpt lat="35.588599" lon="127.168948"/><trkpt lat="35.588582" lon="127.168486"/><trkpt lat="35.58858" lon="127.168421"/><trkpt lat="35.588583" lon="127.168373"/><trkpt lat="35.588595" lon="127.168329"/><trkpt lat="35.588621" lon="127.168274"/><trkpt lat="35.588729" lon="127.168072"/><trkpt lat="35.588774" lon="127.167993"/><trkpt lat="35.588801" lon="127.167958"/><trkpt lat="35.588841" lon="127.167919"/><trkpt lat="35.589024" lon="127.167766"/><trkpt lat="35.589065" lon="127.167728"/><trkpt lat="35.589104" lon="127.167685"/><trkpt lat="35.589372" lon="127.167347"/><trkpt lat="35.589406" lon="127.167299"/><trkpt lat="35.589427" lon="127.16726"/><trkpt lat="35.58944" lon="127.167215"/><trkpt lat="35.589451" lon="127.167135"/><trkpt lat="35.589496" lon="127.166727"/><trkpt lat="35.5895" lon="127.166662"/><trkpt lat="35.589498" lon="127.166547"/><trkpt lat="35.58948" lon="127.16594"/><trkpt lat="35.589475" lon="127.165875"/><trkpt lat="35.589432" lon="127.165583"/><trkpt lat="35.589391" lon="127.165324"/><trkpt lat="35.589378" lon="127.16526"/><trkpt lat="35.589346" lon="127.165153"/><trkpt lat="35.589245" lon="127.164558"/><trkpt lat="35.589082" lon="127.16433"/><trkpt lat="35.589064" lon="127.164287"/><trkpt lat="35.58904" lon="127.164249"/><trkpt lat="35.589011" lon="127.164216"/><trkpt lat="35.588786" lon="127.163981"/><trkpt lat="35.588571" lon="127.163756"/><trkpt lat="35.588539" lon="127.163726"/><trkpt lat="35.588505" lon="127.163704"/><trkpt lat="35.588468" lon="127.163689"/><trkpt lat="35.588404" lon="127.163671"/><trkpt lat="35.588237" lon="127.163629"/><trkpt lat="35.588199" lon="127.163624"/><trkpt lat="35.58816" lon="127.163627"/><trkpt lat="35.58807" lon="127.163646"/><trkpt lat="35.587838" lon="127.163698"/><trkpt lat="35.587799" lon="127.163701"/><trkpt lat="35.587762" lon="127.163695"/><trkpt lat="35.587712" lon="127.163675"/><trkpt lat="35.587391" lon="127.163518"/><trkpt lat="35.587318" lon="127.163478"/><trkpt lat="35.587093" lon="127.163328"/><trkpt lat="35.586917" lon="127.163209"/><trkpt lat="35.58688" lon="127.16319"/><trkpt lat="35.586843" lon="127.163178"/><trkpt lat="35.586791" lon="127.16317"/><trkpt lat="35.586674" lon="127.163161"/><trkpt lat="35.586621" lon="127.16316"/><trkpt lat="35.586583" lon="127.163165"/><trkpt lat="35.586507" lon="127.16319"/><trkpt lat="35.586469" lon="127.1632"/><trkpt lat="35.586432" lon="127.1632"/><trkpt lat="35.586394" lon="127.163187"/><trkpt lat="35.586333" lon="127.163155"/><trkpt lat="35.585744" lon="127.162833"/><trkpt lat="35.58551" lon="127.162707"/><trkpt lat="35.585472" lon="127.162692"/><trkpt lat="35.585434" lon="127.162685"/><trkpt lat="35.585328" lon="127.162679"/><trkpt lat="35.585101" lon="127.162672"/><trkpt lat="35.585064" lon="127.162668"/><trkpt lat="35.585033" lon="127.162657"/><trkpt lat="35.585019" lon="127.162628"/><trkpt lat="35.585019" lon="127.162585"/><trkpt lat="35.585062" lon="127.162256"/><trkpt lat="35.585069" lon="127.162192"/><trkpt lat="35.585069" lon="127.162152"/><trkpt lat="35.585056" lon="127.162131"/><trkpt lat="35.585028" lon="127.162133"/><trkpt lat="35.584982" lon="127.16215"/><trkpt lat="35.584933" lon="127.162172"/><trkpt lat="35.584898" lon="127.162193"/><trkpt lat="35.584866" lon="127.16222"/><trkpt lat="35.584829" lon="127.162264"/><trkpt lat="35.584756" lon="127.162357"/><trkpt lat="35.584727" lon="127.162387"/><trkpt lat="35.584695" lon="127.162412"/><trkpt lat="35.584628" lon="127.162458"/><trkpt lat="35.584594" lon="127.162477"/><trkpt lat="35.584559" lon="127.162492"/><trkpt lat="35.584523" lon="127.162503"/><trkpt lat="35.584488" lon="127.16251"/><trkpt lat="35.584451" lon="127.162509"/><trkpt lat="35.584411" lon="127.162499"/><trkpt lat="35.584312" lon="127.162464"/><trkpt lat="35.584303" lon="127.162461"/></trkseg>
<trkseg><trkpt lat="35.553692" lon="127.14975"/><trkpt lat="35.553627" lon="127.149882"/><trkpt lat="35.553611" lon="127.149924"/><trkpt lat="35.5536" lon="127.149969"/><trkpt lat="35.553554" lon="127.150219"/><trkpt lat="35.553542" lon="127.150297"/><trkpt lat="35.55354" lon="127.150344"/><trkpt lat="35.553547" lon="127.150387"/><trkpt lat="35.55356" lon="127.150428"/><trkpt lat="35.553582" lon="127.150463"/><trkpt lat="35.553612" lon="127.150492"/><trkpt lat="35.553693" lon="127.15055"/><trkpt lat="35.553738" lon="127.150584"/><trkpt lat="35.553767" lon="127.150614"/><trkpt lat="35.553786" lon="127.150651"/><trkpt lat="35.553797" lon="127.150695"/><trkpt lat="35.553806" lon="127.150756"/><trkpt lat="35.553813" lon="127.150819"/><trkpt lat="35.553813" lon="127.150866"/><trkpt lat="35.553809" lon="127.150914"/><trkpt lat="35.553786" lon="127.151074"/><trkpt lat="35.553779" lon="127.151136"/><trkpt lat="35.55378" lon="127.151178"/><trkpt lat="35.553798" lon="127.151211"/><trkpt lat="35.553829" lon="127.151237"/><trkpt lat="35.553877" lon="127.151267"/><trkpt lat="35.554012" lon="127.151346"/><trkpt lat="35.554045" lon="127.151372"/><trkpt lat="35.554071" lon="127.151404"/><trkpt lat="35.554088" lon="127.151445"/><trkpt lat="35.554108" lon="127.151521"/><trkpt lat="35.554185" lon="127.151813"/><trkpt lat="35.554199" lon="127.151858"/><trkpt lat="35.554218" lon="127.151899"/><trkpt lat="35.554242" lon="127.151936"/><trkpt lat="35.554269" lon="127.151969"/><trkpt lat="35.554299" lon="127.152"/><trkpt lat="35.554332" lon="127.152025"/><trkpt lat="35.554461" lon="127.152105"/><trkpt lat="35.554507" lon="127.152135"/><trkpt lat="35.554539" lon="127.152161"/><trkpt lat="35.554565" lon="127.152194"/><trkpt lat="35.554583" lon="127.152232"/><trkpt lat="35.554593" lon="127.152272"/><trkpt lat="35.554589" lon="127.152312"/><trkpt lat="35.554574" lon="127.152353"/><trkpt lat="35.554546" lon="127.152421"/><trkpt lat="35.554536" lon="127.152464"/><trkpt lat="35.554537" lon="127.152511"/><trkpt lat="35.554547" lon="127.15259"/><trkpt lat="35.554594" lon="127.152895"/><trkpt lat="35.5546" lon="127.152959"/><trkpt lat="35.5546" lon="127.153006"/><trkpt lat="35.554588" lon="127.153118"/><trkpt lat="35.554557" lon="127.153373"/><trkpt lat="35.554552" lon="127.153437"/><trkpt lat="35.554553" lon="127.153501"/><trkpt lat="35.554556" lon="127.153581"/><trkpt lat="35.554562" lon="127.153627"/><trkpt lat="35.554577" lon="127.153684"/><trkpt lat="35.554584" lon="127.153724"/><trkpt lat="35.554578" lon="127.153766"/><trkpt lat="35.554562" lon="127.153838"/><trkpt lat="35.554564" lon="127.153883"/><trkpt lat="35.554572" lon="127.153929"/><trkpt lat="35.554594" lon="127.154036"/><trkpt lat="35.554598" lon="127.154082"/><trkpt lat="35.554587" lon="127.154156"/><trkpt lat="35.554584" lon="127.154198"/><trkpt lat="35.554597" lon="127.154233"/><trkpt lat="35.554624" lon="127.154263"/><trkpt lat="35.554667" lon="127.1543"/><trkpt lat="35.555047" lon="127.154607"/><trkpt lat="35.555102" lon="127.154654"/><trkpt lat="35.555131" lon="127.154685"/><trkpt lat="35.555152" lon="127.154723"/><trkpt lat="35.555168" lon="127.154766"/><trkpt lat="35.555226" lon="127.154982"/><trkpt lat="35.55531" lon="127.155289"/><trkpt lat="35.555325" lon="127.155334"/><trkpt lat="35.555345" lon="127.155375"/><trkpt lat="35.555377" lon="127.155427"/><trkpt lat="35.555548" lon="127.155681"/><trkpt lat="35.555588" lon="127.155745"/><trkpt lat="35.555607" lon="127.155786"/><trkpt lat="35.555614" lon="127.155829"/><trkpt lat="35.555612" lon="127.155875"/><trkpt lat="35.555602" lon="127.155969"/><trkpt lat="35.555601" lon="127.156016"/><trkpt lat="35.555606" lon="127.156063"/><trkpt lat="35.555619" lon="127.156124"/><trkpt lat="35.555645" lon="127.156231"/><trkpt lat="35.55566" lon="127.156274"/><trkpt lat="35.55568" lon="127.156314"/><trkpt lat="35.555728" lon="127.15639"/><trkpt lat="35.55586" lon="127.15659"/><trkpt lat="35.555887" lon="127.156625"/><trkpt lat="35.555916" lon="127.156656"/><trkpt lat="35.555978" lon="127.15671"/><trkpt lat="35.556001" lon="127.156743"/><trkpt lat="35.556012" lon="127.156783"/><trkpt lat="35.556016" lon="127.156829"/><trkpt lat="35.556021" lon="127.156921"/><trkpt lat="35.556029" lon="127.156962"/><trkpt lat="35.556046" lon="127.156992"/><trkpt lat="35.556071" lon="127.15703"/><trkpt lat="35.556081" lon="127.157068"/><trkpt lat="35.556081" lon="127.157112"/><trkpt lat="35.556071" lon="127.157175"/><trkpt lat="35.556045" lon="127.157303"/><trkpt lat="35.55604" lon="127.157351"/><trkpt lat="35.55604" lon="127.157398"/><trkpt lat="35.556043" lon="127.157444"/><trkpt lat="35.55605" lon="127.157489"/><trkpt lat="35.556065" lon="127.157529"/><trkpt lat="35.556091" lon="127.157564"/><trkpt lat="35.556143" lon="127.157616"/><trkpt lat="35.556439" lon="127.157906"/><trkpt lat="35.556597" lon="127.158062"/><trkpt lat="35.556625" lon="127.158097"/><trkpt lat="35.556646" lon="127.158135"/><trkpt lat="35.556694" lon="127.158247"/><trkpt lat="35.556715" lon="127.158305"/><trkpt lat="35.556726" lon="127.15835"/><trkpt lat="35.556733" lon="127.158397"/><trkpt lat="35.556742" lon="127.15849"/><trkpt lat="35.556751" lon="127.158532"/><trkpt lat="35.556818" lon="127.158968"/><trkpt lat="35.556811" lon="127.159048"/><trkpt lat="35.556812" lon="127.159096"/><trkpt lat="35.55682" lon="127.159144"/><trkpt lat="35.556893" lon="127.159461"/><trkpt lat="35.557134" lon="127.160508"/><trkpt lat="35.557154" lon="127.160587"/><trkpt lat="35.55717" lon="127.16063"/><trkpt lat="35.557192" lon="127.160664"/><trkpt lat="35.55722" lon="127.160689"/><trkpt lat="35.557254" lon="127.160699"/><trkpt lat="35.557293" lon="127.160696"/><trkpt lat="35.557399" lon="127.160673"/><trkpt lat="35.557466" lon="127.160661"/><trkpt lat="35.557504" lon="127.16066"/><trkpt lat="35.55754" lon="127.160672"/><trkpt lat="35.557575" lon="127.160696"/><trkpt lat="35.55773" lon="127.160827"/><trkpt lat="35.557783" lon="127.160876"/><trkpt lat="35.557809" lon="127.160908"/><trkpt lat="35.557822" lon="127.160943"/><trkpt lat="35.557833" lon="127.160987"/><trkpt lat="35.557849" lon="127.161007"/><trkpt lat="35.55788" lon="127.161029"/><trkpt lat="35.557904" lon="127.161059"/><trkpt lat="35.557959" lon="127.161145"/><trkpt lat="35.557991" lon="127.161193"/><trkpt lat="35.558018" lon="127.161226"/><trkpt lat="35.558063" lon="127.161267"/><trkpt lat="35.558088" lon="127.161299"/><trkpt lat="35.558118" lon="127.161352"/><trkpt lat="35.55818" lon="127.161479"/><trkpt lat="35.558203" lon="127.161519"/><trkpt lat="35.55823" lon="127.161553"/><trkpt lat="35.558285" lon="127.161595"/><trkpt lat="35.558317" lon="127.161622"/><trkpt lat="35.558343" lon="127.161656"/><trkpt lat="35.558363" lon="127.161696"/><trkpt lat="35.558418" lon="127.161823"/><trkpt lat="35.558439" lon="127.161862"/><trkpt lat="35.558467" lon="127.161893"/><trkpt lat="35.558499" lon="127.161919"/><trkpt lat="35.558579" lon="127.161975"/><trkpt lat="35.55861" lon="127.162002"/><trkpt lat="35.558633" lon="127.162036"/><trkpt lat="35.558661" lon="127.162082"/><trkpt lat="35.558691" lon="127.162109"/><trkpt lat="35.558724" lon="127.162132"/><trkpt lat="35.55883" lon="127.162194"/><trkpt lat="35.558864" lon="127.162217"/><trkpt lat="35.558892" lon="127.162247"/><trkpt lat="35.558913" lon="127.162285"/><trkpt lat="35.55896" lon="127.162395"/><trkpt lat="35.558986" lon="127.162448"/><trkpt lat="35.55901" lon="127.16248"/><trkpt lat="35.559042" lon="127.162501"/><trkpt lat="35.559087" lon="127.162523"/><trkpt lat="35.559113" lon="127.162549"/><trkpt lat="35.559128" lon="127.162589"/><trkpt lat="35.55915" lon="127.162662"/><trkpt lat="35.559169" lon="127.162701"/><trkpt lat="35.559202" lon="127.162744"/><trkpt lat="35.55922" lon="127.162781"/><trkpt lat="35.559225" lon="127.162824"/><trkpt lat="35.559228" lon="127.162911"/><trkpt lat="35.559238" lon="127.162941"/><trkpt lat="35.559263" lon="127.162981"/><trkpt lat="35.559288" lon="127.163039"/><trkpt lat="35.559308" lon="127.163069"/><trkpt lat="35.559345" lon="127.163111"/><trkpt lat="35.559364" lon="127.163149"/><trkpt lat="35.559384" lon="127.163205"/><trkpt lat="35.559423" lon="127.163322"/><trkpt lat="35.559442" lon="127.163363"/><trkpt lat="35.559466" lon="127.163401"/><trkpt lat="35.559523" lon="127.163471"/><trkpt lat="35.559784" lon="127.16378"/><trkpt lat="35.559812" lon="127.163816"/><trkpt lat="35.559843" lon="127.163869"/><trkpt lat="35.559878" lon="127.163938"/><trkpt lat="35.559894" lon="127.163981"/><trkpt lat="35.559912" lon="127.164039"/><trkpt lat="35.559936" lon="127.164066"/><trkpt lat="35.559967" lon="127.164087"/><trkpt lat="35.560034" lon="127.164129"/><trkpt lat="35.560063" lon="127.164158"/><trkpt lat="35.560087" lon="127.164195"/><trkpt lat="35.560115" lon="127.164251"/><trkpt lat="35.560388" lon="127.164815"/><trkpt lat="35.560413" lon="127.164872"/><trkpt lat="35.560445" lon="127.164963"/><trkpt lat="35.560485" lon="127.165085"/><trkpt lat="35.560503" lon="127.165128"/><trkpt lat="35.560526" lon="127.165166"/><trkpt lat="35.560553" lon="127.165201"/><trkpt lat="35.560671" lon="127.165331"/><trkpt lat="35.560708" lon="127.165375"/><trkpt lat="35.560732" lon="127.165412"/><trkpt lat="35.560749" lon="127.165454"/><trkpt lat="35.560763" lon="127.165499"/><trkpt lat="35.560802" lon="127.165653"/><trkpt lat="35.560821" lon="127.165712"/><trkpt lat="35.56084" lon="127.165749"/><trkpt lat="35.560871" lon="127.165773"/><trkpt lat="35.560919" lon="127.165797"/><trkpt lat="35.561085" lon="127.165862"/><trkpt lat="35.561275" lon="127.165939"/><trkpt lat="35.561326" lon="127.165956"/><trkpt lat="35.561365" lon="127.165963"/><trkpt lat="35.561417" lon="127.165963"/><trkpt lat="35.561575" lon="127.165947"/><trkpt lat="35.561628" lon="127.16594"/><trkpt lat="35.56168" lon="127.165927"/><trkpt lat="35.562364" lon="127.165699"/><trkpt lat="35.562584" lon="127.165625"/><trkpt lat="35.562636" lon="127.165612"/><trkpt lat="35.562689" lon="127.165607"/><trkpt lat="35.562929" lon="127.165603"/><trkpt lat="35.563049" lon="127.165599"/><trkpt lat="35.563088" lon="127.165593"/><trkpt lat="35.563165" lon="127.165574"/><trkpt lat="35.563267" lon="127.165545"/><trkpt lat="35.563304" lon="127.16553"/><trkpt lat="35.563364" lon="127.165499"/><trkpt lat="35.563555" lon="127.165389"/><trkpt lat="35.563603" lon="127.165364"/><trkpt lat="35.56364" lon="127.165348"/><trkpt lat="35.56369" lon="127.165337"/><trkpt lat="35.563767" lon="127.165324"/><trkpt lat="35.563804" lon="127.165311"/><trkpt lat="35.56384" lon="127.16529"/><trkpt lat="35.56391" lon="127.16524"/><trkpt lat="35.56413" lon="127.165081"/><trkpt lat="35.564166" lon="127.165059"/><trkpt lat="35.564203" lon="127.165042"/><trkpt lat="35.564419" lon="127.164966"/><trkpt lat="35.564483" lon="127.164947"/><trkpt lat="35.564521" lon="127.16494"/><trkpt lat="35.56456" lon="127.164938"/><trkpt lat="35.56465" lon="127.164942"/><trkpt lat="35.564689" lon="127.164948"/><trkpt lat="35.56474" lon="127.164963"/><trkpt lat="35.565121" lon="127.16511"/><trkpt lat="35.565338" lon="127.165192"/><trkpt lat="35.565387" lon="127.165214"/><trkpt lat="35.565417" lon="127.165238"/><trkpt lat="35.565437" lon="127.165275"/><trkpt lat="35.565452" lon="127.16532"/><trkpt lat="35.565612" lon="127.16593"/><trkpt lat="35.565678" lon="127.16618"/><trkpt lat="35.565694" lon="127.166224"/><trkpt lat="35.565716" lon="127.166261"/><trkpt lat="35.565743" lon="127.166294"/><trkpt lat="35.56582" lon="127.166376"/><trkpt lat="35.565846" lon="127.166409"/><trkpt lat="35.565867" lon="127.166448"/><trkpt lat="35.56589" lon="127.166506"/><trkpt lat="35.565955" lon="127.166702"/><trkpt lat="35.565972" lon="127.166746"/><trkpt lat="35.565993" lon="127.166787"/><trkpt lat="35.566018" lon="127.166824"/><trkpt lat="35.566338" lon="127.167222"/><trkpt lat="35.566383" lon="127.167281"/><trkpt lat="35.566403" lon="127.167315"/><trkpt lat="35.566409" lon="127.167347"/><trkpt lat="35.566405" lon="127.167387"/><trkpt lat="35.566418" lon="127.167418"/><trkpt lat="35.566443" lon="127.167448"/><trkpt lat="35.566485" lon="127.167483"/><trkpt lat="35.566643" lon="127.1676"/><trkpt lat="35.566685" lon="127.167636"/><trkpt lat="35.56671" lon="127.167668"/><trkpt lat="35.566726" lon="127.167707"/><trkpt lat="35.566745" lon="127.167778"/><trkpt lat="35.566762" lon="127.167813"/><trkpt lat="35.56679" lon="127.167838"/><trkpt lat="35.566834" lon="127.167864"/><trkpt lat="35.566867" lon="127.167889"/><trkpt lat="35.566897" lon="127.167919"/><trkpt lat="35.567034" lon="127.168072"/><trkpt lat="35.567092" lon="127.168137"/><trkpt lat="35.567124" lon="127.168163"/><trkpt lat="35.567157" lon="127.168179"/><trkpt lat="35.567214" lon="127.168194"/><trkpt lat="35.567246" lon="127.168207"/><trkpt lat="35.567274" lon="127.168235"/><trkpt lat="35.5673" lon="127.168276"/><trkpt lat="35.567355" lon="127.168377"/></trkseg>
<trkseg><trkpt lat="35.575575" lon="127.192655"/><trkpt lat="35.575557" lon="127.192622"/><trkpt lat="35.575528" lon="127.192583"/><trkpt lat="35.575497" lon="127.192566"/><trkpt lat="35.57546" lon="127.192577"/><trkpt lat="35.575432" lon="127.192573"/><trkpt lat="35.575405" lon="127.192548"/><trkpt lat="35.575369" lon="127.192501"/><trkpt lat="35.57522" lon="127.192285"/><trkpt lat="35.575183" lon="127.192238"/><trkpt lat="35.575152" lon="127.192207"/><trkpt lat="35.575087" lon="127.192154"/><trkpt lat="35.574953" lon="127.192051"/><trkpt lat="35.574922" lon="127.192022"/><trkpt lat="35.574897" lon="127.191988"/><trkpt lat="35.574875" lon="127.191949"/><trkpt lat="35.574807" lon="127.191816"/><trkpt lat="35.574785" lon="127.191777"/><trkpt lat="35.574758" lon="127.191742"/><trkpt lat="35.574708" lon="127.191688"/><trkpt lat="35.574477" lon="127.191459"/><trkpt lat="35.574438" lon="127.191415"/><trkpt lat="35.574413" lon="127.191378"/><trkpt lat="35.574394" lon="127.191337"/><trkpt lat="35.574355" lon="127.191237"/><trkpt lat="35.574336" lon="127.191196"/><trkpt lat="35.574313" lon="127.191157"/><trkpt lat="35.574261" lon="127.191082"/><trkpt lat="35.574198" lon="127.190997"/><trkpt lat="35.574169" lon="127.190963"/><trkpt lat="35.574139" lon="127.190933"/><trkpt lat="35.573979" lon="127.190793"/><trkpt lat="35.573916" lon="127.190736"/><trkpt lat="35.573886" lon="127.190705"/><trkpt lat="35.573858" lon="127.190671"/><trkpt lat="35.573799" lon="127.190585"/><trkpt lat="35.573769" lon="127.190533"/><trkpt lat="35.573743" lon="127.19048"/><trkpt lat="35.573711" lon="127.190397"/><trkpt lat="35.573698" lon="127.190353"/><trkpt lat="35.57368" lon="127.190258"/><trkpt lat="35.57358" lon="127.1896"/><trkpt lat="35.573563" lon="127.189505"/><trkpt lat="35.573549" lon="127.189461"/><trkpt lat="35.573527" lon="127.189424"/><trkpt lat="35.573501" lon="127.189389"/><trkpt lat="35.573377" lon="127.189244"/><trkpt lat="35.573342" lon="127.189198"/><trkpt lat="35.57332" lon="127.189159"/><trkpt lat="35.573304" lon="127.189116"/><trkpt lat="35.573274" lon="127.189028"/><trkpt lat="35.573253" lon="127.188992"/><trkpt lat="35.573225" lon="127.188968"/><trkpt lat="35.573169" lon="127.188939"/><trkpt lat="35.573138" lon="127.188918"/><trkpt lat="35.573112" lon="127.188887"/><trkpt lat="35.573091" lon="127.188848"/><trkpt lat="35.573055" lon="127.188762"/><trkpt lat="35.573034" lon="127.188703"/><trkpt lat="35.573023" lon="127.188657"/><trkpt lat="35.573018" lon="127.188609"/><trkpt lat="35.573011" lon="127.188445"/><trkpt lat="35.573005" lon="127.188348"/><trkpt lat="35.572996" lon="127.188302"/><trkpt lat="35.572972" lon="127.188239"/><trkpt lat="35.57296" lon="127.188196"/><trkpt lat="35.572948" lon="127.188133"/><trkpt lat="35.572912" lon="127.187875"/><trkpt lat="35.572905" lon="127.187811"/><trkpt lat="35.572904" lon="127.187763"/><trkpt lat="35.572911" lon="127.187716"/><trkpt lat="35.572927" lon="127.187654"/><trkpt lat="35.572951" lon="127.187562"/><trkpt lat="35.572958" lon="127.187518"/><trkpt lat="35.57295" lon="127.187482"/><trkpt lat="35.572925" lon="127.187453"/><trkpt lat="35.572892" lon="127.187427"/><trkpt lat="35.572749" lon="127.187331"/><trkpt lat="35.572713" lon="127.18731"/><trkpt lat="35.572675" lon="127.187293"/><trkpt lat="35.572546" lon="127.187254"/><trkpt lat="35.572482" lon="127.187234"/><trkpt lat="35.572446" lon="127.187217"/><trkpt lat="35.572412" lon="127.187191"/><trkpt lat="35.57235" lon="127.18713"/><trkpt lat="35.572102" lon="127.186876"/><trkpt lat="35.572073" lon="127.186843"/><trkpt lat="35.572049" lon="127.186807"/><trkpt lat="35.572015" lon="127.186743"/><trkpt lat="35.571992" lon="127.18669"/><trkpt lat="35.571978" lon="127.186646"/><trkpt lat="35.571959" lon="127.186551"/><trkpt lat="35.571835" lon="127.185863"/><trkpt lat="35.571822" lon="127.185801"/><trkpt lat="35.571807" lon="127.18576"/><trkpt lat="35.571784" lon="127.185731"/><trkpt lat="35.571744" lon="127.185701"/><trkpt lat="35.571715" lon="127.185672"/><trkpt lat="35.57169" lon="127.185637"/><trkpt lat="35.571666" lon="127.185598"/><trkpt lat="35.571647" lon="127.185556"/><trkpt lat="35.571626" lon="127.185498"/><trkpt lat="35.571555" lon="127.185276"/><trkpt lat="35.57154" lon="127.185216"/><trkpt lat="35.571532" lon="127.185152"/><trkpt lat="35.571505" lon="127.184729"/><trkpt lat="35.571503" lon="127.184664"/><trkpt lat="35.571508" lon="127.184618"/><trkpt lat="35.571523" lon="127.184577"/><trkpt lat="35.571551" lon="127.184525"/><trkpt lat="35.571612" lon="127.184421"/><trkpt lat="35.571632" lon="127.18438"/><trkpt lat="35.571653" lon="127.184322"/><trkpt lat="35.571743" lon="127.184019"/><trkpt lat="35.571776" lon="127.183914"/><trkpt lat="35.571794" lon="127.183872"/><trkpt lat="35.571816" lon="127.183832"/><trkpt lat="35.572025" lon="127.183498"/><trkpt lat="35.572057" lon="127.183446"/><trkpt lat="35.572077" lon="127.183405"/><trkpt lat="35.57209" lon="127.183364"/><trkpt lat="35.5721" lon="127.183321"/><trkpt lat="35.572105" lon="127.183277"/><trkpt lat="35.572106" lon="127.183229"/><trkpt lat="35.572093" lon="127.183"/><trkpt lat="35.572068" lon="127.182558"/><trkpt lat="35.572063" lon="127.182493"/><trkpt lat="35.572056" lon="127.182446"/><trkpt lat="35.572043" lon="127.182399"/><trkpt lat="35.572011" lon="127.182309"/><trkpt lat="35.571916" lon="127.182055"/><trkpt lat="35.571901" lon="127.18201"/><trkpt lat="35.571893" lon="127.181966"/><trkpt lat="35.5719" lon="127.181925"/><trkpt lat="35.571918" lon="127.181886"/><trkpt lat="35.57198" lon="127.181783"/><trkpt lat="35.572009" lon="127.181731"/><trkpt lat="35.572024" lon="127.18169"/><trkpt lat="35.572029" lon="127.181646"/><trkpt lat="35.572028" lon="127.1816"/><trkpt lat="35.57202" lon="127.181522"/><trkpt lat="35.572012" lon="127.181475"/><trkpt lat="35.571975" lon="127.181318"/><trkpt lat="35.571957" lon="127.181256"/><trkpt lat="35.57194" lon="127.181213"/><trkpt lat="35.571909" lon="127.18116"/><trkpt lat="35.571844" lon="127.181057"/><trkpt lat="35.571825" lon="127.181015"/><trkpt lat="35.571811" lon="127.18097"/><trkpt lat="35.571792" lon="127.180893"/><trkpt lat="35.571784" lon="127.180846"/><trkpt lat="35.571782" lon="127.180799"/><trkpt lat="35.571789" lon="127.180753"/><trkpt lat="35.571805" lon="127.180677"/><trkpt lat="35.571844" lon="127.180508"/><trkpt lat="35.571852" lon="127.180462"/><trkpt lat="35.571854" lon="127.180414"/><trkpt lat="35.571851" lon="127.180366"/><trkpt lat="35.571785" lon="127.179747"/><trkpt lat="35.571754" lon="127.179437"/><trkpt lat="35.571745" lon="127.179374"/><trkpt lat="35.571731" lon="127.179332"/><trkpt lat="35.571706" lon="127.179299"/><trkpt lat="35.571674" lon="127.179272"/><trkpt lat="35.571412" lon="127.179078"/><trkpt lat="35.571276" lon="127.178976"/><trkpt lat="35.571245" lon="127.178947"/><trkpt lat="35.571221" lon="127.178913"/><trkpt lat="35.571196" lon="127.178859"/><trkpt lat="35.571169" lon="127.178789"/><trkpt lat="35.571151" lon="127.178732"/><trkpt lat="35.571141" lon="127.178685"/><trkpt lat="35.571121" lon="127.178559"/><trkpt lat="35.571076" lon="127.178258"/><trkpt lat="35.571065" lon="127.178213"/><trkpt lat="35.571046" lon="127.178173"/><trkpt lat="35.57102" lon="127.178136"/><trkpt lat="35.570833" lon="127.1779"/><trkpt lat="35.570609" lon="127.177617"/><trkpt lat="35.570569" lon="127.177574"/><trkpt lat="35.570537" lon="127.177547"/><trkpt lat="35.570479" lon="127.177512"/><trkpt lat="35.570384" lon="127.17746"/><trkpt lat="35.57035" lon="127.177437"/><trkpt lat="35.57032" lon="127.177408"/><trkpt lat="35.570265" lon="127.177338"/><trkpt lat="35.570213" lon="127.177264"/><trkpt lat="35.570191" lon="127.177226"/><trkpt lat="35.570177" lon="127.177184"/><trkpt lat="35.570175" lon="127.177137"/><trkpt lat="35.570178" lon="127.177071"/><trkpt lat="35.570187" lon="127.176939"/><trkpt lat="35.570185" lon="127.176891"/><trkpt lat="35.570174" lon="127.176847"/><trkpt lat="35.570155" lon="127.176805"/><trkpt lat="35.570119" lon="127.176737"/><trkpt lat="35.569979" lon="127.176478"/><trkpt lat="35.56996" lon="127.176436"/><trkpt lat="35.569946" lon="127.176391"/><trkpt lat="35.569941" lon="127.176344"/><trkpt lat="35.569932" lon="127.176048"/><trkpt lat="35.56992" lon="127.175622"/><trkpt lat="35.569923" lon="127.175525"/><trkpt lat="35.569946" lon="127.175155"/><trkpt lat="35.569948" lon="127.175091"/><trkpt lat="35.569946" lon="127.175043"/><trkpt lat="35.569932" lon="127.17495"/><trkpt lat="35.569887" lon="127.174701"/><trkpt lat="35.569879" lon="127.174638"/><trkpt lat="35.569855" lon="127.174214"/><trkpt lat="35.569838" lon="127.17392"/><trkpt lat="35.569838" lon="127.173856"/><trkpt lat="35.569845" lon="127.17381"/><trkpt lat="35.56986" lon="127.173768"/><trkpt lat="35.569886" lon="127.173712"/><trkpt lat="35.569973" lon="127.173532"/><trkpt lat="35.569996" lon="127.173476"/><trkpt lat="35.570011" lon="127.17343"/><trkpt lat="35.570144" lon="127.172929"/><trkpt lat="35.57021" lon="127.172678"/><trkpt lat="35.570225" lon="127.172633"/><trkpt lat="35.570246" lon="127.172593"/><trkpt lat="35.570272" lon="127.172555"/><trkpt lat="35.570402" lon="127.172388"/><trkpt lat="35.570438" lon="127.172339"/><trkpt lat="35.570463" lon="127.1723"/><trkpt lat="35.570481" lon="127.172259"/><trkpt lat="35.570502" lon="127.172205"/><trkpt lat="35.570532" lon="127.172149"/><trkpt lat="35.570543" lon="127.171993"/><trkpt lat="35.570552" lon="127.171963"/><trkpt lat="35.570569" lon="127.171941"/><trkpt lat="35.570578" lon="127.171911"/><trkpt lat="35.570576" lon="127.171871"/><trkpt lat="35.570568" lon="127.171812"/><trkpt lat="35.570555" lon="127.171753"/><trkpt lat="35.57054" lon="127.171708"/><trkpt lat="35.57051" lon="127.171635"/><trkpt lat="35.570325" lon="127.171216"/><trkpt lat="35.570298" lon="127.171159"/><trkpt lat="35.570275" lon="127.171121"/><trkpt lat="35.570228" lon="127.171057"/><trkpt lat="35.570159" lon="127.170969"/></trkseg>
<trkseg><trkpt lat="35.58031" lon="127.160726"/><trkpt lat="35.579282" lon="127.160661"/><trkpt lat="35.579216" lon="127.160655"/><trkpt lat="35.579178" lon="127.160644"/><trkpt lat="35.579145" lon="127.160622"/><trkpt lat="35.579104" lon="127.160585"/><trkpt lat="35.579025" lon="127.160504"/><trkpt lat="35.578998" lon="127.160471"/><trkpt lat="35.578972" lon="127.160433"/><trkpt lat="35.578925" lon="127.160352"/><trkpt lat="35.578882" lon="127.160269"/><trkpt lat="35.578866" lon="127.160225"/><trkpt lat="35.57886" lon="127.160179"/><trkpt lat="35.578858" lon="127.160115"/><trkpt lat="35.578858" lon="127.160019"/><trkpt lat="35.578852" lon="127.159974"/><trkpt lat="35.578834" lon="127.159936"/><trkpt lat="35.578806" lon="127.159904"/><trkpt lat="35.578699" lon="127.159806"/><trkpt lat="35.578559" lon="127.15968"/><trkpt lat="35.578525" lon="127.159656"/><trkpt lat="35.578492" lon="127.159642"/><trkpt lat="35.578438" lon="127.159626"/><trkpt lat="35.578415" lon="127.159605"/><trkpt lat="35.578402" lon="127.15957"/><trkpt lat="35.578388" lon="127.159515"/><trkpt lat="35.578374" lon="127.159476"/><trkpt lat="35.578349" lon="127.159442"/><trkpt lat="35.578313" lon="127.159398"/><trkpt lat="35.578291" lon="127.15936"/><trkpt lat="35.578259" lon="127.15929"/><trkpt lat="35.578211" lon="127.159177"/><trkpt lat="35.57819" lon="127.159139"/><trkpt lat="35.578162" lon="127.159109"/><trkpt lat="35.578129" lon="127.159085"/><trkpt lat="35.578048" lon="127.159038"/><trkpt lat="35.578004" lon="127.159009"/><trkpt lat="35.577975" lon="127.158983"/><trkpt lat="35.577957" lon="127.15895"/><trkpt lat="35.57794" lon="127.158902"/><trkpt lat="35.577922" lon="127.158874"/><trkpt lat="35.57789" lon="127.158846"/><trkpt lat="35.577855" lon="127.15881"/><trkpt lat="35.577827" lon="127.158785"/><trkpt lat="35.577791" lon="127.158772"/><trkpt lat="35.577738" lon="127.158765"/><trkpt lat="35.577482" lon="127.158749"/><trkpt lat="35.577428" lon="127.158743"/><trkpt lat="35.577389" lon="127.158734"/><trkpt lat="35.577341" lon="127.158715"/><trkpt lat="35.577232" lon="127.158668"/><trkpt lat="35.577196" lon="127.158659"/><trkpt lat="35.57716" lon="127.158663"/><trkpt lat="35.577123" lon="127.158678"/><trkpt lat="35.577037" lon="127.158721"/><trkpt lat="35.577" lon="127.158735"/><trkpt lat="35.576963" lon="127.15874"/><trkpt lat="35.576925" lon="127.158733"/><trkpt lat="35.576811" lon="127.158691"/><trkpt lat="35.576761" lon="127.158673"/><trkpt lat="35.576725" lon="127.158666"/><trkpt lat="35.576691" lon="127.158673"/><trkpt lat="35.576661" lon="127.158694"/><trkpt lat="35.576538" lon="127.158703"/><trkpt lat="35.576502" lon="127.158652"/><trkpt lat="35.576481" lon="127.158623"/><trkpt lat="35.576449" lon="127.158602"/><trkpt lat="35.576332" lon="127.158486"/><trkpt lat="35.576323" lon="127.15845"/><trkpt lat="35.576303" lon="127.158414"/><trkpt lat="35.576227" lon="127.158308"/><trkpt lat="35.576194" lon="127.158259"/><trkpt lat="35.576172" lon="127.15822"/><trkpt lat="35.576108" lon="127.158079"/><trkpt lat="35.57604" lon="127.157922"/><trkpt lat="35.57602" lon="127.157884"/><trkpt lat="35.575995" lon="127.157858"/><trkpt lat="35.575964" lon="127.157853"/><trkpt lat="35.575928" lon="127.157858"/><trkpt lat="35.575852" lon="127.157875"/><trkpt lat="35.575815" lon="127.157874"/><trkpt lat="35.575778" lon="127.157863"/><trkpt lat="35.575743" lon="127.157846"/><trkpt lat="35.575712" lon="127.157822"/><trkpt lat="35.575687" lon="127.157787"/><trkpt lat="35.575665" lon="127.157747"/><trkpt lat="35.575578" lon="127.157562"/><trkpt lat="35.575553" lon="127.157504"/><trkpt lat="35.575538" lon="127.157459"/><trkpt lat="35.575517" lon="127.15737"/><trkpt lat="35.575506" lon="127.157328"/><trkpt lat="35.575488" lon="127.157294"/><trkpt lat="35.575458" lon="127.157273"/><trkpt lat="35.575409" lon="127.157258"/><trkpt lat="35.575331" lon="127.157238"/><trkpt lat="35.575294" lon="127.157224"/><trkpt lat="35.575259" lon="127.157203"/><trkpt lat="35.575191" lon="127.157156"/><trkpt lat="35.575155" lon="127.15714"/><trkpt lat="35.575116" lon="127.157134"/><trkpt lat="35.574955" lon="127.157131"/><trkpt lat="35.57478" lon="127.15713"/><trkpt lat="35.574741" lon="127.157133"/><trkpt lat="35.574376" lon="127.157198"/><trkpt lat="35.574165" lon="127.15718"/></trkseg>
<trkseg><trkpt lat="35.57094" lon="127.19773"/><trkpt lat="35.571244" lon="127.197731"/><trkpt lat="35.571283" lon="127.197725"/><trkpt lat="35.571335" lon="127.19771"/><trkpt lat="35.571412" lon="127.197679"/><trkpt lat="35.571446" lon="127.197661"/><trkpt lat="35.571469" lon="127.197635"/><trkpt lat="35.571475" lon="127.1976"/><trkpt lat="35.571474" lon="127.197531"/><trkpt lat="35.571485" lon="127.197487"/><trkpt lat="35.571502" lon="127.197444"/><trkpt lat="35.571537" lon="127.197375"/><trkpt lat="35.57156" lon="127.197336"/><trkpt lat="35.571765" lon="127.197037"/><trkpt lat="35.571936" lon="127.196789"/><trkpt lat="35.571964" lon="127.196755"/><trkpt lat="35.571995" lon="127.196725"/><trkpt lat="35.572042" lon="127.196692"/><trkpt lat="35.572184" lon="127.196599"/><trkpt lat="35.572218" lon="127.196573"/><trkpt lat="35.57226" lon="127.196532"/><trkpt lat="35.572429" lon="127.196343"/><trkpt lat="35.572988" lon="127.195721"/><trkpt lat="35.57303" lon="127.19568"/><trkpt lat="35.573234" lon="127.195528"/><trkpt lat="35.573415" lon="127.195393"/><trkpt lat="35.573447" lon="127.195365"/><trkpt lat="35.573475" lon="127.195332"/><trkpt lat="35.573525" lon="127.195256"/><trkpt lat="35.573671" lon="127.195021"/><trkpt lat="35.573697" lon="127.194984"/><trkpt lat="35.573726" lon="127.194951"/><trkpt lat="35.573787" lon="127.194889"/><trkpt lat="35.574054" lon="127.194622"/><trkpt lat="35.574081" lon="127.194587"/><trkpt lat="35.574112" lon="127.194538"/><trkpt lat="35.574179" lon="127.194424"/><trkpt lat="35.574204" lon="127.194389"/><trkpt lat="35.574233" lon="127.194359"/><trkpt lat="35.574294" lon="127.194303"/><trkpt lat="35.574322" lon="127.194272"/><trkpt lat="35.574346" lon="127.194234"/><trkpt lat="35.574375" lon="127.194178"/><trkpt lat="35.574477" lon="127.193964"/><trkpt lat="35.574506" lon="127.193911"/><trkpt lat="35.574532" lon="127.193881"/><trkpt lat="35.574566" lon="127.193865"/><trkpt lat="35.574614" lon="127.193852"/><trkpt lat="35.574648" lon="127.193837"/><trkpt lat="35.574675" lon="127.193808"/><trkpt lat="35.574699" lon="127.193771"/><trkpt lat="35.574756" lon="127.193663"/><trkpt lat="35.57479" lon="127.193594"/><trkpt lat="35.574805" lon="127.193551"/><trkpt lat="35.574811" lon="127.193504"/><trkpt lat="35.574813" lon="127.19344"/><trkpt lat="35.574815" lon="127.193311"/><trkpt lat="35.574822" lon="127.193267"/><trkpt lat="35.57484" lon="127.193232"/><trkpt lat="35.574874" lon="127.193191"/><trkpt lat="35.574896" lon="127.193156"/><trkpt lat="35.574932" lon="127.193093"/><trkpt lat="35.574958" lon="127.193064"/><trkpt lat="35.57499" lon="127.193046"/><trkpt lat="35.575025" lon="127.193037"/><trkpt lat="35.575062" lon="127.193037"/><trkpt lat="35.575101" lon="127.193046"/><trkpt lat="35.575192" lon="127.193072"/><trkpt lat="35.575229" lon="127.193078"/><trkpt lat="35.575262" lon="127.193069"/><trkpt lat="35.575291" lon="127.193042"/><trkpt lat="35.575319" lon="127.193008"/><trkpt lat="35.575442" lon="127.192837"/><trkpt lat="35.575575" lon="127.192655"/></trkseg>
<trkseg><trkpt lat="35.581577" lon="127.184978"/><trkpt lat="35.581303" lon="127.185004"/><trkpt lat="35.581257" lon="127.185033"/><trkpt lat="35.581228" lon="127.185061"/><trkpt lat="35.581204" lon="127.185099"/><trkpt lat="35.581176" lon="127.185154"/><trkpt lat="35.581157" lon="127.185198"/><trkpt lat="35.581143" lon="127.185243"/><trkpt lat="35.581135" lon="127.185291"/><trkpt lat="35.581104" lon="127.185603"/><trkpt lat="35.581102" lon="127.185668"/><trkpt lat="35.581106" lon="127.185733"/><trkpt lat="35.581179" lon="127.186331"/><trkpt lat="35.581189" lon="127.186427"/><trkpt lat="35.581188" lon="127.186476"/><trkpt lat="35.58118" lon="127.18654"/><trkpt lat="35.58109" lon="127.187004"/><trkpt lat="35.581004" lon="127.187452"/><trkpt lat="35.580989" lon="127.187515"/><trkpt lat="35.580972" lon="127.187558"/><trkpt lat="35.580935" lon="127.187627"/><trkpt lat="35.580494" lon="127.188397"/><trkpt lat="35.580462" lon="127.188449"/><trkpt lat="35.579994" lon="127.189095"/><trkpt lat="35.579942" lon="127.18917"/><trkpt lat="35.579905" lon="127.189236"/><trkpt lat="35.579638" lon="127.189743"/><trkpt lat="35.579594" lon="127.189824"/><trkpt lat="35.579569" lon="127.18986"/><trkpt lat="35.579538" lon="127.189891"/><trkpt lat="35.579472" lon="127.189946"/><trkpt lat="35.579234" lon="127.190133"/><trkpt lat="35.579201" lon="127.190162"/><trkpt lat="35.579162" lon="127.190205"/><trkpt lat="35.579116" lon="127.190263"/><trkpt lat="35.579092" lon="127.1903"/><trkpt lat="35.579073" lon="127.190341"/><trkpt lat="35.579061" lon="127.190386"/><trkpt lat="35.579055" lon="127.190433"/><trkpt lat="35.579056" lon="127.190482"/><trkpt lat="35.579087" lon="127.190827"/><trkpt lat="35.579104" lon="127.191009"/><trkpt lat="35.579105" lon="127.191053"/><trkpt lat="35.579096" lon="127.191082"/><trkpt lat="35.579071" lon="127.191085"/><trkpt lat="35.579036" lon="127.191073"/><trkpt lat="35.578808" lon="127.190969"/><trkpt lat="35.578757" lon="127.190949"/><trkpt lat="35.578718" lon="127.190937"/><trkpt lat="35.578679" lon="127.190931"/><trkpt lat="35.57856" lon="127.19092"/><trkpt lat="35.578508" lon="127.190912"/><trkpt lat="35.57847" lon="127.190901"/><trkpt lat="35.578383" lon="127.190864"/><trkpt lat="35.578333" lon="127.190844"/><trkpt lat="35.578296" lon="127.190836"/><trkpt lat="35.578262" lon="127.190839"/><trkpt lat="35.578232" lon="127.190855"/><trkpt lat="35.57821" lon="127.190887"/><trkpt lat="35.578181" lon="127.190953"/><trkpt lat="35.578162" lon="127.19099"/><trkpt lat="35.578135" lon="127.191021"/><trkpt lat="35.578102" lon="127.191045"/><trkpt lat="35.578044" lon="127.191082"/><trkpt lat="35.578013" lon="127.191108"/><trkpt lat="35.577969" lon="127.191156"/><trkpt lat="35.577941" lon="127.191177"/><trkpt lat="35.577906" lon="127.191181"/><trkpt lat="35.577867" lon="127.191175"/><trkpt lat="35.577708" lon="127.191132"/><trkpt lat="35.57763" lon="127.191112"/><trkpt lat="35.577592" lon="127.191108"/><trkpt lat="35.577559" lon="127.191119"/><trkpt lat="35.577533" lon="127.191148"/><trkpt lat="35.577509" lon="127.191185"/><trkpt lat="35.577423" lon="127.191329"/><trkpt lat="35.577398" lon="127.191366"/><trkpt lat="35.57737" lon="127.191398"/><trkpt lat="35.577337" lon="127.191425"/><trkpt lat="35.577267" lon="127.191472"/><trkpt lat="35.577034" lon="127.191706"/><trkpt lat="35.577001" lon="127.191732"/><trkpt lat="35.576974" lon="127.191762"/><trkpt lat="35.57669" lon="127.192017"/><trkpt lat="35.576527" lon="127.192124"/><trkpt lat="35.576332" lon="127.1922"/><trkpt lat="35.576283" lon="127.192228"/><trkpt lat="35.576249" lon="127.192252"/><trkpt lat="35.576095" lon="127.192467"/><trkpt lat="35.576023" lon="127.192588"/><trkpt lat="35.575989" lon="127.192606"/><trkpt lat="35.575952" lon="127.192613"/><trkpt lat="35.575914" lon="127.192609"/><trkpt lat="35.575824" lon="127.192593"/><trkpt lat="35.575785" lon="127.192591"/><trkpt lat="35.575748" lon="127.192596"/><trkpt lat="35.575668" lon="127.192622"/><trkpt lat="35.575575" lon="127.192655"/></trkseg>
<trkseg><trkpt lat="35.569083" lon="127.17033"/><trkpt lat="35.568907" lon="127.169955"/><trkpt lat="35.568884" lon="127.169916"/><trkpt lat="35.568858" lon="127.169881"/><trkpt lat="35.568806" lon="127.169814"/><trkpt lat="35.568785" lon="127.169778"/><trkpt lat="35.568778" lon="127.169736"/><trkpt lat="35.568784" lon="127.16966"/><trkpt lat="35.568783" lon="127.169617"/><trkpt lat="35.568767" lon="127.169583"/><trkpt lat="35.568738" lon="127.169557"/><trkpt lat="35.568692" lon="127.169526"/><trkpt lat="35.568422" lon="127.169351"/><trkpt lat="35.568363" lon="127.169314"/><trkpt lat="35.568326" lon="127.169297"/><trkpt lat="35.568275" lon="127.16928"/><trkpt lat="35.568172" lon="127.169251"/><trkpt lat="35.568138" lon="127.169235"/><trkpt lat="35.568113" lon="127.169208"/><trkpt lat="35.5681" lon="127.169169"/><trkpt lat="35.568089" lon="127.169107"/><trkpt lat="35.568069" lon="127.168964"/><trkpt lat="35.56806" lon="127.168918"/><trkpt lat="35.568046" lon="127.168876"/><trkpt lat="35.568013" lon="127.168823"/><trkpt lat="35.567995" lon="127.168785"/><trkpt lat="35.567979" lon="127.168742"/><trkpt lat="35.567939" lon="127.168609"/><trkpt lat="35.567924" lon="127.168571"/><trkpt lat="35.567905" lon="127.16854"/><trkpt lat="35.567891" lon="127.168504"/><trkpt lat="35.567871" lon="127.168413"/><trkpt lat="35.56786" lon="127.168367"/><trkpt lat="35.567845" lon="127.168326"/><trkpt lat="35.567825" lon="127.168288"/><trkpt lat="35.567802" lon="127.168254"/><trkpt lat="35.567774" lon="127.168229"/><trkpt lat="35.567739" lon="127.168214"/><trkpt lat="35.567678" lon="127.168201"/><trkpt lat="35.567599" lon="127.168187"/><trkpt lat="35.567597" lon="127.168186"/></trkseg>
<trkseg><trkpt lat="35.58031" lon="127.160726"/><trkpt lat="35.580108" lon="127.161167"/><trkpt lat="35.580091" lon="127.161211"/><trkpt lat="35.580081" lon="127.161256"/><trkpt lat="35.580078" lon="127.161304"/><trkpt lat="35.580085" lon="127.161468"/><trkpt lat="35.580087" lon="127.161549"/><trkpt lat="35.580083" lon="127.161596"/><trkpt lat="35.580071" lon="127.161638"/><trkpt lat="35.580041" lon="127.161702"/><trkpt lat="35.580027" lon="127.161744"/><trkpt lat="35.580019" lon="127.161791"/><trkpt lat="35.58001" lon="127.161871"/><trkpt lat="35.579998" lon="127.161913"/><trkpt lat="35.579974" lon="127.161945"/><trkpt lat="35.579943" lon="127.161971"/><trkpt lat="35.57991" lon="127.161995"/><trkpt lat="35.579876" lon="127.162016"/><trkpt lat="35.579838" lon="127.162032"/><trkpt lat="35.579759" lon="127.162052"/><trkpt lat="35.579613" lon="127.162086"/><trkpt lat="35.579574" lon="127.162098"/><trkpt lat="35.579538" lon="127.162117"/><trkpt lat="35.579491" lon="127.16215"/><trkpt lat="35.579309" lon="127.162292"/><trkpt lat="35.579275" lon="127.162316"/><trkpt lat="35.579238" lon="127.162335"/><trkpt lat="35.5792" lon="127.162343"/><trkpt lat="35.57916" lon="127.162345"/><trkpt lat="35.579012" lon="127.162347"/><trkpt lat="35.578972" lon="127.16235"/><trkpt lat="35.578933" lon="127.16236"/><trkpt lat="35.57887" lon="127.162385"/><trkpt lat="35.578545" lon="127.162526"/><trkpt lat="35.57837" lon="127.162602"/><trkpt lat="35.578335" lon="127.162623"/><trkpt lat="35.578305" lon="127.162652"/><trkpt lat="35.578279" lon="127.162687"/><trkpt lat="35.578165" lon="127.162866"/><trkpt lat="35.578026" lon="127.163083"/><trkpt lat="35.577996" lon="127.163136"/><trkpt lat="35.577957" lon="127.163221"/><trkpt lat="35.577886" lon="127.16338"/><trkpt lat="35.577864" lon="127.163419"/><trkpt lat="35.577837" lon="127.163448"/><trkpt lat="35.577803" lon="127.163466"/><trkpt lat="35.577753" lon="127.163482"/><trkpt lat="35.577639" lon="127.163513"/><trkpt lat="35.577588" lon="127.163524"/><trkpt lat="35.57755" lon="127.163526"/><trkpt lat="35.577497" lon="127.163518"/><trkpt lat="35.577259" lon="127.163459"/><trkpt lat="35.577206" lon="127.163448"/><trkpt lat="35.577166" lon="127.163445"/><trkpt lat="35.576991" lon="127.163449"/><trkpt lat="35.576898" lon="127.16345"/><trkpt lat="35.576858" lon="127.163445"/><trkpt lat="35.57677" lon="127.16342"/><trkpt lat="35.576733" lon="127.163412"/><trkpt lat="35.576695" lon="127.163411"/><trkpt lat="35.576657" lon="127.16342"/><trkpt lat="35.576594" lon="127.163438"/><trkpt lat="35.576555" lon="127.163441"/><trkpt lat="35.576516" lon="127.163438"/><trkpt lat="35.576222" lon="127.163391"/><trkpt lat="35.576143" lon="127.163381"/><trkpt lat="35.576104" lon="127.163384"/><trkpt lat="35.57607" lon="127.163398"/><trkpt lat="35.576024" lon="127.163424"/><trkpt lat="35.575945" lon="127.163473"/><trkpt lat="35.575909" lon="127.163488"/><trkpt lat="35.57587" lon="127.163496"/><trkpt lat="35.575577" lon="127.163526"/><trkpt lat="35.575524" lon="127.163533"/><trkpt lat="35.575485" lon="127.163542"/><trkpt lat="35.575448" lon="127.163559"/><trkpt lat="35.575414" lon="127.163582"/><trkpt lat="35.575382" lon="127.16361"/><trkpt lat="35.575335" lon="127.163665"/><trkpt lat="35.575235" lon="127.163789"/><trkpt lat="35.575211" lon="127.163826"/><trkpt lat="35.575191" lon="127.163867"/><trkpt lat="35.575112" lon="127.164071"/><trkpt lat="35.575082" lon="127.164142"/><trkpt lat="35.575062" lon="127.164181"/><trkpt lat="35.575037" lon="127.16421"/><trkpt lat="35.575004" lon="127.164244"/><trkpt lat="35.57498" lon="127.16428"/><trkpt lat="35.574942" lon="127.164344"/><trkpt lat="35.574914" lon="127.164375"/><trkpt lat="35.574882" lon="127.164398"/><trkpt lat="35.574825" lon="127.164432"/><trkpt lat="35.57479" lon="127.164448"/><trkpt lat="35.574753" lon="127.164457"/><trkpt lat="35.574701" lon="127.164461"/><trkpt lat="35.574585" lon="127.164464"/><trkpt lat="35.574547" lon="127.164468"/><trkpt lat="35.574509" lon="127.164478"/><trkpt lat="35.574433" lon="127.164511"/><trkpt lat="35.574308" lon="127.164569"/><trkpt lat="35.57427" lon="127.164583"/><trkpt lat="35.574232" lon="127.164588"/><trkpt lat="35.57418" lon="127.164587"/><trkpt lat="35.574062" lon="127.164579"/><trkpt lat="35.574023" lon="127.164581"/><trkpt lat="35.573986" lon="127.164589"/><trkpt lat="35.573862" lon="127.164628"/><trkpt lat="35.573813" lon="127.164641"/><trkpt lat="35.57376" lon="127.164649"/><trkpt lat="35.573524" lon="127.164672"/><trkpt lat="35.573471" lon="127.164673"/><trkpt lat="35.573432" lon="127.164668"/><trkpt lat="35.573368" lon="127.164651"/><trkpt lat="35.573174" lon="127.16459"/><trkpt lat="35.573136" lon="127.164581"/><trkpt lat="35.573097" lon="127.164579"/><trkpt lat="35.573058" lon="127.164584"/><trkpt lat="35.572878" lon="127.164628"/><trkpt lat="35.572801" lon="127.16465"/><trkpt lat="35.572765" lon="127.164667"/><trkpt lat="35.572718" lon="127.164698"/><trkpt lat="35.572204" lon="127.165092"/><trkpt lat="35.571907" lon="127.165319"/><trkpt lat="35.571874" lon="127.165348"/><trkpt lat="35.571846" lon="127.16538"/><trkpt lat="35.571823" lon="127.165419"/><trkpt lat="35.571727" lon="127.165613"/><trkpt lat="35.571685" lon="127.165696"/><trkpt lat="35.571662" lon="127.165735"/><trkpt lat="35.571626" lon="127.165782"/><trkpt lat="35.571519" lon="127.165906"/><trkpt lat="35.571469" lon="127.165959"/><trkpt lat="35.571436" lon="127.165987"/><trkpt lat="35.571389" lon="127.166016"/><trkpt lat="35.571242" lon="127.166093"/><trkpt lat="35.571195" lon="127.166121"/><trkpt lat="35.571163" lon="127.166147"/><trkpt lat="35.571138" lon="127.166183"/><trkpt lat="35.571095" lon="127.166266"/><trkpt lat="35.570952" lon="127.166567"/><trkpt lat="35.570929" lon="127.166607"/><trkpt lat="35.570901" lon="127.166641"/><trkpt lat="35.57087" lon="127.166668"/><trkpt lat="35.570836" lon="127.16669"/><trkpt lat="35.570799" lon="127.166702"/><trkpt lat="35.570746" lon="127.166706"/><trkpt lat="35.570627" lon="127.166709"/><trkpt lat="35.570587" lon="127.166711"/><trkpt lat="35.570549" lon="127.16672"/><trkpt lat="35.5705" lon="127.166739"/><trkpt lat="35.570416" lon="127.166778"/><trkpt lat="35.570378" lon="127.166791"/><trkpt lat="35.57034" lon="127.166798"/><trkpt lat="35.570251" lon="127.166808"/><trkpt lat="35.570215" lon="127.166816"/><trkpt lat="35.570184" lon="127.166835"/><trkpt lat="35.57016" lon="127.166867"/><trkpt lat="35.570114" lon="127.166939"/><trkpt lat="35.570085" lon="127.166967"/><trkpt lat="35.570051" lon="127.16699"/><trkpt lat="35.569943" lon="127.167047"/><trkpt lat="35.569871" lon="127.167087"/><trkpt lat="35.569838" lon="127.167111"/><trkpt lat="35.569798" lon="127.167148"/><trkpt lat="35.56973" lon="127.167214"/><trkpt lat="35.569697" lon="127.167236"/><trkpt lat="35.569661" lon="127.167253"/><trkpt lat="35.569586" lon="127.167278"/><trkpt lat="35.569535" lon="127.167291"/><trkpt lat="35.569496" lon="127.167293"/><trkpt lat="35.56943" lon="127.167291"/><trkpt lat="35.569392" lon="127.167295"/><trkpt lat="35.569356" lon="127.167307"/><trkpt lat="35.569284" lon="127.167342"/><trkpt lat="35.569237" lon="127.167362"/><trkpt lat="35.5692" lon="127.16737"/><trkpt lat="35.569112" lon="127.167374"/><trkpt lat="35.569075" lon="127.167377"/><trkpt lat="35.569038" lon="127.167387"/><trkpt lat="35.569003" lon="127.167406"/><trkpt lat="35.56883" lon="127.16753"/><trkpt lat="35.568507" lon="127.167763"/><trkpt lat="35.568471" lon="127.167785"/><trkpt lat="35.568434" lon="127.1678"/><trkpt lat="35.568383" lon="127.167813"/><trkpt lat="35.568175" lon="127.167857"/><trkpt lat="35.568111" lon="127.167874"/><trkpt lat="35.568075" lon="127.16789"/><trkpt lat="35.568042" lon="127.167913"/><trkpt lat="35.567934" lon="127.168003"/><trkpt lat="35.567869" lon="127.168054"/><trkpt lat="35.567834" lon="127.168076"/><trkpt lat="35.567747" lon="127.168118"/><trkpt lat="35.567597" lon="127.168186"/></trkseg>
<trkseg><trkpt lat="35.584303" lon="127.162461"/><trkpt lat="35.584307" lon="127.16217"/><trkpt lat="35.584311" lon="127.162122"/><trkpt lat="35.58432" lon="127.162061"/><trkpt lat="35.584352" lon="127.161908"/><trkpt lat="35.584368" lon="127.161848"/><trkpt lat="35.584395" lon="127.161773"/><trkpt lat="35.584438" lon="127.161669"/><trkpt lat="35.584458" lon="127.161627"/><trkpt lat="35.584481" lon="127.161588"/><trkpt lat="35.584534" lon="127.161517"/><trkpt lat="35.584634" lon="127.161389"/><trkpt lat="35.584658" lon="127.161353"/><trkpt lat="35.584678" lon="127.161314"/><trkpt lat="35.584693" lon="127.161274"/><trkpt lat="35.584704" lon="127.161233"/><trkpt lat="35.584712" lon="127.161187"/><trkpt lat="35.584716" lon="127.161122"/><trkpt lat="35.584724" lon="127.160895"/><trkpt lat="35.584724" lon="127.160831"/><trkpt lat="35.584719" lon="127.160784"/><trkpt lat="35.584708" lon="127.160739"/><trkpt lat="35.584688" lon="127.160664"/><trkpt lat="35.58468" lon="127.160617"/><trkpt lat="35.584676" lon="127.160535"/><trkpt lat="35.584667" lon="127.160125"/><trkpt lat="35.584668" lon="127.160077"/><trkpt lat="35.584675" lon="127.16003"/><trkpt lat="35.584688" lon="127.159986"/><trkpt lat="35.584731" lon="127.159871"/><trkpt lat="35.58475" lon="127.159814"/><trkpt lat="35.58476" lon="127.159771"/><trkpt lat="35.58476" lon="127.159732"/><trkpt lat="35.584755" lon="127.159679"/><trkpt lat="35.584758" lon="127.159631"/><trkpt lat="35.584773" lon="127.159518"/><trkpt lat="35.584776" lon="127.159469"/><trkpt lat="35.584773" lon="127.159422"/><trkpt lat="35.584764" lon="127.159375"/><trkpt lat="35.584718" lon="127.159189"/><trkpt lat="35.584706" lon="127.159126"/><trkpt lat="35.584702" lon="127.159077"/><trkpt lat="35.584698" lon="127.158963"/><trkpt lat="35.58469" lon="127.158669"/><trkpt lat="35.584686" lon="127.158621"/><trkpt lat="35.584673" lon="127.158559"/><trkpt lat="35.584504" lon="127.15794"/><trkpt lat="35.584485" lon="127.157863"/><trkpt lat="35.584478" lon="127.15782"/><trkpt lat="35.584481" lon="127.157784"/><trkpt lat="35.584495" lon="127.157729"/><trkpt lat="35.584498" lon="127.157684"/><trkpt lat="35.584496" lon="127.157638"/><trkpt lat="35.584488" lon="127.157593"/><trkpt lat="35.584472" lon="127.157551"/><trkpt lat="35.584442" lon="127.157482"/><trkpt lat="35.584429" lon="127.157437"/><trkpt lat="35.584412" lon="127.15736"/><trkpt lat="35.584386" lon="127.157235"/><trkpt lat="35.584373" lon="127.15719"/><trkpt lat="35.584353" lon="127.157151"/><trkpt lat="35.584328" lon="127.157115"/><trkpt lat="35.584207" lon="127.156968"/><trkpt lat="35.584144" lon="127.156888"/><trkpt lat="35.58412" lon="127.156851"/><trkpt lat="35.584098" lon="127.156798"/><trkpt lat="35.58408" lon="127.15674"/><trkpt lat="35.584069" lon="127.1567"/></trkseg>
<trkseg><trkpt lat="35.584069" lon="127.1567"/><trkpt lat="35.583598" lon="127.156954"/><trkpt lat="35.583548" lon="127.156976"/><trkpt lat="35.58351" lon="127.156988"/><trkpt lat="35.583154" lon="127.157062"/><trkpt lat="35.583102" lon="127.157075"/><trkpt lat="35.583064" lon="127.157089"/><trkpt lat="35.583029" lon="127.157111"/><trkpt lat="35.582975" lon="127.157154"/><trkpt lat="35.582866" lon="127.157244"/><trkpt lat="35.582832" lon="127.157268"/><trkpt lat="35.582796" lon="127.157286"/><trkpt lat="35.582745" lon="127.157303"/><trkpt lat="35.582525" lon="127.157366"/><trkpt lat="35.582448" lon="127.157391"/><trkpt lat="35.582412" lon="127.15741"/><trkpt lat="35.582321" lon="127.157467"/><trkpt lat="35.582286" lon="127.157484"/><trkpt lat="35.582253" lon="127.157492"/><trkpt lat="35.582211" lon="127.157492"/><trkpt lat="35.58218" lon="127.157505"/><trkpt lat="35.582151" lon="127.157532"/><trkpt lat="35.582085" lon="127.15761"/><trkpt lat="35.582045" lon="127.157652"/><trkpt lat="35.582012" lon="127.157677"/><trkpt lat="35.581977" lon="127.157696"/><trkpt lat="35.581843" lon="127.157756"/><trkpt lat="35.581795" lon="127.157781"/><trkpt lat="35.581761" lon="127.157804"/><trkpt lat="35.581729" lon="127.157833"/><trkpt lat="35.581566" lon="127.158003"/><trkpt lat="35.581169" lon="127.158419"/><trkpt lat="35.581126" lon="127.158459"/><trkpt lat="35.581082" lon="127.158492"/><trkpt lat="35.58091" lon="127.158605"/><trkpt lat="35.580853" lon="127.158644"/><trkpt lat="35.580822" lon="127.158672"/><trkpt lat="35.580795" lon="127.158706"/><trkpt lat="35.580747" lon="127.158783"/><trkpt lat="35.580564" lon="127.159085"/><trkpt lat="35.580518" lon="127.159164"/><trkpt lat="35.580501" lon="127.159206"/><trkpt lat="35.580492" lon="127.159253"/><trkpt lat="35.580486" lon="127.159351"/><trkpt lat="35.580456" lon="127.160012"/><trkpt lat="35.580451" lon="127.160078"/><trkpt lat="35.580444" lon="127.160126"/><trkpt lat="35.580374" lon="127.160442"/><trkpt lat="35.58031" lon="127.160726"/></trkseg>
<trkseg><trkpt lat="35.568764" lon="127.172996"/><trkpt lat="35.569002" lon="127.172281"/><trkpt lat="35.569025" lon="127.172205"/><trkpt lat="35.569035" lon="127.172159"/><trkpt lat="35.569034" lon="127.172114"/><trkpt lat="35.56902" lon="127.172025"/><trkpt lat="35.56902" lon="127.171982"/><trkpt lat="35.569032" lon="127.171941"/><trkpt lat="35.569011" lon="127.171766"/><trkpt lat="35.568993" lon="127.171724"/><trkpt lat="35.568982" lon="127.171679"/><trkpt lat="35.568971" lon="127.171622"/><trkpt lat="35.568951" lon="127.171592"/><trkpt lat="35.56892" lon="127.171559"/><trkpt lat="35.568914" lon="127.171526"/><trkpt lat="35.568922" lon="127.171485"/><trkpt lat="35.568945" lon="127.171412"/><trkpt lat="35.568958" lon="127.171367"/><trkpt lat="35.568964" lon="127.171323"/><trkpt lat="35.568957" lon="127.171264"/><trkpt lat="35.568954" lon="127.17122"/><trkpt lat="35.56896" lon="127.171173"/><trkpt lat="35.568974" lon="127.17111"/><trkpt lat="35.569003" lon="127.170985"/><trkpt lat="35.56901" lon="127.170939"/><trkpt lat="35.569005" lon="127.170898"/><trkpt lat="35.568987" lon="127.17085"/><trkpt lat="35.568978" lon="127.170809"/><trkpt lat="35.568976" lon="127.170762"/><trkpt lat="35.568979" lon="127.170715"/><trkpt lat="35.568986" lon="127.170667"/><trkpt lat="35.569002" lon="127.170605"/><trkpt lat="35.569083" lon="127.17033"/></trkseg>
<trkseg><trkpt lat="35.584303" lon="127.162461"/><trkpt lat="35.584241" lon="127.162446"/><trkpt lat="35.584192" lon="127.162431"/><trkpt lat="35.584155" lon="127.162412"/><trkpt lat="35.584124" lon="127.162384"/><trkpt lat="35.584058" lon="127.162303"/><trkpt lat="35.583927" lon="127.162138"/><trkpt lat="35.583902" lon="127.162113"/><trkpt lat="35.583883" lon="127.162113"/><trkpt lat="35.583872" lon="127.162142"/><trkpt lat="35.583865" lon="127.162186"/><trkpt lat="35.583842" lon="127.162382"/></trkseg>
<trkseg><trkpt lat="35.568764" lon="127.172996"/><trkpt lat="35.568605" lon="127.173432"/></trkseg>
<trkseg><trkpt lat="35.570159" lon="127.170969"/><trkpt lat="35.569903" lon="127.170867"/><trkpt lat="35.569854" lon="127.170843"/><trkpt lat="35.56982" lon="127.170819"/><trkpt lat="35.569754" lon="127.170767"/><trkpt lat="35.569701" lon="127.170721"/><trkpt lat="35.569672" lon="127.170691"/><trkpt lat="35.569617" lon="127.17062"/><trkpt lat="35.569538" lon="127.170513"/><trkpt lat="35.569509" lon="127.17048"/><trkpt lat="35.569477" lon="127.170454"/><trkpt lat="35.569431" lon="127.170426"/><trkpt lat="35.569249" lon="127.170334"/><trkpt lat="35.569213" lon="127.170318"/><trkpt lat="35.569169" lon="127.170313"/><trkpt lat="35.569124" lon="127.170319"/><trkpt lat="35.569083" lon="127.17033"/></trkseg>
<trkseg><trkpt lat="35.567597" lon="127.168186"/><trkpt lat="35.567355" lon="127.168377"/></trkseg>
<trkseg><trkpt lat="35.567355" lon="127.168377"/><trkpt lat="35.567371" lon="127.168669"/><trkpt lat="35.56737" lon="127.168702"/><trkpt lat="35.567364" lon="127.168726"/><trkpt lat="35.567339" lon="127.168788"/></trkseg>
</trk>
</gpx>
