<?xml version="1.0" encoding="UTF-8"?>
<gpx version="1.1" creator="letnaturechoose" xmlns="http://www.topografix.com/GPX/1/1">
<metadata><name>계족산 등산로</name></metadata>
<trk><name>계족산</name>
<trkseg><trkpt lat="35.060299" lon="127.52823"/><trkpt lat="35.061008" lon="127.528377"/><trkpt lat="35.061712" lon="127.528315"/><trkpt lat="35.062463" lon="127.528192"/><trkpt lat="35.062762" lon="127.528254"/><trkpt lat="35.06302" lon="127.528424"/><trkpt lat="35.063247" lon="127.528506"/><trkpt lat="35.06395" lon="127.528052"/><trkpt lat="35.064151" lon="127.527937"/><trkpt lat="35.064573" lon="127.527037"/><trkpt lat="35.065135" lon="127.526708"/><trkpt lat="35.065369" lon="127.5264"/><trkpt lat="35.065473" lon="127.526209"/><trkpt lat="35.065725" lon="127.526142"/><trkpt lat="35.065955" lon="127.52613"/><trkpt lat="35.06624" lon="127.526091"/><trkpt lat="35.066409" lon="127.526075"/><trkpt lat="35.066669" lon="127.526085"/><trkpt lat="35.066903" lon="127.526127"/><trkpt lat="35.067245" lon="127.526201"/><trkpt lat="35.067328" lon="127.52623"/><trkpt lat="35.06791" lon="127.526206"/><trkpt lat="35.068104" lon="127.526152"/><trkpt lat="35.068459" lon="127.5261"/><trkpt lat="35.068747" lon="127.526162"/><trkpt lat="35.068842" lon="127.526207"/><trkpt lat="35.069166" lon="127.526136"/><trkpt lat="35.069714" lon="127.525668"/><trkpt lat="35.070277" lon="127.525622"/><trkpt lat="35.070526" lon="127.525591"/><trkpt lat="35.070726" lon="127.525664"/><trkpt lat="35.070864" lon="127.525578"/><trkpt lat="35.071074" lon="127.525465"/><trkpt lat="35.071171" lon="127.525459"/><trkpt lat="35.071287" lon="127.525519"/><trkpt lat="35.071417" lon="127.525636"/><trkpt lat="35.071454" lon="127.525681"/><trkpt lat="35.071622" lon="127.52579"/><trkpt lat="35.07169" lon="127.525906"/><trkpt lat="35.071885" lon="127.52601"/><trkpt lat="35.072024" lon="127.526038"/><trkpt lat="35.072183" lon="127.526065"/><trkpt lat="35.072307" lon="127.525959"/><trkpt lat="35.072481" lon="127.525877"/><trkpt lat="35.072566" lon="127.525792"/><trkpt lat="35.072809" lon="127.525669"/><trkpt lat="35.073126" lon="127.525742"/><trkpt lat="35.073217" lon="127.52585"/><trkpt lat="35.073331" lon="127.52591"/><trkpt lat="35.073575" lon="127.525926"/><trkpt lat="35.073849" lon="127.525997"/><trkpt lat="35.074235" lon="127.526035"/><trkpt lat="35.074751" lon="127.526286"/><trkpt lat="35.075046" lon="127.526267"/><trkpt lat="35.075243" lon="127.526279"/><trkpt lat="35.07534" lon="127.526338"/><trkpt lat="35.07549" lon="127.526393"/><trkpt lat="35.075788" lon="127.526538"/><trkpt lat="35.075902" lon="127.526601"/><trkpt lat="35.076051" lon="127.526648"/><trkpt lat="35.076163" lon="127.526699"/><trkpt lat="35.076773" lon="127.526735"/><trkpt lat="35.07705" lon="127.52668"/><trkpt lat="35.077208" lon="127.526713"/><trkpt lat="35.077292" lon="127.526746"/><trkpt lat="35.077361" lon="127.526883"/><trkpt lat="35.077483" lon="127.526949"/><trkpt lat="35.077617" lon="127.526917"/><trkpt lat="35.077722" lon="127.526909"/><trkpt lat="35.0779" lon="127.526944"/><trkpt lat="35.078092" lon="127.527052"/><trkpt lat="35.078293" lon="127.527226"/><trkpt lat="35.078696" lon="127.527538"/><trkpt lat="35.078849" lon="127.527706"/><trkpt lat="35.078917" lon="127.527683"/><trkpt lat="35.078963" lon="127.527655"/><trkpt lat="35.079069" lon="127.527799"/><trkpt lat="35.079276" lon="127.528021"/><trkpt lat="35.0793" lon="127.528184"/><trkpt lat="35.07939" lon="127.528313"/><trkpt lat="35.079491" lon="127.528436"/><trkpt lat="35.079563" lon="127.528487"/><trkpt lat="35.079623" lon="127.528617"/><trkpt lat="35.079723" lon="127.528648"/><trkpt lat="35.079833" lon="127.528707"/><trkpt lat="35.079932" lon="127.528819"/><trkpt lat="35.080042" lon="127.528795"/><trkpt lat="35.080214" lon="127.528896"/><trkpt lat="35.080355" lon="127.52895"/><trkpt lat="35.08051" lon="127.529148"/><trkpt lat="35.080632" lon="127.529151"/><trkpt lat="35.080655" lon="127.529169"/><trkpt lat="35.080696" lon="127.52923"/><trkpt lat="35.080753" lon="127.529261"/><trkpt lat="35.080829" lon="127.529253"/><trkpt lat="35.08083" lon="127.529366"/><trkpt lat="35.080876" lon="127.529484"/><trkpt lat="35.081103" lon="127.529703"/><trkpt lat="35.081218" lon="127.530061"/><trkpt lat="35.081281" lon="127.530262"/><trkpt lat="35.081519" lon="127.530559"/><trkpt lat="35.081655" lon="127.530779"/><trkpt lat="35.08183" lon="127.530969"/><trkpt lat="35.081906" lon="127.531047"/><trkpt lat="35.081981" lon="127.53109"/><trkpt lat="35.082187" lon="127.531099"/><trkpt lat="35.082398" lon="127.531112"/><trkpt lat="35.082578" lon="127.531257"/><trkpt lat="35.082988" lon="127.531518"/><trkpt lat="35.083176" lon="127.531712"/><trkpt lat="35.083282" lon="127.531756"/><trkpt lat="35.083411" lon="127.531802"/><trkpt lat="35.083467" lon="127.531863"/><trkpt lat="35.0836" lon="127.531932"/><trkpt lat="35.083857" lon="127.531852"/><trkpt lat="35.084059" lon="127.53154"/><trkpt lat="35.084276" lon="127.531528"/><trkpt lat="35.084479" lon="127.531458"/><trkpt lat="35.084858" lon="127.531488"/><trkpt lat="35.085173" lon="127.531308"/><trkpt lat="35.085612" lon="127.531217"/><trkpt lat="35.085885" lon="127.53112"/><trkpt lat="35.086076" lon="127.531047"/><trkpt lat="35.08614" lon="127.531009"/><trkpt lat="35.086238" lon="127.530944"/><trkpt lat="35.08643" lon="127.530795"/><trkpt lat="35.086658" lon="127.530635"/><trkpt lat="35.087004" lon="127.530442"/><trkpt lat="35.087522" lon="127.530175"/><trkpt lat="35.087877" lon="127.529816"/><trkpt lat="35.087931" lon="127.529869"/></trkseg>
<trkseg><trkpt lat="35.087931" lon="127.529869"/><trkpt lat="35.088112" lon="127.529945"/><trkpt lat="35.088569" lon="127.530259"/><trkpt lat="35.08879" lon="127.530356"/><trkpt lat="35.088984" lon="127.530367"/><trkpt lat="35.089099" lon="127.530405"/><trkpt lat="35.089084" lon="127.530565"/><trkpt lat="35.089257" lon="127.530653"/><trkpt lat="35.089382" lon="127.53059"/><trkpt lat="35.089432" lon="127.530512"/><trkpt lat="35.089693" lon="127.530502"/><trkpt lat="35.089853" lon="127.530443"/></trkseg>
<trkseg><trkpt lat="35.060815" lon="127.528834"/><trkpt lat="35.060553" lon="127.528573"/><trkpt lat="35.060299" lon="127.52823"/></trkseg>
<trkseg><trkpt lat="35.087931" lon="127.529869"/><trkpt lat="35.087895" lon="127.529768"/><trkpt lat="35.087817" lon="127.52947"/><trkpt lat="35.087784" lon="127.529371"/><trkpt lat="35.087786" lon="127.529025"/><trkpt lat="35.087779" lon="127.529019"/><trkpt lat="35.08763" lon="127.528967"/><trkpt lat="35.087559" lon="127.528822"/><trkpt lat="35.087527" lon="127.528563"/><trkpt lat="35.087454" lon="127.528307"/><trkpt lat="35.087436" lon="127.528175"/><trkpt lat="35.087322" lon="127.527963"/><trkpt lat="35.087111" lon="127.527432"/><trkpt lat="35.087022" lon="127.527261"/><trkpt lat="35.087026" lon="127.526739"/><trkpt lat="35.086916" lon="127.526269"/><trkpt lat="35.086893" lon="127.526019"/><trkpt lat="35.086967" lon="127.525583"/><trkpt lat="35.086905" lon="127.525386"/><trkpt lat="35.08715" lon="127.525349"/><trkpt lat="35.087385" lon="127.525214"/><trkpt lat="35.087602" lon="127.525027"/><trkpt lat="35.087743" lon="127.524962"/><trkpt lat="35.087888" lon="127.524925"/><trkpt lat="35.088089" lon="127.524715"/><trkpt lat="35.088346" lon="127.524493"/><trkpt lat="35.088645" lon="127.524014"/><trkpt lat="35.08862" lon="127.523496"/><trkpt lat="35.08863" lon="127.523184"/><trkpt lat="35.088667" lon="127.523026"/><trkpt lat="35.08878" lon="127.522586"/><trkpt lat="35.088816" lon="127.522392"/><trkpt lat="35.088699" lon="127.52191"/><trkpt lat="35.088586" lon="127.521758"/><trkpt lat="35.088751" lon="127.521533"/><trkpt lat="35.088861" lon="127.521399"/><trkpt lat="35.088861" lon="127.521137"/><trkpt lat="35.089015" lon="127.520777"/><trkpt lat="35.088907" lon="127.520484"/><trkpt lat="35.088845" lon="127.520266"/><trkpt lat="35.088814" lon="127.519949"/><trkpt lat="35.088841" lon="127.51944"/><trkpt lat="35.088934" lon="127.519105"/><trkpt lat="35.088991" lon="127.518894"/><trkpt lat="35.089114" lon="127.518427"/><trkpt lat="35.089219" lon="127.517836"/><trkpt lat="35.089226" lon="127.517348"/><trkpt lat="35.089389" lon="127.516688"/><trkpt lat="35.089552" lon="127.516428"/><trkpt lat="35.089672" lon="127.516071"/><trkpt lat="35.08958" lon="127.515642"/><trkpt lat="35.089566" lon="127.515247"/><trkpt lat="35.089612" lon="127.514479"/><trkpt lat="35.089531" lon="127.514017"/><trkpt lat="35.089375" lon="127.51367"/><trkpt lat="35.089313" lon="127.513517"/><trkpt lat="35.089229" lon="127.513179"/><trkpt lat="35.089101" lon="127.512975"/><trkpt lat="35.088854" lon="127.512608"/><trkpt lat="35.088576" lon="127.512109"/><trkpt lat="35.088289" lon="127.511962"/><trkpt lat="35.087924" lon="127.511837"/><trkpt lat="35.087937" lon="127.511777"/><trkpt lat="35.088096" lon="127.511024"/><trkpt lat="35.087955" lon="127.51073"/><trkpt lat="35.087919" lon="127.51017"/><trkpt lat="35.087923" lon="127.509887"/><trkpt lat="35.087855" lon="127.509755"/><trkpt lat="35.087953" lon="127.50933"/><trkpt lat="35.08811" lon="127.50887"/><trkpt lat="35.087915" lon="127.508432"/><trkpt lat="35.087815" lon="127.508155"/><trkpt lat="35.087633" lon="127.50798"/><trkpt lat="35.08752" lon="127.507749"/><trkpt lat="35.087353" lon="127.507493"/><trkpt lat="35.087238" lon="127.507117"/><trkpt lat="35.087152" lon="127.506947"/><trkpt lat="35.08707" lon="127.506845"/><trkpt lat="35.086951" lon="127.506643"/><trkpt lat="35.08678" lon="127.506472"/><trkpt lat="35.086718" lon="127.506406"/><trkpt lat="35.086627" lon="127.506363"/><trkpt lat="35.086592" lon="127.506379"/><trkpt lat="35.086532" lon="127.506375"/><trkpt lat="35.086403" lon="127.506202"/><trkpt lat="35.086347" lon="127.506068"/><trkpt lat="35.086146" lon="127.505932"/><trkpt lat="35.086378" lon="127.505807"/><trkpt lat="35.086423" lon="127.505493"/><trkpt lat="35.086199" lon="127.50545"/><trkpt lat="35.086077" lon="127.505255"/><trkpt lat="35.086038" lon="127.505092"/><trkpt lat="35.086015" lon="127.505084"/><trkpt lat="35.086059" lon="127.504777"/><trkpt lat="35.086009" lon="127.504742"/><trkpt lat="35.086005" lon="127.504748"/><trkpt lat="35.085999" lon="127.504754"/><trkpt lat="35.085795" lon="127.504691"/><trkpt lat="35.085773" lon="127.504597"/><trkpt lat="35.08574" lon="127.504599"/><trkpt lat="35.085717" lon="127.50455"/><trkpt lat="35.085777" lon="127.50439"/><trkpt lat="35.085681" lon="127.504148"/><trkpt lat="35.085637" lon="127.503968"/><trkpt lat="35.085591" lon="127.503663"/><trkpt lat="35.085513" lon="127.503238"/><trkpt lat="35.085362" lon="127.503133"/><trkpt lat="35.085347" lon="127.502849"/><trkpt lat="35.085025" lon="127.502675"/><trkpt lat="35.084897" lon="127.502512"/><trkpt lat="35.084826" lon="127.502399"/><trkpt lat="35.084507" lon="127.502229"/><trkpt lat="35.084278" lon="127.502052"/><trkpt lat="35.084089" lon="127.502082"/><trkpt lat="35.083964" lon="127.50183"/><trkpt lat="35.083538" lon="127.50125"/><trkpt lat="35.083269" lon="127.501009"/><trkpt lat="35.083041" lon="127.500946"/><trkpt lat="35.082921" lon="127.500992"/><trkpt lat="35.082893" lon="127.50099"/><trkpt lat="35.082799" lon="127.500853"/><trkpt lat="35.082691" lon="127.500782"/><trkpt lat="35.082585" lon="127.500564"/><trkpt lat="35.082454" lon="127.50002"/><trkpt lat="35.082531" lon="127.499915"/><trkpt lat="35.082485" lon="127.499834"/><trkpt lat="35.082371" lon="127.499765"/><trkpt lat="35.082254" lon="127.499648"/><trkpt lat="35.082077" lon="127.499552"/><trkpt lat="35.08169" lon="127.499442"/><trkpt lat="35.081415" lon="127.49917"/><trkpt lat="35.081374" lon="127.499101"/><trkpt lat="35.081222" lon="127.498848"/><trkpt lat="35.081094" lon="127.49875"/><trkpt lat="35.081203" lon="127.498612"/><trkpt lat="35.081199" lon="127.498397"/><trkpt lat="35.081043" lon="127.498305"/><trkpt lat="35.080993" lon="127.498294"/><trkpt lat="35.080877" lon="127.498299"/><trkpt lat="35.080857" lon="127.498268"/><trkpt lat="35.080841" lon="127.498223"/><trkpt lat="35.080828" lon="127.498215"/><trkpt lat="35.080633" lon="127.498097"/><trkpt lat="35.080451" lon="127.497843"/><trkpt lat="35.080424" lon="127.497595"/><trkpt lat="35.080438" lon="127.497435"/><trkpt lat="35.080371" lon="127.497127"/><trkpt lat="35.080304" lon="127.497095"/><trkpt lat="35.080196" lon="127.497036"/><trkpt lat="35.07993" lon="127.496861"/><trkpt lat="35.07957" lon="127.496688"/><trkpt lat="35.079375" lon="127.496698"/><trkpt lat="35.079076" lon="127.496586"/><trkpt lat="35.078916" lon="127.496472"/><trkpt lat="35.078865" lon="127.496419"/><trkpt lat="35.078843" lon="127.496383"/><trkpt lat="35.078792" lon="127.496332"/><trkpt lat="35.078668" lon="127.496211"/><trkpt lat="35.078662" lon="127.496203"/><trkpt lat="35.078492" lon="127.496156"/><trkpt lat="35.078245" lon="127.496165"/><trkpt lat="35.077996" lon="127.496239"/><trkpt lat="35.077656" lon="127.496228"/><trkpt lat="35.077245" lon="127.496226"/><trkpt lat="35.076854" lon="127.496198"/><trkpt lat="35.076546" lon="127.496173"/><trkpt lat="35.07604" lon="127.496017"/><trkpt lat="35.075999" lon="127.495999"/><trkpt lat="35.076073" lon="127.495838"/><trkpt lat="35.07601" lon="127.495485"/><trkpt lat="35.075912" lon="127.495441"/><trkpt lat="35.075929" lon="127.495412"/><trkpt lat="35.07592" lon="127.495403"/><trkpt lat="35.07592" lon="127.495402"/><trkpt lat="35.075929" lon="127.495362"/><trkpt lat="35.075917" lon="127.495337"/><trkpt lat="35.075918" lon="127.49534"/><trkpt lat="35.075919" lon="127.495342"/><trkpt lat="35.075907" lon="127.495328"/><trkpt lat="35.075851" lon="127.49532"/><trkpt lat="35.075711" lon="127.495261"/><trkpt lat="35.075488" lon="127.495125"/><trkpt lat="35.07535" lon="127.494866"/><trkpt lat="35.075285" lon="127.494743"/><trkpt lat="35.075269" lon="127.49461"/><trkpt lat="35.075278" lon="127.494581"/><trkpt lat="35.075228" lon="127.494451"/><trkpt lat="35.075176" lon="127.494452"/><trkpt lat="35.075154" lon="127.494428"/><trkpt lat="35.075119" lon="127.494419"/><trkpt lat="35.07511" lon="127.494416"/><trkpt lat="35.075113" lon="127.494413"/><trkpt lat="35.075086" lon="127.494352"/><trkpt lat="35.075001" lon="127.494298"/><trkpt lat="35.074866" lon="127.494204"/><trkpt lat="35.074689" lon="127.494007"/><trkpt lat="35.074352" lon="127.49391"/><trkpt lat="35.074268" lon="127.493771"/><trkpt lat="35.074211" lon="127.493502"/><trkpt lat="35.074303" lon="127.493261"/><trkpt lat="35.074255" lon="127.493174"/><trkpt lat="35.074209" lon="127.493016"/><trkpt lat="35.073995" lon="127.492665"/><trkpt lat="35.073887" lon="127.492565"/><trkpt lat="35.073583" lon="127.492241"/><trkpt lat="35.073328" lon="127.492355"/><trkpt lat="35.073222" lon="127.49231"/><trkpt lat="35.073171" lon="127.492247"/><trkpt lat="35.073169" lon="127.492219"/><trkpt lat="35.073157" lon="127.492187"/><trkpt lat="35.073133" lon="127.492138"/><trkpt lat="35.073076" lon="127.491976"/><trkpt lat="35.072996" lon="127.491773"/><trkpt lat="35.072887" lon="127.491698"/><trkpt lat="35.072707" lon="127.491595"/><trkpt lat="35.072695" lon="127.491529"/><trkpt lat="35.072672" lon="127.491367"/><trkpt lat="35.072668" lon="127.491211"/><trkpt lat="35.072696" lon="127.491045"/><trkpt lat="35.0727" lon="127.491011"/><trkpt lat="35.07266" lon="127.490746"/><trkpt lat="35.072361" lon="127.490591"/><trkpt lat="35.072306" lon="127.490552"/><trkpt lat="35.072232" lon="127.490357"/><trkpt lat="35.072003" lon="127.489687"/><trkpt lat="35.07191" lon="127.48955"/><trkpt lat="35.071864" lon="127.489448"/><trkpt lat="35.071656" lon="127.489344"/><trkpt lat="35.071503" lon="127.489255"/><trkpt lat="35.071409" lon="127.489117"/><trkpt lat="35.071175" lon="127.489025"/><trkpt lat="35.070985" lon="127.488857"/><trkpt lat="35.070894" lon="127.488743"/><trkpt lat="35.070773" lon="127.488429"/><trkpt lat="35.070515" lon="127.488051"/><trkpt lat="35.070411" lon="127.487811"/><trkpt lat="35.070161" lon="127.487586"/><trkpt lat="35.070008" lon="127.487417"/><trkpt lat="35.069723" lon="127.487109"/><trkpt lat="35.069585" lon="127.486871"/><trkpt lat="35.069292" lon="127.486569"/><trkpt lat="35.069061" lon="127.486528"/><trkpt lat="35.068578" lon="127.486513"/><trkpt lat="35.068197" lon="127.4863"/><trkpt lat="35.068056" lon="127.486063"/><trkpt lat="35.068001" lon="127.486068"/><trkpt lat="35.067901" lon="127.486074"/><trkpt lat="35.067811" lon="127.486076"/><trkpt lat="35.067775" lon="127.486076"/><trkpt lat="35.067724" lon="127.486053"/><trkpt lat="35.067678" lon="127.486018"/><trkpt lat="35.067664" lon="127.485984"/><trkpt lat="35.067607" lon="127.485849"/><trkpt lat="35.06737" lon="127.485813"/><trkpt lat="35.067093" lon="127.485602"/><trkpt lat="35.066901" lon="127.485409"/><trkpt lat="35.066516" lon="127.485182"/><trkpt lat="35.066443" lon="127.485165"/><trkpt lat="35.066374" lon="127.485366"/><trkpt lat="35.066243" lon="127.485727"/><trkpt lat="35.066032" lon="127.485981"/><trkpt lat="35.065808" lon="127.486066"/><trkpt lat="35.065536" lon="127.486252"/><trkpt lat="35.065443" lon="127.486369"/><trkpt lat="35.065396" lon="127.486338"/><trkpt lat="35.065423" lon="127.4862"/><trkpt lat="35.065285" lon="127.486247"/><trkpt lat="35.065233" lon="127.486452"/><trkpt lat="35.064889" lon="127.486731"/><trkpt lat="35.064579" lon="127.487349"/><trkpt lat="35.06456" lon="127.487574"/><trkpt lat="35.064564" lon="127.487748"/><trkpt lat="35.064468" lon="127.487997"/><trkpt lat="35.0644" lon="127.488347"/><trkpt lat="35.064268" lon="127.488618"/><trkpt lat="35.064139" lon="127.488828"/><trkpt lat="35.063971" lon="127.489028"/><trkpt lat="35.063817" lon="127.489383"/><trkpt lat="35.063683" lon="127.489507"/><trkpt lat="35.063496" lon="127.489631"/><trkpt lat="35.063313" lon="127.489909"/><trkpt lat="35.063088" lon="127.490281"/><trkpt lat="35.063026" lon="127.490438"/><trkpt lat="35.06292" lon="127.490648"/><trkpt lat="35.062814" lon="127.490878"/><trkpt lat="35.062742" lon="127.491159"/><trkpt lat="35.062669" lon="127.491421"/><trkpt lat="35.062512" lon="127.491646"/><trkpt lat="35.062434" lon="127.491913"/><trkpt lat="35.062186" lon="127.492001"/><trkpt lat="35.06192" lon="127.491647"/><trkpt lat="35.061735" lon="127.491771"/><trkpt lat="35.061703" lon="127.49195"/><trkpt lat="35.061896" lon="127.492205"/><trkpt lat="35.062026" lon="127.492443"/><trkpt lat="35.061869" lon="127.49298"/><trkpt lat="35.061778" lon="127.493244"/><trkpt lat="35.061667" lon="127.493527"/><trkpt lat="35.061479" lon="127.493581"/><trkpt lat="35.061033" lon="127.493856"/><trkpt lat="35.060757" lon="127.494127"/><trkpt lat="35.060656" lon="127.494303"/><trkpt lat="35.060587" lon="127.494459"/><trkpt lat="35.060516" lon="127.494567"/><trkpt lat="35.060458" lon="127.494657"/><trkpt lat="35.060406" lon="127.494858"/><trkpt lat="35.060372" lon="127.495183"/><trkpt lat="35.060327" lon="127.49543"/><trkpt lat="35.060232" lon="127.495542"/><trkpt lat="35.060128" lon="127.49561"/><trkpt lat="35.059923" lon="127.49584"/><trkpt lat="35.059784" lon="127.496053"/><trkpt lat="35.059615" lon="127.49615"/><trkpt lat="35.059489" lon="127.496199"/><trkpt lat="35.059223" lon="127.496261"/><trkpt lat="35.059089" lon="127.49632"/><trkpt lat="35.059181" lon="127.496555"/><trkpt lat="35.059182" lon="127.496744"/><trkpt lat="35.059365" lon="127.496892"/><trkpt lat="35.059633" lon="127.497081"/><trkpt lat="35.05957" lon="127.497472"/></trkseg>
<trkseg><trkpt lat="35.059385" lon="127.510407"/><trkpt lat="35.059687" lon="127.510778"/><trkpt lat="35.060001" lon="127.51075"/><trkpt lat="35.060094" lon="127.510906"/><trkpt lat="35.06019" lon="127.511009"/><trkpt lat="35.060478" lon="127.511124"/><trkpt lat="35.0605" lon="127.511171"/><trkpt lat="35.06049" lon="127.51143"/><trkpt lat="35.060444" lon="127.511676"/><trkpt lat="35.060396" lon="127.512047"/><trkpt lat="35.06043" lon="127.512425"/><trkpt lat="35.060469" lon="127.51269"/><trkpt lat="35.060406" lon="127.513101"/><trkpt lat="35.060472" lon="127.513471"/><trkpt lat="35.060457" lon="127.513718"/><trkpt lat="35.060362" lon="127.513853"/><trkpt lat="35.060265" lon="127.514027"/><trkpt lat="35.060119" lon="127.515006"/><trkpt lat="35.060059" lon="127.515405"/><trkpt lat="35.060032" lon="127.515773"/><trkpt lat="35.060021" lon="127.515857"/><trkpt lat="35.059787" lon="127.516"/><trkpt lat="35.059655" lon="127.516042"/><trkpt lat="35.059632" lon="127.516202"/><trkpt lat="35.059509" lon="127.516332"/><trkpt lat="35.059477" lon="127.516548"/><trkpt lat="35.059534" lon="127.516678"/><trkpt lat="35.059573" lon="127.516798"/><trkpt lat="35.059551" lon="127.516921"/><trkpt lat="35.059555" lon="127.516939"/><trkpt lat="35.059636" lon="127.517156"/><trkpt lat="35.059498" lon="127.517355"/><trkpt lat="35.059388" lon="127.517494"/><trkpt lat="35.059316" lon="127.517655"/><trkpt lat="35.059215" lon="127.517942"/><trkpt lat="35.059105" lon="127.518083"/><trkpt lat="35.058996" lon="127.518277"/><trkpt lat="35.058723" lon="127.518918"/><trkpt lat="35.058646" lon="127.519038"/><trkpt lat="35.058658" lon="127.51915"/><trkpt lat="35.058666" lon="127.519221"/><trkpt lat="35.058626" lon="127.519349"/><trkpt lat="35.058586" lon="127.519543"/><trkpt lat="35.058597" lon="127.519649"/><trkpt lat="35.05858" lon="127.519739"/><trkpt lat="35.058558" lon="127.519903"/><trkpt lat="35.058467" lon="127.52012"/><trkpt lat="35.058378" lon="127.520194"/><trkpt lat="35.05839" lon="127.520324"/><trkpt lat="35.058487" lon="127.520395"/><trkpt lat="35.058621" lon="127.520477"/><trkpt lat="35.058774" lon="127.520562"/><trkpt lat="35.058845" lon="127.520601"/><trkpt lat="35.058936" lon="127.520765"/><trkpt lat="35.059058" lon="127.521236"/><trkpt lat="35.058994" lon="127.521561"/><trkpt lat="35.059014" lon="127.521763"/><trkpt lat="35.058959" lon="127.522031"/><trkpt lat="35.05894" lon="127.522247"/><trkpt lat="35.058957" lon="127.522554"/><trkpt lat="35.058988" lon="127.522911"/><trkpt lat="35.059225" lon="127.523368"/><trkpt lat="35.059274" lon="127.523682"/><trkpt lat="35.059203" lon="127.524235"/><trkpt lat="35.059371" lon="127.524613"/><trkpt lat="35.059509" lon="127.524758"/><trkpt lat="35.05965" lon="127.525113"/><trkpt lat="35.059708" lon="127.525335"/><trkpt lat="35.059766" lon="127.525519"/><trkpt lat="35.05987" lon="127.525816"/><trkpt lat="35.059945" lon="127.525969"/><trkpt lat="35.06" lon="127.526273"/><trkpt lat="35.059983" lon="127.526574"/><trkpt lat="35.059992" lon="127.526815"/><trkpt lat="35.060015" lon="127.526967"/><trkpt lat="35.060048" lon="127.527247"/><trkpt lat="35.060074" lon="127.527467"/><trkpt lat="35.060041" lon="127.52763"/><trkpt lat="35.060043" lon="127.527944"/><trkpt lat="35.06013" lon="127.528084"/><trkpt lat="35.060184" lon="127.52818"/><trkpt lat="35.060299" lon="127.52823"/></trkseg>
</trk>
</gpx>
