<?xml version="1.0" encoding="UTF-8"?>
<gpx version="1.1" creator="letnaturechoose" xmlns="http://www.topografix.com/GPX/1/1">
<metadata><name>비봉산 등산로</name></metadata>
<trk><name>비봉산</name>
<trkseg><trkpt lat="34.545677" lon="127.317714"/><trkpt lat="34.545383" lon="127.317654"/><trkpt lat="34.545179" lon="127.317676"/><trkpt lat="34.544964" lon="127.317757"/><trkpt lat="34.544815" lon="127.317868"/><trkpt lat="34.544577" lon="127.317953"/><trkpt lat="34.544457" lon="127.318092"/><trkpt lat="34.544316" lon="127.318099"/><trkpt lat="34.544263" lon="127.318159"/><trkpt lat="34.544135" lon="127.318151"/><trkpt lat="34.543991" lon="127.318295"/></trkseg>
<trkseg><trkpt lat="34.544276" lon="127.318474"/><trkpt lat="34.54402" lon="127.318457"/></trkseg>
<trkseg><trkpt lat="34.543991" lon="127.318295"/><trkpt lat="34.543704" lon="127.318273"/><trkpt lat="34.5435" lon="127.318193"/><trkpt lat="34.543291" lon="127.318031"/></trkseg>
<trkseg><trkpt lat="34.54402" lon="127.318457"/><trkpt lat="34.544225" lon="127.318744"/><trkpt lat="34.544375" lon="127.318925"/><trkpt lat="34.5444" lon="127.319304"/><trkpt lat="34.544166" lon="127.319443"/><trkpt lat="34.544029" lon="127.319548"/><trkpt lat="34.54369" lon="127.31979"/><trkpt lat="34.543329" lon="127.320298"/><trkpt lat="34.543146" lon="127.320291"/><trkpt lat="34.542948" lon="127.319919"/></trkseg>
<trkseg><trkpt lat="34.56811" lon="127.336806"/><trkpt lat="34.567981" lon="127.336421"/><trkpt lat="34.566246" lon="127.336677"/><trkpt lat="34.565636" lon="127.336899"/><trkpt lat="34.565108" lon="127.336871"/><trkpt lat="34.564755" lon="127.336945"/><trkpt lat="34.564276" lon="127.336665"/><trkpt lat="34.563928" lon="127.336191"/><trkpt lat="34.563586" lon="127.335725"/><trkpt lat="34.563368" lon="127.335342"/><trkpt lat="34.563085" lon="127.335259"/><trkpt lat="34.562867" lon="127.335196"/><trkpt lat="34.562541" lon="127.334782"/><trkpt lat="34.562322" lon="127.334548"/><trkpt lat="34.562077" lon="127.334414"/><trkpt lat="34.561637" lon="127.334113"/><trkpt lat="34.561285" lon="127.33375"/><trkpt lat="34.561167" lon="127.333445"/><trkpt lat="34.561071" lon="127.333382"/><trkpt lat="34.560903" lon="127.33347"/><trkpt lat="34.560747" lon="127.333507"/><trkpt lat="34.560648" lon="127.333311"/><trkpt lat="34.560345" lon="127.333131"/><trkpt lat="34.559918" lon="127.333128"/><trkpt lat="34.55976" lon="127.333195"/><trkpt lat="34.559548" lon="127.333556"/><trkpt lat="34.559377" lon="127.333619"/><trkpt lat="34.559197" lon="127.333763"/><trkpt lat="34.559083" lon="127.333833"/><trkpt lat="34.558951" lon="127.333981"/><trkpt lat="34.558832" lon="127.334201"/><trkpt lat="34.558622" lon="127.334391"/><trkpt lat="34.55852" lon="127.334484"/><trkpt lat="34.558455" lon="127.334708"/><trkpt lat="34.558198" lon="127.334746"/><trkpt lat="34.557891" lon="127.334862"/><trkpt lat="34.557717" lon="127.334919"/><trkpt lat="34.557545" lon="127.334987"/><trkpt lat="34.557178" lon="127.335064"/><trkpt lat="34.556958" lon="127.335104"/><trkpt lat="34.556703" lon="127.335182"/><trkpt lat="34.556147" lon="127.335138"/><trkpt lat="34.555915" lon="127.335144"/><trkpt lat="34.555412" lon="127.335201"/><trkpt lat="34.554906" lon="127.335288"/><trkpt lat="34.554713" lon="127.335245"/><trkpt lat="34.554487" lon="127.335182"/><trkpt lat="34.553973" lon="127.335107"/><trkpt lat="34.553635" lon="127.335041"/><trkpt lat="34.553465" lon="127.334988"/><trkpt lat="34.553335" lon="127.335036"/><trkpt lat="34.553319" lon="127.335045"/></trkseg>
<trkseg><trkpt lat="34.553319" lon="127.335045"/><trkpt lat="34.55321" lon="127.334801"/><trkpt lat="34.553077" lon="127.334432"/><trkpt lat="34.552793" lon="127.334191"/><trkpt lat="34.552562" lon="127.333907"/><trkpt lat="34.552379" lon="127.3334"/><trkpt lat="34.552296" lon="127.333202"/><trkpt lat="34.552214" lon="127.333037"/><trkpt lat="34.551881" lon="127.332961"/><trkpt lat="34.551796" lon="127.332889"/><trkpt lat="34.551722" lon="127.332648"/><trkpt lat="34.551549" lon="127.332638"/><trkpt lat="34.551418" lon="127.331965"/><trkpt lat="34.551178" lon="127.331503"/><trkpt lat="34.551115" lon="127.331158"/><trkpt lat="34.550905" lon="127.330615"/><trkpt lat="34.550758" lon="127.330399"/><trkpt lat="34.550695" lon="127.330108"/><trkpt lat="34.550561" lon="127.329901"/><trkpt lat="34.550591" lon="127.32976"/><trkpt lat="34.550505" lon="127.328984"/><trkpt lat="34.55045" lon="127.328275"/><trkpt lat="34.550422" lon="127.32815"/><trkpt lat="34.55041" lon="127.327618"/><trkpt lat="34.550146" lon="127.327357"/><trkpt lat="34.549911" lon="127.327064"/><trkpt lat="34.549756" lon="127.326723"/><trkpt lat="34.549817" lon="127.326378"/><trkpt lat="34.549878" lon="127.325953"/><trkpt lat="34.549881" lon="127.325805"/><trkpt lat="34.549731" lon="127.325674"/><trkpt lat="34.550014" lon="127.325586"/><trkpt lat="34.550332" lon="127.325536"/><trkpt lat="34.550616" lon="127.32549"/><trkpt lat="34.55125" lon="127.32527"/><trkpt lat="34.551395" lon="127.325151"/><trkpt lat="34.551592" lon="127.324951"/><trkpt lat="34.552007" lon="127.325135"/><trkpt lat="34.552095" lon="127.325276"/><trkpt lat="34.552326" lon="127.325283"/><trkpt lat="34.552482" lon="127.325044"/><trkpt lat="34.552556" lon="127.324822"/><trkpt lat="34.552876" lon="127.324833"/><trkpt lat="34.553076" lon="127.324629"/><trkpt lat="34.553467" lon="127.324444"/><trkpt lat="34.553488" lon="127.32458"/><trkpt lat="34.55367" lon="127.324937"/><trkpt lat="34.554567" lon="127.32486"/><trkpt lat="34.554686" lon="127.324907"/><trkpt lat="34.554957" lon="127.32589"/><trkpt lat="34.555613" lon="127.326367"/><trkpt lat="34.555809" lon="127.326786"/><trkpt lat="34.555281" lon="127.326502"/><trkpt lat="34.555149" lon="127.326899"/><trkpt lat="34.555766" lon="127.327297"/><trkpt lat="34.556225" lon="127.327617"/><trkpt lat="34.556826" lon="127.327728"/><trkpt lat="34.556871" lon="127.327912"/><trkpt lat="34.557216" lon="127.328226"/><trkpt lat="34.557543" lon="127.328364"/><trkpt lat="34.557951" lon="127.328468"/><trkpt lat="34.558195" lon="127.328505"/><trkpt lat="34.558347" lon="127.328551"/><trkpt lat="34.558482" lon="127.328549"/><trkpt lat="34.558826" lon="127.328614"/><trkpt lat="34.559034" lon="127.328829"/><trkpt lat="34.559319" lon="127.328997"/><trkpt lat="34.559536" lon="127.329219"/><trkpt lat="34.560028" lon="127.329358"/><trkpt lat="34.560597" lon="127.329013"/><trkpt lat="34.560959" lon="127.328903"/><trkpt lat="34.561245" lon="127.328854"/><trkpt lat="34.561605" lon="127.328918"/><trkpt lat="34.56192" lon="127.32893"/><trkpt lat="34.562165" lon="127.328946"/><trkpt lat="34.562414" lon="127.329024"/><trkpt lat="34.56265" lon="127.329169"/><trkpt lat="34.562858" lon="127.329243"/><trkpt lat="34.563026" lon="127.32935"/><trkpt lat="34.563208" lon="127.32944"/><trkpt lat="34.563679" lon="127.329653"/><trkpt lat="34.563886" lon="127.329768"/></trkseg>
<trkseg><trkpt lat="34.553153" lon="127.338527"/><trkpt lat="34.552995" lon="127.338274"/><trkpt lat="34.552895" lon="127.338191"/><trkpt lat="34.552837" lon="127.338067"/><trkpt lat="34.552635" lon="127.337674"/><trkpt lat="34.552558" lon="127.337506"/><trkpt lat="34.552496" lon="127.337481"/><trkpt lat="34.552421" lon="127.337352"/><trkpt lat="34.552442" lon="127.337215"/><trkpt lat="34.552308" lon="127.33703"/><trkpt lat="34.552371" lon="127.336817"/><trkpt lat="34.552473" lon="127.33654"/><trkpt lat="34.55263" lon="127.336489"/><trkpt lat="34.552702" lon="127.336273"/><trkpt lat="34.552823" lon="127.336135"/><trkpt lat="34.552903" lon="127.33595"/><trkpt lat="34.552986" lon="127.335868"/><trkpt lat="34.553051" lon="127.335809"/><trkpt lat="34.553158" lon="127.335573"/><trkpt lat="34.553204" lon="127.335429"/><trkpt lat="34.553217" lon="127.335376"/><trkpt lat="34.553248" lon="127.335198"/><trkpt lat="34.553319" lon="127.335045"/></trkseg>
<trkseg><trkpt lat="34.54402" lon="127.318457"/><trkpt lat="34.543977" lon="127.318323"/><trkpt lat="34.543991" lon="127.318295"/></trkseg>
<trkseg><trkpt lat="34.545677" lon="127.317714"/><trkpt lat="34.545866" lon="127.318074"/><trkpt lat="34.546036" lon="127.318426"/><trkpt lat="34.546184" lon="127.318718"/><trkpt lat="34.546312" lon="127.319099"/><trkpt lat="34.5464" lon="127.31955"/><trkpt lat="34.546386" lon="127.31985"/><trkpt lat="34.546303" lon="127.320211"/><trkpt lat="34.546578" lon="127.320505"/><trkpt lat="34.546607" lon="127.320668"/><trkpt lat="34.546635" lon="127.320779"/><trkpt lat="34.546753" lon="127.321058"/><trkpt lat="34.546815" lon="127.321157"/></trkseg>
<trkseg><trkpt lat="34.553167" lon="127.311208"/><trkpt lat="34.552993" lon="127.311388"/><trkpt lat="34.5526" lon="127.311355"/><trkpt lat="34.552372" lon="127.311384"/><trkpt lat="34.552116" lon="127.311799"/><trkpt lat="34.55159" lon="127.312525"/><trkpt lat="34.550549" lon="127.312862"/><trkpt lat="34.549917" lon="127.31294"/><trkpt lat="34.549853" lon="127.313126"/><trkpt lat="34.549691" lon="127.313393"/><trkpt lat="34.549559" lon="127.313583"/><trkpt lat="34.549378" lon="127.313757"/><trkpt lat="34.549209" lon="127.313848"/><trkpt lat="34.549008" lon="127.313833"/><trkpt lat="34.54888" lon="127.313921"/><trkpt lat="34.548772" lon="127.31409"/><trkpt lat="34.548639" lon="127.314261"/><trkpt lat="34.548562" lon="127.314349"/><trkpt lat="34.54848" lon="127.314469"/><trkpt lat="34.548544" lon="127.314557"/><trkpt lat="34.548532" lon="127.314673"/><trkpt lat="34.548404" lon="127.31482"/><trkpt lat="34.548247" lon="127.314871"/><trkpt lat="34.548043" lon="127.314985"/><trkpt lat="34.548025" lon="127.3151"/><trkpt lat="34.547782" lon="127.315327"/><trkpt lat="34.547627" lon="127.315456"/><trkpt lat="34.547477" lon="127.315729"/><trkpt lat="34.547348" lon="127.315875"/><trkpt lat="34.54719" lon="127.31597"/><trkpt lat="34.547069" lon="127.31606"/><trkpt lat="34.546976" lon="127.3161"/><trkpt lat="34.546875" lon="127.316105"/><trkpt lat="34.546593" lon="127.316206"/><trkpt lat="34.546455" lon="127.316392"/><trkpt lat="34.546391" lon="127.316541"/><trkpt lat="34.546221" lon="127.316694"/><trkpt lat="34.546014" lon="127.316773"/><trkpt lat="34.545864" lon="127.317043"/><trkpt lat="34.545716" lon="127.317366"/><trkpt lat="34.545691" lon="127.317633"/><trkpt lat="34.545677" lon="127.317714"/></trkseg>
</trk>
</gpx>
