<?xml version="1.0" encoding="UTF-8"?>
<gpx version="1.1" creator="letnaturechoose" xmlns="http://www.topografix.com/GPX/1/1">
<metadata><name>사명산 등산로</name></metadata>
<trk><name>사명산</name>
<trkseg><trkpt lat="35.382354" lon="128.859085"/><trkpt lat="35.382213" lon="128.859"/><trkpt lat="35.382065" lon="128.858955"/><trkpt lat="35.381962" lon="128.858947"/><trkpt lat="35.381871" lon="128.858999"/><trkpt lat="35.381801" lon="128.859144"/><trkpt lat="35.381751" lon="128.859305"/><trkpt lat="35.381654" lon="128.859365"/><trkpt lat="35.381444" lon="128.859361"/><trkpt lat="35.381243" lon="128.859329"/><trkpt lat="35.381128" lon="128.859318"/><trkpt lat="35.38094" lon="128.859357"/><trkpt lat="35.380695" lon="128.859362"/><trkpt lat="35.380599" lon="128.859377"/><trkpt lat="35.380436" lon="128.859464"/><trkpt lat="35.380344" lon="128.859495"/><trkpt lat="35.380204" lon="128.85953"/><trkpt lat="35.380072" lon="128.8596"/><trkpt lat="35.379972" lon="128.859563"/><trkpt lat="35.37987" lon="128.859508"/><trkpt lat="35.379728" lon="128.859639"/><trkpt lat="35.379571" lon="128.859663"/><trkpt lat="35.379328" lon="128.859647"/><trkpt lat="35.379165" lon="128.859605"/><trkpt lat="35.379034" lon="128.859512"/><trkpt lat="35.378944" lon="128.859485"/><trkpt lat="35.378836" lon="128.85948"/><trkpt lat="35.378725" lon="128.859494"/><trkpt lat="35.378628" lon="128.859536"/><trkpt lat="35.378361" lon="128.859713"/><trkpt lat="35.378037" lon="128.859862"/><trkpt lat="35.3778" lon="128.859944"/><trkpt lat="35.377628" lon="128.860019"/><trkpt lat="35.37749" lon="128.860046"/><trkpt lat="35.377349" lon="128.860049"/><trkpt lat="35.377252" lon="128.860038"/></trkseg>
<trkseg><trkpt lat="35.382354" lon="128.859085"/><trkpt lat="35.382459" lon="128.859153"/><trkpt lat="35.382695" lon="128.859206"/><trkpt lat="35.382837" lon="128.859327"/><trkpt lat="35.382956" lon="128.85949"/><trkpt lat="35.383048" lon="128.859702"/><trkpt lat="35.383115" lon="128.859818"/><trkpt lat="35.383307" lon="128.860048"/><trkpt lat="35.383478" lon="128.860218"/><trkpt lat="35.383508" lon="128.860348"/><trkpt lat="35.383482" lon="128.86051"/><trkpt lat="35.383521" lon="128.86064"/><trkpt lat="35.383619" lon="128.860743"/><trkpt lat="35.383751" lon="128.860809"/><trkpt lat="35.383921" lon="128.860801"/><trkpt lat="35.384121" lon="128.860888"/><trkpt lat="35.384249" lon="128.860957"/><trkpt lat="35.384299" lon="128.860816"/><trkpt lat="35.384439" lon="128.86085"/><trkpt lat="35.384697" lon="128.860997"/><trkpt lat="35.384959" lon="128.861169"/><trkpt lat="35.385103" lon="128.861301"/><trkpt lat="35.385359" lon="128.861666"/><trkpt lat="35.385448" lon="128.861765"/><trkpt lat="35.3856" lon="128.861877"/><trkpt lat="35.385628" lon="128.861984"/><trkpt lat="35.385612" lon="128.862135"/><trkpt lat="35.385605" lon="128.862407"/><trkpt lat="35.385659" lon="128.86257"/><trkpt lat="35.385699" lon="128.862742"/><trkpt lat="35.385703" lon="128.862968"/><trkpt lat="35.385662" lon="128.863179"/><trkpt lat="35.385573" lon="128.863369"/><trkpt lat="35.385533" lon="128.863428"/></trkseg>
<trkseg><trkpt lat="35.390677" lon="128.858764"/><trkpt lat="35.390395" lon="128.858637"/><trkpt lat="35.390229" lon="128.858479"/><trkpt lat="35.390153" lon="128.858421"/><trkpt lat="35.389984" lon="128.858318"/><trkpt lat="35.389905" lon="128.858202"/><trkpt lat="35.389972" lon="128.858037"/><trkpt lat="35.389972" lon="128.857848"/><trkpt lat="35.389885" lon="128.85772"/><trkpt lat="35.389889" lon="128.857585"/><trkpt lat="35.389937" lon="128.857412"/><trkpt lat="35.389989" lon="128.857294"/><trkpt lat="35.390107" lon="128.857216"/><trkpt lat="35.389986" lon="128.857068"/><trkpt lat="35.38995" lon="128.856941"/><trkpt lat="35.389966" lon="128.856738"/><trkpt lat="35.38994" lon="128.856623"/><trkpt lat="35.389881" lon="128.856535"/><trkpt lat="35.389783" lon="128.856438"/><trkpt lat="35.389551" lon="128.856338"/><trkpt lat="35.38938" lon="128.856271"/><trkpt lat="35.38922" lon="128.856303"/><trkpt lat="35.389096" lon="128.856287"/><trkpt lat="35.38903" lon="128.856181"/><trkpt lat="35.389005" lon="128.856012"/><trkpt lat="35.389052" lon="128.855769"/><trkpt lat="35.389069" lon="128.855412"/><trkpt lat="35.389056" lon="128.85517"/><trkpt lat="35.3891" lon="128.854961"/><trkpt lat="35.389193" lon="128.854855"/><trkpt lat="35.389351" lon="128.854809"/><trkpt lat="35.389478" lon="128.854738"/><trkpt lat="35.389424" lon="128.854633"/><trkpt lat="35.389266" lon="128.854616"/><trkpt lat="35.389207" lon="128.854493"/><trkpt lat="35.389149" lon="128.854358"/><trkpt lat="35.389016" lon="128.854303"/><trkpt lat="35.388846" lon="128.854252"/><trkpt lat="35.388628" lon="128.854202"/><trkpt lat="35.388525" lon="128.854212"/><trkpt lat="35.388437" lon="128.854277"/><trkpt lat="35.388269" lon="128.854502"/><trkpt lat="35.388125" lon="128.854711"/><trkpt lat="35.388051" lon="128.854858"/><trkpt lat="35.387942" lon="128.85515"/><trkpt lat="35.387686" lon="128.85554"/><trkpt lat="35.387438" lon="128.855912"/><trkpt lat="35.38716" lon="128.856229"/><trkpt lat="35.387016" lon="128.856474"/><trkpt lat="35.386911" lon="128.856628"/><trkpt lat="35.38671" lon="128.856795"/><trkpt lat="35.386635" lon="128.856876"/><trkpt lat="35.386519" lon="128.857075"/><trkpt lat="35.386447" lon="128.857158"/><trkpt lat="35.3863" lon="128.857245"/><trkpt lat="35.386225" lon="128.857327"/><trkpt lat="35.386124" lon="128.857572"/><trkpt lat="35.386072" lon="128.857725"/><trkpt lat="35.385995" lon="128.857825"/><trkpt lat="35.385815" lon="128.85789"/><trkpt lat="35.38559" lon="128.857978"/><trkpt lat="35.385385" lon="128.858019"/><trkpt lat="35.385203" lon="128.858014"/><trkpt lat="35.385013" lon="128.857948"/><trkpt lat="35.384862" lon="128.857925"/><trkpt lat="35.384624" lon="128.857951"/><trkpt lat="35.384488" lon="128.858004"/><trkpt lat="35.384238" lon="128.858149"/><trkpt lat="35.383904" lon="128.858317"/><trkpt lat="35.383667" lon="128.858378"/><trkpt lat="35.383432" lon="128.858373"/><trkpt lat="35.383244" lon="128.858392"/><trkpt lat="35.383058" lon="128.858459"/><trkpt lat="35.382681" lon="128.858672"/><trkpt lat="35.382549" lon="128.858762"/><trkpt lat="35.382454" lon="128.858873"/><trkpt lat="35.382375" lon="128.858999"/><trkpt lat="35.382354" lon="128.859085"/></trkseg>
</trk>
</gpx>
