<?xml version="1.0" encoding="UTF-8"?>
<gpx version="1.1" creator="letnaturechoose" xmlns="http://www.topografix.com/GPX/1/1">
<metadata><name>금귀봉 등산로</name></metadata>
<trk><name>금귀봉</name>
<trkseg><trkpt lat="35.744015" lon="127.957305"/><trkpt lat="35.743994" lon="127.957714"/><trkpt lat="35.74389" lon="127.957974"/><trkpt lat="35.743846" lon="127.958194"/><trkpt lat="35.743782" lon="127.958491"/><trkpt lat="35.743741" lon="127.958642"/><trkpt lat="35.743728" lon="127.958817"/><trkpt lat="35.743744" lon="127.959003"/><trkpt lat="35.743768" lon="127.959127"/><trkpt lat="35.743746" lon="127.959312"/><trkpt lat="35.743701" lon="127.959556"/><trkpt lat="35.743672" lon="127.959963"/><trkpt lat="35.743694" lon="127.960091"/><trkpt lat="35.743713" lon="127.960291"/><trkpt lat="35.743703" lon="127.960426"/><trkpt lat="35.743659" lon="127.960554"/><trkpt lat="35.743598" lon="127.960859"/><trkpt lat="35.743612" lon="127.960954"/><trkpt lat="35.743576" lon="127.96118"/><trkpt lat="35.743553" lon="127.961301"/><trkpt lat="35.74353" lon="127.961478"/><trkpt lat="35.743521" lon="127.961698"/><trkpt lat="35.743513" lon="127.961821"/><trkpt lat="35.743505" lon="127.961939"/><trkpt lat="35.743482" lon="127.962065"/><trkpt lat="35.743447" lon="127.962268"/><trkpt lat="35.74336" lon="127.962492"/><trkpt lat="35.74331" lon="127.962602"/><trkpt lat="35.743277" lon="127.962836"/><trkpt lat="35.743249" lon="127.962907"/><trkpt lat="35.743301" lon="127.963127"/><trkpt lat="35.74341" lon="127.96349"/><trkpt lat="35.74347" lon="127.963718"/><trkpt lat="35.743517" lon="127.96394"/><trkpt lat="35.743546" lon="127.964104"/><trkpt lat="35.743592" lon="127.964257"/><trkpt lat="35.743643" lon="127.964423"/><trkpt lat="35.743737" lon="127.964595"/><trkpt lat="35.743773" lon="127.96467"/><trkpt lat="35.743796" lon="127.964726"/><trkpt lat="35.743844" lon="127.964859"/><trkpt lat="35.74389" lon="127.964937"/><trkpt lat="35.743962" lon="127.965024"/><trkpt lat="35.744018" lon="127.965113"/><trkpt lat="35.744058" lon="127.965205"/></trkseg>
<trkseg><trkpt lat="35.739864" lon="127.962908"/><trkpt lat="35.739973" lon="127.962749"/><trkpt lat="35.739936" lon="127.962584"/><trkpt lat="35.739915" lon="127.962322"/><trkpt lat="35.739925" lon="127.962082"/><trkpt lat="35.740013" lon="127.961756"/><trkpt lat="35.739984" lon="127.961421"/><trkpt lat="35.739949" lon="127.961086"/><trkpt lat="35.739981" lon="127.96069"/><trkpt lat="35.740029" lon="127.96048"/><trkpt lat="35.740193" lon="127.960076"/><trkpt lat="35.740266" lon="127.959759"/><trkpt lat="35.740358" lon="127.959382"/><trkpt lat="35.740451" lon="127.959104"/><trkpt lat="35.740496" lon="127.958871"/><trkpt lat="35.740522" lon="127.958737"/><trkpt lat="35.740556" lon="127.958622"/><trkpt lat="35.740524" lon="127.958388"/><trkpt lat="35.740589" lon="127.9582"/><trkpt lat="35.740788" lon="127.957804"/><trkpt lat="35.740893" lon="127.957569"/><trkpt lat="35.740821" lon="127.957414"/><trkpt lat="35.740807" lon="127.957262"/><trkpt lat="35.740928" lon="127.957237"/><trkpt lat="35.741026" lon="127.957134"/><trkpt lat="35.741264" lon="127.956917"/><trkpt lat="35.741385" lon="127.956828"/><trkpt lat="35.741418" lon="127.956704"/><trkpt lat="35.741452" lon="127.956548"/><trkpt lat="35.741494" lon="127.95636"/><trkpt lat="35.741549" lon="127.956161"/><trkpt lat="35.741622" lon="127.955852"/><trkpt lat="35.741634" lon="127.955488"/><trkpt lat="35.741745" lon="127.955232"/><trkpt lat="35.741868" lon="127.955061"/><trkpt lat="35.741949" lon="127.955001"/><trkpt lat="35.742106" lon="127.954879"/><trkpt lat="35.742181" lon="127.954758"/><trkpt lat="35.742327" lon="127.954638"/><trkpt lat="35.742404" lon="127.954543"/><trkpt lat="35.742511" lon="127.954398"/><trkpt lat="35.742716" lon="127.954143"/><trkpt lat="35.742966" lon="127.953845"/><trkpt lat="35.743133" lon="127.953714"/><trkpt lat="35.7433" lon="127.953339"/><trkpt lat="35.743354" lon="127.952984"/><trkpt lat="35.743444" lon="127.952788"/><trkpt lat="35.743504" lon="127.952622"/><trkpt lat="35.74363" lon="127.952401"/><trkpt lat="35.743647" lon="127.952136"/><trkpt lat="35.743789" lon="127.951969"/><trkpt lat="35.743927" lon="127.951824"/><trkpt lat="35.743984" lon="127.951574"/><trkpt lat="35.744084" lon="127.951175"/><trkpt lat="35.744149" lon="127.951006"/><trkpt lat="35.744148" lon="127.950564"/><trkpt lat="35.744209" lon="127.950261"/><trkpt lat="35.744268" lon="127.950005"/><trkpt lat="35.744335" lon="127.949834"/><trkpt lat="35.744466" lon="127.949678"/><trkpt lat="35.744614" lon="127.949429"/><trkpt lat="35.744713" lon="127.949247"/><trkpt lat="35.744756" lon="127.949134"/><trkpt lat="35.74489" lon="127.949206"/><trkpt lat="35.744897" lon="127.949458"/><trkpt lat="35.745002" lon="127.949607"/></trkseg>
<trkseg><trkpt lat="35.741253" lon="127.964211"/><trkpt lat="35.741276" lon="127.964094"/><trkpt lat="35.741304" lon="127.96396"/><trkpt lat="35.741306" lon="127.963741"/><trkpt lat="35.741303" lon="127.963636"/><trkpt lat="35.7413" lon="127.963548"/><trkpt lat="35.741341" lon="127.96324"/><trkpt lat="35.741299" lon="127.962959"/><trkpt lat="35.741382" lon="127.962734"/><trkpt lat="35.741448" lon="127.962587"/><trkpt lat="35.74147" lon="127.962417"/><trkpt lat="35.74154" lon="127.962021"/><trkpt lat="35.741288" lon="127.961805"/><trkpt lat="35.741262" lon="127.961565"/><trkpt lat="35.741259" lon="127.961389"/><trkpt lat="35.741299" lon="127.961055"/><trkpt lat="35.74131" lon="127.960806"/><trkpt lat="35.741431" lon="127.960595"/><trkpt lat="35.741488" lon="127.960381"/><trkpt lat="35.741567" lon="127.960291"/><trkpt lat="35.741691" lon="127.960032"/><trkpt lat="35.741826" lon="127.959801"/><trkpt lat="35.741948" lon="127.959572"/><trkpt lat="35.7422" lon="127.959481"/><trkpt lat="35.742333" lon="127.959431"/><trkpt lat="35.742467" lon="127.959381"/><trkpt lat="35.742628" lon="127.959234"/><trkpt lat="35.742667" lon="127.959079"/><trkpt lat="35.742828" lon="127.958782"/><trkpt lat="35.742971" lon="127.958617"/><trkpt lat="35.743147" lon="127.958355"/><trkpt lat="35.743403" lon="127.958014"/><trkpt lat="35.743634" lon="127.957705"/><trkpt lat="35.743941" lon="127.957415"/><trkpt lat="35.744015" lon="127.957305"/></trkseg>
<trkseg><trkpt lat="35.744015" lon="127.957305"/><trkpt lat="35.74403" lon="127.957039"/><trkpt lat="35.744052" lon="127.956612"/><trkpt lat="35.744175" lon="127.956162"/><trkpt lat="35.744333" lon="127.95601"/><trkpt lat="35.744496" lon="127.955752"/><trkpt lat="35.744603" lon="127.95543"/><trkpt lat="35.744687" lon="127.955148"/><trkpt lat="35.744745" lon="127.954822"/><trkpt lat="35.744834" lon="127.954365"/><trkpt lat="35.744785" lon="127.953862"/><trkpt lat="35.744826" lon="127.95344"/><trkpt lat="35.744781" lon="127.953202"/><trkpt lat="35.744699" lon="127.952902"/><trkpt lat="35.744665" lon="127.952574"/><trkpt lat="35.744601" lon="127.952433"/><trkpt lat="35.744541" lon="127.952303"/><trkpt lat="35.744578" lon="127.951996"/><trkpt lat="35.744787" lon="127.951662"/><trkpt lat="35.744744" lon="127.951344"/><trkpt lat="35.744757" lon="127.951042"/><trkpt lat="35.74465" lon="127.950714"/><trkpt lat="35.744673" lon="127.950412"/><trkpt lat="35.744849" lon="127.949901"/><trkpt lat="35.745002" lon="127.949607"/></trkseg>
<trkseg><trkpt lat="35.730809" lon="127.948884"/><trkpt lat="35.730703" lon="127.948769"/><trkpt lat="35.73062" lon="127.948598"/><trkpt lat="35.730543" lon="127.948516"/><trkpt lat="35.730412" lon="127.948381"/><trkpt lat="35.730322" lon="127.948341"/><trkpt lat="35.73022" lon="127.948247"/><trkpt lat="35.730274" lon="127.948112"/><trkpt lat="35.730229" lon="127.947981"/><trkpt lat="35.730212" lon="127.947879"/><trkpt lat="35.73015" lon="127.947841"/><trkpt lat="35.730067" lon="127.947747"/><trkpt lat="35.730004" lon="127.947682"/><trkpt lat="35.729873" lon="127.947601"/><trkpt lat="35.729779" lon="127.947629"/><trkpt lat="35.729695" lon="127.947626"/><trkpt lat="35.729513" lon="127.947561"/><trkpt lat="35.729405" lon="127.947405"/><trkpt lat="35.729397" lon="127.947263"/><trkpt lat="35.729432" lon="127.947147"/><trkpt lat="35.729377" lon="127.94697"/><trkpt lat="35.729254" lon="127.94662"/><trkpt lat="35.729191" lon="127.946534"/><trkpt lat="35.728994" lon="127.946517"/><trkpt lat="35.728827" lon="127.946468"/><trkpt lat="35.728585" lon="127.946446"/><trkpt lat="35.728347" lon="127.946364"/><trkpt lat="35.728113" lon="127.9463"/><trkpt lat="35.728002" lon="127.946307"/><trkpt lat="35.727682" lon="127.946283"/><trkpt lat="35.727394" lon="127.94629"/><trkpt lat="35.727124" lon="127.946156"/><trkpt lat="35.726838" lon="127.94599"/><trkpt lat="35.726746" lon="127.945905"/><trkpt lat="35.726525" lon="127.945507"/><trkpt lat="35.726432" lon="127.945274"/><trkpt lat="35.726299" lon="127.945072"/><trkpt lat="35.726221" lon="127.9447"/><trkpt lat="35.726197" lon="127.944321"/><trkpt lat="35.726203" lon="127.943968"/><trkpt lat="35.726155" lon="127.943513"/><trkpt lat="35.72618" lon="127.943169"/><trkpt lat="35.726301" lon="127.942909"/><trkpt lat="35.726456" lon="127.942675"/><trkpt lat="35.726623" lon="127.942261"/><trkpt lat="35.726748" lon="127.941964"/><trkpt lat="35.726954" lon="127.941459"/><trkpt lat="35.726959" lon="127.941069"/><trkpt lat="35.727037" lon="127.94075"/><trkpt lat="35.727158" lon="127.940363"/><trkpt lat="35.727031" lon="127.94008"/><trkpt lat="35.726999" lon="127.939653"/><trkpt lat="35.727127" lon="127.939287"/><trkpt lat="35.72717" lon="127.938842"/><trkpt lat="35.727271" lon="127.938496"/><trkpt lat="35.727419" lon="127.938268"/><trkpt lat="35.727563" lon="127.938022"/><trkpt lat="35.727643" lon="127.937719"/><trkpt lat="35.727771" lon="127.937478"/><trkpt lat="35.727911" lon="127.93725"/><trkpt lat="35.727904" lon="127.936863"/><trkpt lat="35.727816" lon="127.936476"/><trkpt lat="35.72773" lon="127.936115"/><trkpt lat="35.72783" lon="127.935768"/><trkpt lat="35.727988" lon="127.935567"/><trkpt lat="35.728215" lon="127.935167"/><trkpt lat="35.728333" lon="127.934809"/><trkpt lat="35.728522" lon="127.934428"/><trkpt lat="35.728645" lon="127.934121"/><trkpt lat="35.728745" lon="127.93385"/><trkpt lat="35.728623" lon="127.933592"/><trkpt lat="35.728614" lon="127.933233"/><trkpt lat="35.728518" lon="127.932922"/><trkpt lat="35.728536" lon="127.932575"/><trkpt lat="35.728559" lon="127.931941"/><trkpt lat="35.728463" lon="127.931516"/><trkpt lat="35.728288" lon="127.931027"/><trkpt lat="35.728102" lon="127.930959"/><trkpt lat="35.727956" lon="127.93074"/><trkpt lat="35.727993" lon="127.930255"/><trkpt lat="35.727932" lon="127.929751"/><trkpt lat="35.727848" lon="127.929506"/><trkpt lat="35.727883" lon="127.929124"/><trkpt lat="35.727708" lon="127.928787"/><trkpt lat="35.727403" lon="127.928405"/><trkpt lat="35.727022" lon="127.927938"/><trkpt lat="35.726701" lon="127.927493"/><trkpt lat="35.72662" lon="127.927227"/><trkpt lat="35.72658" lon="127.926968"/><trkpt lat="35.726373" lon="127.926725"/><trkpt lat="35.726118" lon="127.926701"/><trkpt lat="35.725903" lon="127.926469"/><trkpt lat="35.725666" lon="127.926457"/><trkpt lat="35.725179" lon="127.926584"/><trkpt lat="35.724275" lon="127.926829"/><trkpt lat="35.723102" lon="127.927195"/><trkpt lat="35.722541" lon="127.92733"/><trkpt lat="35.722111" lon="127.927097"/><trkpt lat="35.72179" lon="127.926969"/><trkpt lat="35.72152" lon="127.926887"/><trkpt lat="35.721199" lon="127.92675"/><trkpt lat="35.720765" lon="127.926482"/><trkpt lat="35.720348" lon="127.926223"/><trkpt lat="35.720052" lon="127.926354"/><trkpt lat="35.719843" lon="127.926408"/><trkpt lat="35.71947" lon="127.926141"/><trkpt lat="35.719074" lon="127.925902"/><trkpt lat="35.71874" lon="127.925827"/><trkpt lat="35.718395" lon="127.925688"/><trkpt lat="35.717893" lon="127.925567"/><trkpt lat="35.717469" lon="127.9255"/><trkpt lat="35.717055" lon="127.925511"/><trkpt lat="35.716638" lon="127.925512"/><trkpt lat="35.715919" lon="127.925704"/><trkpt lat="35.715521" lon="127.925809"/><trkpt lat="35.715393" lon="127.925967"/></trkseg>
<trkseg><trkpt lat="35.715393" lon="127.925967"/><trkpt lat="35.715187" lon="127.92565"/><trkpt lat="35.714908" lon="127.92521"/><trkpt lat="35.714805" lon="127.924844"/><trkpt lat="35.715192" lon="127.924576"/><trkpt lat="35.71563" lon="127.924139"/><trkpt lat="35.715956" lon="127.923565"/><trkpt lat="35.716081" lon="127.923013"/><trkpt lat="35.716202" lon="127.9219"/><trkpt lat="35.716388" lon="127.921247"/><trkpt lat="35.716528" lon="127.920511"/><trkpt lat="35.716411" lon="127.919856"/><trkpt lat="35.716122" lon="127.918932"/><trkpt lat="35.715891" lon="127.918019"/><trkpt lat="35.715835" lon="127.917806"/></trkseg>
<trkseg><trkpt lat="35.750167" lon="127.942163"/><trkpt lat="35.750204" lon="127.94197"/><trkpt lat="35.750289" lon="127.941755"/><trkpt lat="35.750284" lon="127.941569"/><trkpt lat="35.750063" lon="127.941641"/><trkpt lat="35.749909" lon="127.941699"/><trkpt lat="35.749764" lon="127.941705"/><trkpt lat="35.749567" lon="127.941606"/><trkpt lat="35.749214" lon="127.941698"/><trkpt lat="35.748975" lon="127.94184"/><trkpt lat="35.748799" lon="127.941819"/><trkpt lat="35.748705" lon="127.941692"/><trkpt lat="35.748427" lon="127.941727"/><trkpt lat="35.748084" lon="127.9418"/><trkpt lat="35.747657" lon="127.942017"/><trkpt lat="35.747358" lon="127.94217"/><trkpt lat="35.747181" lon="127.942402"/><trkpt lat="35.746934" lon="127.942443"/><trkpt lat="35.746581" lon="127.942592"/><trkpt lat="35.746305" lon="127.942681"/><trkpt lat="35.746219" lon="127.942823"/></trkseg>
<trkseg><trkpt lat="35.753055" lon="127.938799"/><trkpt lat="35.752999" lon="127.93906"/><trkpt lat="35.752906" lon="127.939349"/><trkpt lat="35.752713" lon="127.939813"/><trkpt lat="35.752668" lon="127.93993"/></trkseg>
<trkseg><trkpt lat="35.746219" lon="127.942823"/><trkpt lat="35.746406" lon="127.942906"/><trkpt lat="35.746507" lon="127.943113"/><trkpt lat="35.746547" lon="127.943324"/><trkpt lat="35.746749" lon="127.943332"/><trkpt lat="35.746789" lon="127.943351"/></trkseg>
<trkseg><trkpt lat="35.728859" lon="127.95614"/><trkpt lat="35.728718" lon="127.956122"/><trkpt lat="35.72859" lon="127.956134"/><trkpt lat="35.728379" lon="127.956082"/><trkpt lat="35.728222" lon="127.955914"/><trkpt lat="35.728118" lon="127.955885"/><trkpt lat="35.727946" lon="127.955848"/><trkpt lat="35.727855" lon="127.955747"/><trkpt lat="35.727691" lon="127.95575"/><trkpt lat="35.727566" lon="127.955815"/><trkpt lat="35.727525" lon="127.955804"/></trkseg>
<trkseg><trkpt lat="35.725991" lon="127.949206"/><trkpt lat="35.725838" lon="127.949328"/><trkpt lat="35.725707" lon="127.949374"/><trkpt lat="35.725639" lon="127.949417"/><trkpt lat="35.725529" lon="127.949597"/><trkpt lat="35.725429" lon="127.949612"/><trkpt lat="35.725373" lon="127.949615"/><trkpt lat="35.725281" lon="127.949603"/><trkpt lat="35.72517" lon="127.949553"/><trkpt lat="35.725042" lon="127.949501"/><trkpt lat="35.724734" lon="127.949343"/><trkpt lat="35.724671" lon="127.949305"/><trkpt lat="35.724564" lon="127.949232"/><trkpt lat="35.724469" lon="127.949177"/><trkpt lat="35.724358" lon="127.949227"/><trkpt lat="35.724242" lon="127.949268"/><trkpt lat="35.724129" lon="127.949467"/><trkpt lat="35.724182" lon="127.949655"/><trkpt lat="35.724283" lon="127.94988"/><trkpt lat="35.724005" lon="127.949891"/><trkpt lat="35.723821" lon="127.950097"/><trkpt lat="35.723775" lon="127.950189"/><trkpt lat="35.723706" lon="127.95042"/><trkpt lat="35.723437" lon="127.950469"/><trkpt lat="35.723183" lon="127.950351"/><trkpt lat="35.722916" lon="127.950283"/><trkpt lat="35.722815" lon="127.950233"/><trkpt lat="35.722406" lon="127.950201"/><trkpt lat="35.722162" lon="127.950228"/><trkpt lat="35.722058" lon="127.950266"/></trkseg>
<trkseg><trkpt lat="35.722058" lon="127.950266"/><trkpt lat="35.722025" lon="127.949976"/><trkpt lat="35.721927" lon="127.949623"/><trkpt lat="35.721759" lon="127.949496"/><trkpt lat="35.721534" lon="127.949407"/><trkpt lat="35.721353" lon="127.949244"/><trkpt lat="35.721134" lon="127.949011"/><trkpt lat="35.720984" lon="127.948771"/><trkpt lat="35.720878" lon="127.948538"/><trkpt lat="35.720776" lon="127.948252"/><trkpt lat="35.720567" lon="127.948243"/><trkpt lat="35.720428" lon="127.947908"/><trkpt lat="35.7204" lon="127.947581"/><trkpt lat="35.720467" lon="127.947405"/><trkpt lat="35.720374" lon="127.947147"/><trkpt lat="35.720271" lon="127.946754"/><trkpt lat="35.720414" lon="127.946477"/><trkpt lat="35.720185" lon="127.946039"/><trkpt lat="35.719913" lon="127.945984"/><trkpt lat="35.719818" lon="127.945819"/><trkpt lat="35.719781" lon="127.945579"/><trkpt lat="35.719752" lon="127.945319"/><trkpt lat="35.719597" lon="127.945071"/><trkpt lat="35.719312" lon="127.944973"/><trkpt lat="35.718904" lon="127.944685"/><trkpt lat="35.718708" lon="127.94455"/><trkpt lat="35.718673" lon="127.944201"/><trkpt lat="35.718532" lon="127.943996"/><trkpt lat="35.718328" lon="127.944083"/><trkpt lat="35.718029" lon="127.944036"/><trkpt lat="35.717911" lon="127.943823"/><trkpt lat="35.717949" lon="127.943491"/><trkpt lat="35.717878" lon="127.943241"/><trkpt lat="35.717757" lon="127.942945"/><trkpt lat="35.717586" lon="127.942787"/><trkpt lat="35.717319" lon="127.942656"/><trkpt lat="35.717152" lon="127.942469"/><trkpt lat="35.717103" lon="127.942191"/><trkpt lat="35.717087" lon="127.941885"/><trkpt lat="35.717162" lon="127.941493"/><trkpt lat="35.717064" lon="127.941022"/><trkpt lat="35.716789" lon="127.94071"/><trkpt lat="35.716541" lon="127.940667"/><trkpt lat="35.716378" lon="127.940813"/><trkpt lat="35.716286" lon="127.940905"/><trkpt lat="35.716104" lon="127.940873"/><trkpt lat="35.715913" lon="127.940738"/><trkpt lat="35.715638" lon="127.940767"/><trkpt lat="35.715347" lon="127.940632"/><trkpt lat="35.715059" lon="127.940477"/><trkpt lat="35.714836" lon="127.940514"/><trkpt lat="35.714627" lon="127.940513"/><trkpt lat="35.714502" lon="127.940247"/><trkpt lat="35.714432" lon="127.939996"/><trkpt lat="35.714273" lon="127.939659"/><trkpt lat="35.714216" lon="127.939466"/><trkpt lat="35.7141" lon="127.93923"/><trkpt lat="35.713931" lon="127.938986"/><trkpt lat="35.713694" lon="127.938746"/><trkpt lat="35.713352" lon="127.938555"/><trkpt lat="35.71315" lon="127.938018"/><trkpt lat="35.712755" lon="127.937658"/><trkpt lat="35.712201" lon="127.937455"/><trkpt lat="35.712009" lon="127.936858"/><trkpt lat="35.711592" lon="127.936368"/><trkpt lat="35.711243" lon="127.935931"/><trkpt lat="35.710992" lon="127.935134"/><trkpt lat="35.710635" lon="127.934589"/><trkpt lat="35.710376" lon="127.933922"/><trkpt lat="35.710208" lon="127.932923"/><trkpt lat="35.709941" lon="127.932622"/><trkpt lat="35.70957" lon="127.932335"/><trkpt lat="35.709359" lon="127.931877"/><trkpt lat="35.709161" lon="127.930951"/><trkpt lat="35.708948" lon="127.929918"/><trkpt lat="35.708674" lon="127.929123"/><trkpt lat="35.708208" lon="127.928638"/><trkpt lat="35.708186" lon="127.928239"/><trkpt lat="35.709595" lon="127.928054"/><trkpt lat="35.71016" lon="127.928075"/><trkpt lat="35.710153" lon="127.927154"/><trkpt lat="35.710164" lon="127.925887"/><trkpt lat="35.710026" lon="127.9252"/><trkpt lat="35.709947" lon="127.922949"/><trkpt lat="35.709917" lon="127.921002"/><trkpt lat="35.709909" lon="127.918734"/><trkpt lat="35.709886" lon="127.917982"/></trkseg>
<trkseg><trkpt lat="35.732816" lon="127.962329"/><trkpt lat="35.732795" lon="127.962489"/><trkpt lat="35.732869" lon="127.962566"/><trkpt lat="35.732934" lon="127.962724"/><trkpt lat="35.73289" lon="127.962968"/><trkpt lat="35.732802" lon="127.963283"/><trkpt lat="35.73267" lon="127.963429"/><trkpt lat="35.732556" lon="127.963593"/><trkpt lat="35.732324" lon="127.963784"/><trkpt lat="35.732054" lon="127.963808"/><trkpt lat="35.731929" lon="127.963882"/><trkpt lat="35.731657" lon="127.964307"/><trkpt lat="35.731624" lon="127.964481"/><trkpt lat="35.731636" lon="127.964895"/><trkpt lat="35.731718" lon="127.965446"/><trkpt lat="35.731642" lon="127.965861"/><trkpt lat="35.7315" lon="127.966258"/><trkpt lat="35.731297" lon="127.966318"/><trkpt lat="35.731093" lon="127.966342"/><trkpt lat="35.730774" lon="127.966477"/><trkpt lat="35.730667" lon="127.966482"/><trkpt lat="35.730641" lon="127.966413"/><trkpt lat="35.730535" lon="127.96655"/><trkpt lat="35.730424" lon="127.966744"/><trkpt lat="35.730251" lon="127.966781"/><trkpt lat="35.730103" lon="127.966878"/><trkpt lat="35.729748" lon="127.967063"/><trkpt lat="35.729526" lon="127.967451"/><trkpt lat="35.729213" lon="127.967918"/><trkpt lat="35.729033" lon="127.968068"/><trkpt lat="35.728762" lon="127.968118"/><trkpt lat="35.728695" lon="127.968262"/><trkpt lat="35.728621" lon="127.968541"/><trkpt lat="35.728536" lon="127.968765"/><trkpt lat="35.728383" lon="127.968844"/><trkpt lat="35.728262" lon="127.968919"/><trkpt lat="35.728089" lon="127.969062"/><trkpt lat="35.727925" lon="127.969229"/><trkpt lat="35.727781" lon="127.969332"/><trkpt lat="35.727555" lon="127.969539"/><trkpt lat="35.727353" lon="127.969523"/><trkpt lat="35.727055" lon="127.969525"/><trkpt lat="35.72682" lon="127.969695"/><trkpt lat="35.726673" lon="127.970064"/><trkpt lat="35.726487" lon="127.970374"/><trkpt lat="35.7264" lon="127.970696"/><trkpt lat="35.726333" lon="127.97106"/><trkpt lat="35.7263" lon="127.971504"/><trkpt lat="35.726249" lon="127.971766"/><trkpt lat="35.726137" lon="127.971744"/><trkpt lat="35.725889" lon="127.971546"/><trkpt lat="35.725779" lon="127.971518"/><trkpt lat="35.725663" lon="127.971705"/><trkpt lat="35.725544" lon="127.971934"/><trkpt lat="35.725402" lon="127.972051"/><trkpt lat="35.725277" lon="127.972324"/><trkpt lat="35.725132" lon="127.972631"/><trkpt lat="35.724968" lon="127.97285"/><trkpt lat="35.724816" lon="127.973152"/><trkpt lat="35.724972" lon="127.973427"/><trkpt lat="35.725033" lon="127.973721"/><trkpt lat="35.725028" lon="127.973989"/><trkpt lat="35.724941" lon="127.97423"/><trkpt lat="35.724634" lon="127.974516"/><trkpt lat="35.724563" lon="127.974634"/><trkpt lat="35.724513" lon="127.974923"/><trkpt lat="35.724517" lon="127.975216"/><trkpt lat="35.724532" lon="127.975536"/><trkpt lat="35.724516" lon="127.975744"/><trkpt lat="35.724454" lon="127.975899"/><trkpt lat="35.724225" lon="127.975957"/><trkpt lat="35.724042" lon="127.975989"/><trkpt lat="35.723907" lon="127.976"/><trkpt lat="35.723743" lon="127.976024"/><trkpt lat="35.723465" lon="127.976101"/><trkpt lat="35.7235" lon="127.976266"/><trkpt lat="35.723456" lon="127.976386"/><trkpt lat="35.7232" lon="127.976615"/><trkpt lat="35.722995" lon="127.97686"/><trkpt lat="35.722789" lon="127.977038"/><trkpt lat="35.722641" lon="127.977199"/><trkpt lat="35.722465" lon="127.977031"/><trkpt lat="35.722253" lon="127.976864"/><trkpt lat="35.722022" lon="127.97689"/><trkpt lat="35.721994" lon="127.976825"/><trkpt lat="35.721843" lon="127.9768"/><trkpt lat="35.721605" lon="127.976973"/><trkpt lat="35.721303" lon="127.977219"/><trkpt lat="35.721049" lon="127.977327"/><trkpt lat="35.720957" lon="127.977292"/><trkpt lat="35.720807" lon="127.977106"/><trkpt lat="35.720682" lon="127.977191"/><trkpt lat="35.720574" lon="127.977358"/><trkpt lat="35.720451" lon="127.977462"/><trkpt lat="35.720316" lon="127.977524"/><trkpt lat="35.720045" lon="127.977591"/><trkpt lat="35.719861" lon="127.97783"/><trkpt lat="35.719716" lon="127.977962"/><trkpt lat="35.719513" lon="127.978059"/><trkpt lat="35.719297" lon="127.978007"/><trkpt lat="35.719127" lon="127.977892"/><trkpt lat="35.719062" lon="127.977832"/><trkpt lat="35.718948" lon="127.977804"/><trkpt lat="35.718782" lon="127.977799"/><trkpt lat="35.718461" lon="127.977812"/><trkpt lat="35.718136" lon="127.977715"/><trkpt lat="35.717915" lon="127.977746"/><trkpt lat="35.71779" lon="127.977773"/><trkpt lat="35.717713" lon="127.977776"/><trkpt lat="35.717524" lon="127.977794"/><trkpt lat="35.71734" lon="127.977896"/><trkpt lat="35.717281" lon="127.977921"/><trkpt lat="35.717152" lon="127.977808"/><trkpt lat="35.716932" lon="127.977655"/><trkpt lat="35.716753" lon="127.977458"/><trkpt lat="35.716561" lon="127.977186"/><trkpt lat="35.716497" lon="127.977014"/><trkpt lat="35.716421" lon="127.97696"/><trkpt lat="35.716314" lon="127.976812"/><trkpt lat="35.716245" lon="127.976774"/><trkpt lat="35.715972" lon="127.97678"/><trkpt lat="35.715602" lon="127.976791"/><trkpt lat="35.715412" lon="127.976812"/><trkpt lat="35.715193" lon="127.976934"/><trkpt lat="35.714984" lon="127.977173"/><trkpt lat="35.714757" lon="127.977398"/><trkpt lat="35.714457" lon="127.977411"/><trkpt lat="35.71433" lon="127.977373"/><trkpt lat="35.714171" lon="127.977424"/><trkpt lat="35.714015" lon="127.977339"/><trkpt lat="35.713887" lon="127.97724"/><trkpt lat="35.713573" lon="127.977097"/><trkpt lat="35.713245" lon="127.976991"/><trkpt lat="35.713047" lon="127.976863"/><trkpt lat="35.712608" lon="127.976652"/><trkpt lat="35.712566" lon="127.9765"/><trkpt lat="35.71257" lon="127.976175"/><trkpt lat="35.712461" lon="127.976144"/><trkpt lat="35.71237" lon="127.976212"/><trkpt lat="35.712282" lon="127.976215"/><trkpt lat="35.712139" lon="127.97626"/><trkpt lat="35.711904" lon="127.976456"/></trkseg>
<trkseg><trkpt lat="35.739655" lon="127.98055"/><trkpt lat="35.739701" lon="127.980191"/><trkpt lat="35.739947" lon="127.979683"/><trkpt lat="35.740195" lon="127.979258"/><trkpt lat="35.740325" lon="127.978888"/><trkpt lat="35.740574" lon="127.978484"/><trkpt lat="35.740776" lon="127.978368"/><trkpt lat="35.740912" lon="127.97817"/><trkpt lat="35.741057" lon="127.977885"/><trkpt lat="35.741226" lon="127.977454"/><trkpt lat="35.7412" lon="127.977092"/><trkpt lat="35.741247" lon="127.97669"/><trkpt lat="35.741322" lon="127.976667"/><trkpt lat="35.741461" lon="127.976578"/><trkpt lat="35.741577" lon="127.976557"/><trkpt lat="35.741702" lon="127.976334"/><trkpt lat="35.741787" lon="127.976128"/><trkpt lat="35.741893" lon="127.975853"/><trkpt lat="35.741892" lon="127.975561"/><trkpt lat="35.741891" lon="127.975243"/><trkpt lat="35.74186" lon="127.975106"/><trkpt lat="35.741865" lon="127.974975"/><trkpt lat="35.741796" lon="127.974775"/><trkpt lat="35.741649" lon="127.97464"/><trkpt lat="35.741569" lon="127.974404"/><trkpt lat="35.741565" lon="127.974254"/><trkpt lat="35.741663" lon="127.974072"/><trkpt lat="35.74134" lon="127.973831"/><trkpt lat="35.741173" lon="127.973544"/><trkpt lat="35.741035" lon="127.97323"/><trkpt lat="35.741037" lon="127.973044"/><trkpt lat="35.741011" lon="127.972633"/><trkpt lat="35.741001" lon="127.972473"/><trkpt lat="35.740991" lon="127.972232"/><trkpt lat="35.740908" lon="127.971728"/><trkpt lat="35.740729" lon="127.971278"/><trkpt lat="35.740685" lon="127.971071"/><trkpt lat="35.740793" lon="127.970773"/><trkpt lat="35.740969" lon="127.970466"/><trkpt lat="35.741039" lon="127.970259"/><trkpt lat="35.741073" lon="127.970144"/><trkpt lat="35.741089" lon="127.969987"/><trkpt lat="35.741132" lon="127.969616"/><trkpt lat="35.741269" lon="127.969249"/><trkpt lat="35.741345" lon="127.968985"/><trkpt lat="35.741457" lon="127.968647"/><trkpt lat="35.741525" lon="127.968213"/><trkpt lat="35.741633" lon="127.967891"/><trkpt lat="35.741723" lon="127.967671"/><trkpt lat="35.741867" lon="127.967486"/><trkpt lat="35.741853" lon="127.967229"/><trkpt lat="35.741791" lon="127.966887"/><trkpt lat="35.741648" lon="127.966701"/><trkpt lat="35.741604" lon="127.966506"/><trkpt lat="35.741617" lon="127.966365"/><trkpt lat="35.741599" lon="127.966134"/><trkpt lat="35.741765" lon="127.965927"/><trkpt lat="35.74192" lon="127.965713"/><trkpt lat="35.741929" lon="127.965615"/></trkseg>
<trkseg><trkpt lat="35.736348" lon="127.963218"/><trkpt lat="35.736316" lon="127.963041"/><trkpt lat="35.736301" lon="127.962916"/><trkpt lat="35.736314" lon="127.962717"/><trkpt lat="35.73633" lon="127.962458"/><trkpt lat="35.736172" lon="127.962193"/><trkpt lat="35.73601" lon="127.961867"/><trkpt lat="35.736039" lon="127.961646"/><trkpt lat="35.736119" lon="127.961268"/><trkpt lat="35.736219" lon="127.961047"/><trkpt lat="35.736395" lon="127.960688"/><trkpt lat="35.736564" lon="127.960219"/><trkpt lat="35.736771" lon="127.959613"/><trkpt lat="35.737275" lon="127.959226"/><trkpt lat="35.737293" lon="127.958682"/><trkpt lat="35.737292" lon="127.958422"/><trkpt lat="35.737145" lon="127.957875"/><trkpt lat="35.737131" lon="127.957515"/><trkpt lat="35.737462" lon="127.957416"/><trkpt lat="35.737532" lon="127.957399"/><trkpt lat="35.737518" lon="127.957266"/><trkpt lat="35.737761" lon="127.956738"/><trkpt lat="35.738045" lon="127.956227"/><trkpt lat="35.738254" lon="127.955598"/><trkpt lat="35.738407" lon="127.954803"/><trkpt lat="35.738552" lon="127.954106"/><trkpt lat="35.738595" lon="127.9538"/><trkpt lat="35.738617" lon="127.953371"/><trkpt lat="35.738755" lon="127.9529"/><trkpt lat="35.73896" lon="127.952559"/><trkpt lat="35.739146" lon="127.95224"/><trkpt lat="35.739364" lon="127.951679"/><trkpt lat="35.739648" lon="127.951023"/><trkpt lat="35.740017" lon="127.950621"/><trkpt lat="35.740443" lon="127.950589"/><trkpt lat="35.740916" lon="127.950522"/><trkpt lat="35.741257" lon="127.950162"/><trkpt lat="35.741575" lon="127.949502"/><trkpt lat="35.742095" lon="127.948879"/><trkpt lat="35.742628" lon="127.948589"/><trkpt lat="35.743189" lon="127.948302"/><trkpt lat="35.743461" lon="127.947822"/><trkpt lat="35.743684" lon="127.947163"/><trkpt lat="35.7439" lon="127.946493"/><trkpt lat="35.744441" lon="127.946224"/><trkpt lat="35.744962" lon="127.945898"/><trkpt lat="35.745599" lon="127.945489"/><trkpt lat="35.746054" lon="127.944845"/><trkpt lat="35.746278" lon="127.944225"/><trkpt lat="35.746321" lon="127.944093"/></trkseg>
<trkseg><trkpt lat="35.736348" lon="127.963218"/><trkpt lat="35.736357" lon="127.963359"/><trkpt lat="35.73638" lon="127.963449"/><trkpt lat="35.736396" lon="127.963631"/><trkpt lat="35.736345" lon="127.963752"/><trkpt lat="35.736314" lon="127.96394"/><trkpt lat="35.736399" lon="127.964101"/><trkpt lat="35.736389" lon="127.964287"/><trkpt lat="35.736432" lon="127.964562"/><trkpt lat="35.736532" lon="127.964817"/><trkpt lat="35.736563" lon="127.965029"/><trkpt lat="35.736575" lon="127.965273"/><trkpt lat="35.736326" lon="127.966542"/><trkpt lat="35.736037" lon="127.967629"/><trkpt lat="35.735873" lon="127.968223"/><trkpt lat="35.735746" lon="127.968725"/><trkpt lat="35.735657" lon="127.969044"/><trkpt lat="35.735639" lon="127.96935"/><trkpt lat="35.735494" lon="127.969565"/><trkpt lat="35.735144" lon="127.96984"/><trkpt lat="35.735053" lon="127.970012"/><trkpt lat="35.735103" lon="127.970269"/><trkpt lat="35.735133" lon="127.970591"/><trkpt lat="35.735162" lon="127.970975"/><trkpt lat="35.735108" lon="127.971359"/><trkpt lat="35.735102" lon="127.971734"/><trkpt lat="35.735276" lon="127.972039"/><trkpt lat="35.735364" lon="127.972469"/><trkpt lat="35.735443" lon="127.9728"/><trkpt lat="35.735545" lon="127.973146"/><trkpt lat="35.735581" lon="127.973707"/><trkpt lat="35.735539" lon="127.974288"/><trkpt lat="35.735679" lon="127.974517"/><trkpt lat="35.736082" lon="127.974914"/><trkpt lat="35.736209" lon="127.975452"/><trkpt lat="35.73633" lon="127.975694"/><trkpt lat="35.736607" lon="127.975782"/><trkpt lat="35.736918" lon="127.975988"/><trkpt lat="35.737227" lon="127.976033"/><trkpt lat="35.737565" lon="127.976192"/><trkpt lat="35.737902" lon="127.976467"/><trkpt lat="35.738084" lon="127.976853"/><trkpt lat="35.738263" lon="127.977444"/><trkpt lat="35.738437" lon="127.977776"/><trkpt lat="35.738704" lon="127.978271"/><trkpt lat="35.738889" lon="127.978574"/><trkpt lat="35.739227" lon="127.978927"/><trkpt lat="35.739519" lon="127.979282"/><trkpt lat="35.73964" lon="127.979787"/><trkpt lat="35.739638" lon="127.980332"/><trkpt lat="35.739655" lon="127.98055"/></trkseg>
<trkseg><trkpt lat="35.736348" lon="127.963218"/><trkpt lat="35.736954" lon="127.963272"/><trkpt lat="35.737654" lon="127.962492"/><trkpt lat="35.738137" lon="127.962329"/><trkpt lat="35.738741" lon="127.963027"/><trkpt lat="35.739032" lon="127.963061"/><trkpt lat="35.73917" lon="127.962977"/><trkpt lat="35.739418" lon="127.963006"/><trkpt lat="35.739611" lon="127.963005"/><trkpt lat="35.739778" lon="127.962897"/><trkpt lat="35.739864" lon="127.962908"/></trkseg>
<trkseg><trkpt lat="35.728859" lon="127.95614"/><trkpt lat="35.728914" lon="127.956331"/><trkpt lat="35.728846" lon="127.956652"/><trkpt lat="35.728982" lon="127.956773"/><trkpt lat="35.729262" lon="127.956977"/><trkpt lat="35.729479" lon="127.957195"/><trkpt lat="35.729658" lon="127.957331"/><trkpt lat="35.729715" lon="127.957511"/><trkpt lat="35.730048" lon="127.957602"/><trkpt lat="35.73027" lon="127.957818"/><trkpt lat="35.730769" lon="127.958484"/><trkpt lat="35.731294" lon="127.959074"/><trkpt lat="35.731532" lon="127.959539"/><trkpt lat="35.731985" lon="127.959995"/><trkpt lat="35.732453" lon="127.960345"/><trkpt lat="35.732369" lon="127.960884"/><trkpt lat="35.732597" lon="127.961644"/><trkpt lat="35.732816" lon="127.962329"/></trkseg>
<trkseg><trkpt lat="35.741929" lon="127.965615"/><trkpt lat="35.742149" lon="127.965601"/><trkpt lat="35.742473" lon="127.965578"/><trkpt lat="35.742686" lon="127.965628"/><trkpt lat="35.742939" lon="127.96555"/><trkpt lat="35.743187" lon="127.96529"/><trkpt lat="35.743347" lon="127.965271"/><trkpt lat="35.743564" lon="127.96526"/><trkpt lat="35.743837" lon="127.965271"/><trkpt lat="35.744058" lon="127.965205"/></trkseg>
<trkseg><trkpt lat="35.741253" lon="127.964211"/><trkpt lat="35.741594" lon="127.965206"/><trkpt lat="35.741929" lon="127.965615"/></trkseg>
<trkseg><trkpt lat="35.745002" lon="127.949607"/><trkpt lat="35.745107" lon="127.94931"/><trkpt lat="35.745171" lon="127.949063"/><trkpt lat="35.745204" lon="127.948858"/><trkpt lat="35.745298" lon="127.948667"/><trkpt lat="35.745446" lon="127.948498"/><trkpt lat="35.745607" lon="127.948258"/><trkpt lat="35.745657" lon="127.948059"/><trkpt lat="35.745747" lon="127.947845"/><trkpt lat="35.745855" lon="127.947623"/><trkpt lat="35.746049" lon="127.947264"/><trkpt lat="35.746223" lon="127.947093"/><trkpt lat="35.746421" lon="127.946972"/><trkpt lat="35.746623" lon="127.946836"/><trkpt lat="35.746726" lon="127.946673"/><trkpt lat="35.746837" lon="127.946438"/><trkpt lat="35.746883" lon="127.946145"/><trkpt lat="35.746792" lon="127.94586"/><trkpt lat="35.746785" lon="127.94552"/><trkpt lat="35.746793" lon="127.945144"/><trkpt lat="35.746649" lon="127.944848"/><trkpt lat="35.746509" lon="127.944584"/><trkpt lat="35.746453" lon="127.94428"/><trkpt lat="35.746321" lon="127.944093"/></trkseg>
<trkseg><trkpt lat="35.732816" lon="127.962329"/><trkpt lat="35.734015" lon="127.962718"/><trkpt lat="35.7347" lon="127.963396"/><trkpt lat="35.735526" lon="127.963586"/><trkpt lat="35.736323" lon="127.963249"/><trkpt lat="35.736348" lon="127.963218"/></trkseg>
<trkseg><trkpt lat="35.744058" lon="127.965205"/><trkpt lat="35.744474" lon="127.965332"/><trkpt lat="35.744777" lon="127.965377"/><trkpt lat="35.744931" lon="127.965298"/><trkpt lat="35.745103" lon="127.965144"/><trkpt lat="35.745282" lon="127.965182"/><trkpt lat="35.745512" lon="127.965237"/><trkpt lat="35.7457" lon="127.965269"/><trkpt lat="35.746058" lon="127.965476"/><trkpt lat="35.746145" lon="127.965724"/><trkpt lat="35.746368" lon="127.965799"/><trkpt lat="35.746447" lon="127.966119"/><trkpt lat="35.746755" lon="127.966485"/><trkpt lat="35.747103" lon="127.96672"/><trkpt lat="35.747927" lon="127.966841"/><trkpt lat="35.748183" lon="127.966955"/><trkpt lat="35.748439" lon="127.967281"/><trkpt lat="35.749147" lon="127.967175"/><trkpt lat="35.7496" lon="127.967583"/><trkpt lat="35.75002" lon="127.968024"/><trkpt lat="35.750071" lon="127.968404"/><trkpt lat="35.74989" lon="127.968715"/><trkpt lat="35.749942" lon="127.96897"/><trkpt lat="35.750205" lon="127.96917"/><trkpt lat="35.750546" lon="127.969512"/><trkpt lat="35.750457" lon="127.970059"/><trkpt lat="35.75088" lon="127.970313"/><trkpt lat="35.751414" lon="127.970478"/><trkpt lat="35.751663" lon="127.970527"/><trkpt lat="35.752275" lon="127.970395"/><trkpt lat="35.752775" lon="127.970007"/><trkpt lat="35.753455" lon="127.969797"/></trkseg>
<trkseg><trkpt lat="35.739864" lon="127.962908"/><trkpt lat="35.740051" lon="127.963259"/><trkpt lat="35.740341" lon="127.963597"/><trkpt lat="35.740731" lon="127.963736"/><trkpt lat="35.740971" lon="127.964057"/><trkpt lat="35.741253" lon="127.964211"/></trkseg>
<trkseg><trkpt lat="35.746789" lon="127.943351"/><trkpt lat="35.747308" lon="127.943198"/><trkpt lat="35.748028" lon="127.943156"/><trkpt lat="35.748608" lon="127.942971"/><trkpt lat="35.749045" lon="127.942757"/><trkpt lat="35.749385" lon="127.942465"/><trkpt lat="35.749676" lon="127.942239"/><trkpt lat="35.749973" lon="127.942265"/><trkpt lat="35.750167" lon="127.942163"/></trkseg>
<trkseg><trkpt lat="35.746219" lon="127.942823"/><trkpt lat="35.74616" lon="127.942978"/><trkpt lat="35.745987" lon="127.943046"/><trkpt lat="35.745856" lon="127.943063"/><trkpt lat="35.745683" lon="127.942939"/><trkpt lat="35.745398" lon="127.942745"/><trkpt lat="35.745054" lon="127.942608"/><trkpt lat="35.744715" lon="127.942686"/><trkpt lat="35.744407" lon="127.942912"/><trkpt lat="35.744201" lon="127.943142"/><trkpt lat="35.744099" lon="127.943466"/><trkpt lat="35.744033" lon="127.943557"/><trkpt lat="35.743872" lon="127.943757"/><trkpt lat="35.743708" lon="127.944017"/><trkpt lat="35.743591" lon="127.944171"/><trkpt lat="35.74331" lon="127.944199"/><trkpt lat="35.74301" lon="127.944173"/><trkpt lat="35.742729" lon="127.94407"/><trkpt lat="35.742486" lon="127.943836"/><trkpt lat="35.742251" lon="127.943704"/><trkpt lat="35.741975" lon="127.943434"/><trkpt lat="35.741634" lon="127.943174"/><trkpt lat="35.741459" lon="127.943022"/><trkpt lat="35.741343" lon="127.942862"/><trkpt lat="35.741249" lon="127.942708"/><trkpt lat="35.741214" lon="127.942594"/><trkpt lat="35.741162" lon="127.942539"/><trkpt lat="35.741148" lon="127.942388"/><trkpt lat="35.741113" lon="127.942287"/><trkpt lat="35.741053" lon="127.942158"/><trkpt lat="35.740923" lon="127.942112"/><trkpt lat="35.740586" lon="127.942032"/><trkpt lat="35.740457" lon="127.942041"/><trkpt lat="35.740212" lon="127.942172"/><trkpt lat="35.740063" lon="127.94226"/><trkpt lat="35.739852" lon="127.942353"/><trkpt lat="35.739596" lon="127.942409"/><trkpt lat="35.739498" lon="127.942507"/><trkpt lat="35.739406" lon="127.942721"/><trkpt lat="35.739075" lon="127.943013"/><trkpt lat="35.738865" lon="127.943014"/><trkpt lat="35.738647" lon="127.943028"/><trkpt lat="35.738385" lon="127.942949"/><trkpt lat="35.738194" lon="127.942908"/><trkpt lat="35.737942" lon="127.942835"/><trkpt lat="35.737756" lon="127.942816"/><trkpt lat="35.73761" lon="127.942778"/><trkpt lat="35.73741" lon="127.942774"/><trkpt lat="35.737233" lon="127.942781"/><trkpt lat="35.73715" lon="127.942833"/><trkpt lat="35.737061" lon="127.942821"/><trkpt lat="35.736996" lon="127.942823"/><trkpt lat="35.736908" lon="127.942861"/><trkpt lat="35.736855" lon="127.942892"/><trkpt lat="35.736737" lon="127.942863"/><trkpt lat="35.736582" lon="127.9429"/><trkpt lat="35.736469" lon="127.942963"/><trkpt lat="35.736281" lon="127.94311"/><trkpt lat="35.736104" lon="127.94324"/><trkpt lat="35.73605" lon="127.943372"/><trkpt lat="35.735883" lon="127.943461"/><trkpt lat="35.735746" lon="127.94353"/><trkpt lat="35.735506" lon="127.943519"/><trkpt lat="35.735328" lon="127.943509"/><trkpt lat="35.735125" lon="127.943444"/><trkpt lat="35.734883" lon="127.943376"/><trkpt lat="35.734605" lon="127.943527"/><trkpt lat="35.734449" lon="127.94365"/><trkpt lat="35.734182" lon="127.943848"/><trkpt lat="35.73403" lon="127.943956"/><trkpt lat="35.733839" lon="127.944316"/><trkpt lat="35.733595" lon="127.944546"/><trkpt lat="35.733344" lon="127.944792"/><trkpt lat="35.733229" lon="127.94491"/><trkpt lat="35.733178" lon="127.944988"/><trkpt lat="35.733" lon="127.944969"/><trkpt lat="35.732808" lon="127.94495"/><trkpt lat="35.732612" lon="127.944936"/><trkpt lat="35.732472" lon="127.945127"/><trkpt lat="35.732298" lon="127.945235"/><trkpt lat="35.732187" lon="127.945242"/><trkpt lat="35.732105" lon="127.94527"/><trkpt lat="35.731851" lon="127.94539"/><trkpt lat="35.731512" lon="127.945627"/><trkpt lat="35.731154" lon="127.945827"/><trkpt lat="35.731128" lon="127.945971"/><trkpt lat="35.731111" lon="127.946128"/><trkpt lat="35.731151" lon="127.946221"/><trkpt lat="35.731089" lon="127.946329"/><trkpt lat="35.731109" lon="127.946543"/><trkpt lat="35.731112" lon="127.946747"/><trkpt lat="35.731142" lon="127.946945"/><trkpt lat="35.731138" lon="127.947118"/><trkpt lat="35.73115" lon="127.947304"/><trkpt lat="35.731101" lon="127.947497"/><trkpt lat="35.731083" lon="127.947918"/><trkpt lat="35.731038" lon="127.948283"/><trkpt lat="35.731013" lon="127.948443"/><trkpt lat="35.730863" lon="127.948664"/><trkpt lat="35.730809" lon="127.948884"/></trkseg>
<trkseg><trkpt lat="35.752668" lon="127.93993"/><trkpt lat="35.752341" lon="127.940126"/><trkpt lat="35.751758" lon="127.940312"/><trkpt lat="35.75132" lon="127.941109"/><trkpt lat="35.750988" lon="127.941647"/><trkpt lat="35.750384" lon="127.942037"/><trkpt lat="35.750167" lon="127.942163"/></trkseg>
<trkseg><trkpt lat="35.746321" lon="127.944093"/><trkpt lat="35.746511" lon="127.943671"/><trkpt lat="35.746789" lon="127.943351"/></trkseg>
<trkseg><trkpt lat="35.730809" lon="127.948884"/><trkpt lat="35.730747" lon="127.949077"/><trkpt lat="35.730681" lon="127.949357"/><trkpt lat="35.730656" lon="127.949636"/><trkpt lat="35.730673" lon="127.949873"/><trkpt lat="35.730549" lon="127.950214"/><trkpt lat="35.730493" lon="127.950352"/><trkpt lat="35.730442" lon="127.950498"/><trkpt lat="35.73037" lon="127.950608"/><trkpt lat="35.730331" lon="127.950698"/><trkpt lat="35.730279" lon="127.950882"/><trkpt lat="35.730279" lon="127.951007"/><trkpt lat="35.730114" lon="127.951124"/><trkpt lat="35.730072" lon="127.951247"/><trkpt lat="35.72999" lon="127.95139"/><trkpt lat="35.729953" lon="127.951696"/><trkpt lat="35.7299" lon="127.952213"/><trkpt lat="35.729768" lon="127.952567"/><trkpt lat="35.729718" lon="127.952827"/><trkpt lat="35.729685" lon="127.952974"/><trkpt lat="35.729702" lon="127.953213"/><trkpt lat="35.729808" lon="127.953382"/><trkpt lat="35.729886" lon="127.953603"/><trkpt lat="35.729881" lon="127.953771"/><trkpt lat="35.729862" lon="127.954011"/><trkpt lat="35.729806" lon="127.954221"/><trkpt lat="35.72979" lon="127.954398"/><trkpt lat="35.729804" lon="127.954438"/><trkpt lat="35.729803" lon="127.954576"/><trkpt lat="35.72972" lon="127.954789"/><trkpt lat="35.729569" lon="127.955125"/><trkpt lat="35.729536" lon="127.95532"/><trkpt lat="35.729471" lon="127.955493"/><trkpt lat="35.729299" lon="127.95564"/><trkpt lat="35.729158" lon="127.955669"/><trkpt lat="35.72909" lon="127.955829"/><trkpt lat="35.728991" lon="127.95599"/><trkpt lat="35.728918" lon="127.956088"/><trkpt lat="35.728859" lon="127.95614"/></trkseg>
<trkseg><trkpt lat="35.725991" lon="127.949206"/><trkpt lat="35.725996" lon="127.949323"/><trkpt lat="35.725976" lon="127.94947"/><trkpt lat="35.725927" lon="127.949677"/><trkpt lat="35.725938" lon="127.949822"/><trkpt lat="35.725979" lon="127.949997"/><trkpt lat="35.726047" lon="127.95016"/><trkpt lat="35.72608" lon="127.950408"/><trkpt lat="35.72615" lon="127.950731"/><trkpt lat="35.726214" lon="127.950814"/><trkpt lat="35.726338" lon="127.951068"/><trkpt lat="35.726397" lon="127.951342"/><trkpt lat="35.726421" lon="127.951476"/><trkpt lat="35.72643" lon="127.951581"/><trkpt lat="35.726522" lon="127.951811"/><trkpt lat="35.726676" lon="127.952152"/><trkpt lat="35.726712" lon="127.952332"/><trkpt lat="35.726721" lon="127.952439"/><trkpt lat="35.726756" lon="127.952524"/><trkpt lat="35.726765" lon="127.952592"/><trkpt lat="35.726726" lon="127.952648"/><trkpt lat="35.726582" lon="127.95297"/><trkpt lat="35.726472" lon="127.953306"/><trkpt lat="35.726761" lon="127.95385"/><trkpt lat="35.72692" lon="127.954285"/><trkpt lat="35.726895" lon="127.954673"/><trkpt lat="35.727002" lon="127.955097"/><trkpt lat="35.727345" lon="127.955589"/><trkpt lat="35.727525" lon="127.955804"/></trkseg>
<trkseg><trkpt lat="35.715393" lon="127.925967"/><trkpt lat="35.715518" lon="127.926353"/><trkpt lat="35.715595" lon="127.926908"/><trkpt lat="35.715758" lon="127.927767"/><trkpt lat="35.715815" lon="127.928303"/><trkpt lat="35.715875" lon="127.928714"/><trkpt lat="35.716027" lon="127.929162"/><trkpt lat="35.71601" lon="127.929546"/><trkpt lat="35.7161" lon="127.929765"/><trkpt lat="35.716319" lon="127.930244"/><trkpt lat="35.716472" lon="127.930474"/><trkpt lat="35.71662" lon="127.930651"/><trkpt lat="35.716966" lon="127.930874"/><trkpt lat="35.717195" lon="127.931101"/><trkpt lat="35.717387" lon="127.93112"/><trkpt lat="35.717579" lon="127.931157"/><trkpt lat="35.71775" lon="127.931218"/><trkpt lat="35.717932" lon="127.931431"/><trkpt lat="35.71817" lon="127.931388"/><trkpt lat="35.71827" lon="127.931492"/><trkpt lat="35.718329" lon="127.931766"/><trkpt lat="35.718508" lon="127.931851"/><trkpt lat="35.718672" lon="127.932101"/><trkpt lat="35.718709" lon="127.932268"/><trkpt lat="35.718821" lon="127.932507"/><trkpt lat="35.718957" lon="127.932648"/><trkpt lat="35.719075" lon="127.932804"/><trkpt lat="35.719106" lon="127.933017"/><trkpt lat="35.71904" lon="127.933208"/><trkpt lat="35.719074" lon="127.933321"/><trkpt lat="35.719213" lon="127.933485"/><trkpt lat="35.719182" lon="127.933679"/><trkpt lat="35.719282" lon="127.933843"/><trkpt lat="35.719323" lon="127.934017"/><trkpt lat="35.719436" lon="127.934291"/><trkpt lat="35.719576" lon="127.934567"/><trkpt lat="35.719593" lon="127.934846"/><trkpt lat="35.71968" lon="127.935111"/><trkpt lat="35.719767" lon="127.935357"/><trkpt lat="35.719885" lon="127.935551"/><trkpt lat="35.719865" lon="127.935713"/><trkpt lat="35.719964" lon="127.935787"/><trkpt lat="35.720057" lon="127.935922"/><trkpt lat="35.72016" lon="127.936022"/><trkpt lat="35.720226" lon="127.93616"/><trkpt lat="35.720281" lon="127.93631"/><trkpt lat="35.720313" lon="127.936507"/><trkpt lat="35.720308" lon="127.936689"/><trkpt lat="35.720334" lon="127.936895"/><trkpt lat="35.720409" lon="127.937066"/><trkpt lat="35.720476" lon="127.937237"/><trkpt lat="35.720511" lon="127.93741"/><trkpt lat="35.720598" lon="127.937431"/><trkpt lat="35.720635" lon="127.937535"/><trkpt lat="35.720718" lon="127.937701"/><trkpt lat="35.720846" lon="127.937834"/><trkpt lat="35.720888" lon="127.938027"/><trkpt lat="35.72105" lon="127.938219"/><trkpt lat="35.721053" lon="127.938402"/><trkpt lat="35.721049" lon="127.938572"/><trkpt lat="35.72111" lon="127.93873"/><trkpt lat="35.72125" lon="127.9389"/><trkpt lat="35.721331" lon="127.939036"/><trkpt lat="35.721432" lon="127.939239"/><trkpt lat="35.721538" lon="127.939405"/><trkpt lat="35.721731" lon="127.939562"/><trkpt lat="35.721924" lon="127.939638"/><trkpt lat="35.722172" lon="127.939616"/><trkpt lat="35.722288" lon="127.939694"/><trkpt lat="35.722385" lon="127.93986"/><trkpt lat="35.722731" lon="127.93995"/><trkpt lat="35.723001" lon="127.939985"/><trkpt lat="35.723198" lon="127.939955"/><trkpt lat="35.723322" lon="127.939975"/><trkpt lat="35.723485" lon="127.939826"/><trkpt lat="35.723618" lon="127.939792"/><trkpt lat="35.723711" lon="127.939875"/><trkpt lat="35.723808" lon="127.94"/><trkpt lat="35.723796" lon="127.940065"/><trkpt lat="35.723774" lon="127.940167"/><trkpt lat="35.72378" lon="127.940293"/><trkpt lat="35.723899" lon="127.940609"/><trkpt lat="35.723916" lon="127.940807"/><trkpt lat="35.723936" lon="127.940901"/><trkpt lat="35.72394" lon="127.941041"/><trkpt lat="35.723977" lon="127.941123"/><trkpt lat="35.723999" lon="127.941152"/><trkpt lat="35.724057" lon="127.941241"/><trkpt lat="35.724093" lon="127.941295"/><trkpt lat="35.724127" lon="127.94141"/><trkpt lat="35.724097" lon="127.941625"/><trkpt lat="35.724096" lon="127.941877"/><trkpt lat="35.724127" lon="127.942336"/><trkpt lat="35.724233" lon="127.942562"/><trkpt lat="35.724364" lon="127.942777"/><trkpt lat="35.724507" lon="127.943034"/><trkpt lat="35.724644" lon="127.943391"/><trkpt lat="35.724728" lon="127.943775"/><trkpt lat="35.724905" lon="127.944221"/><trkpt lat="35.724978" lon="127.944743"/><trkpt lat="35.725077" lon="127.945049"/><trkpt lat="35.72532" lon="127.945256"/><trkpt lat="35.725441" lon="127.945497"/><trkpt lat="35.725457" lon="127.945686"/><trkpt lat="35.725559" lon="127.945848"/><trkpt lat="35.725676" lon="127.946122"/><trkpt lat="35.725765" lon="127.946397"/><trkpt lat="35.725906" lon="127.94661"/><trkpt lat="35.725938" lon="127.946796"/><trkpt lat="35.726014" lon="127.947037"/><trkpt lat="35.726034" lon="127.947287"/><trkpt lat="35.726116" lon="127.947595"/><trkpt lat="35.726134" lon="127.947857"/><trkpt lat="35.726149" lon="127.948079"/><trkpt lat="35.726095" lon="127.948268"/><trkpt lat="35.72606" lon="127.94852"/><trkpt lat="35.726023" lon="127.948837"/><trkpt lat="35.726011" lon="127.949027"/><trkpt lat="35.725991" lon="127.949206"/></trkseg>
<trkseg><trkpt lat="35.72481" lon="127.955495"/><trkpt lat="35.724787" lon="127.95528"/><trkpt lat="35.72472" lon="127.955297"/><trkpt lat="35.724621" lon="127.955313"/><trkpt lat="35.72457" lon="127.955261"/><trkpt lat="35.724521" lon="127.955229"/><trkpt lat="35.724499" lon="127.954975"/><trkpt lat="35.7244" lon="127.954752"/><trkpt lat="35.724347" lon="127.954524"/><trkpt lat="35.724255" lon="127.954561"/><trkpt lat="35.724074" lon="127.954799"/><trkpt lat="35.723964" lon="127.954824"/><trkpt lat="35.723787" lon="127.954579"/><trkpt lat="35.72372" lon="127.954334"/><trkpt lat="35.723753" lon="127.954187"/><trkpt lat="35.723758" lon="127.953976"/><trkpt lat="35.723681" lon="127.953823"/><trkpt lat="35.723594" lon="127.953723"/><trkpt lat="35.723475" lon="127.953415"/><trkpt lat="35.72353" lon="127.953199"/><trkpt lat="35.723639" lon="127.953043"/><trkpt lat="35.723566" lon="127.952875"/><trkpt lat="35.723648" lon="127.952737"/><trkpt lat="35.723728" lon="127.95258"/><trkpt lat="35.72357" lon="127.95221"/><trkpt lat="35.723382" lon="127.952008"/><trkpt lat="35.723062" lon="127.951729"/><trkpt lat="35.722738" lon="127.951677"/><trkpt lat="35.722575" lon="127.951626"/><trkpt lat="35.722486" lon="127.951566"/><trkpt lat="35.722356" lon="127.951478"/><trkpt lat="35.722225" lon="127.951301"/><trkpt lat="35.722145" lon="127.95103"/><trkpt lat="35.722124" lon="127.950661"/><trkpt lat="35.722058" lon="127.950266"/></trkseg>
<trkseg><trkpt lat="35.727525" lon="127.955804"/><trkpt lat="35.727447" lon="127.955925"/><trkpt lat="35.727355" lon="127.955943"/><trkpt lat="35.727259" lon="127.956015"/><trkpt lat="35.727226" lon="127.956171"/><trkpt lat="35.727134" lon="127.956191"/><trkpt lat="35.727067" lon="127.956222"/><trkpt lat="35.726964" lon="127.95614"/><trkpt lat="35.726869" lon="127.956097"/><trkpt lat="35.726768" lon="127.956067"/><trkpt lat="35.726643" lon="127.956009"/><trkpt lat="35.726468" lon="127.95604"/><trkpt lat="35.726285" lon="127.955977"/><trkpt lat="35.726171" lon="127.956038"/><trkpt lat="35.726083" lon="127.955952"/><trkpt lat="35.726031" lon="127.956043"/><trkpt lat="35.725921" lon="127.956094"/><trkpt lat="35.725815" lon="127.956005"/><trkpt lat="35.725762" lon="127.955974"/><trkpt lat="35.725734" lon="127.956168"/><trkpt lat="35.725604" lon="127.955967"/><trkpt lat="35.725372" lon="127.955819"/><trkpt lat="35.725185" lon="127.955647"/><trkpt lat="35.725197" lon="127.955385"/><trkpt lat="35.725232" lon="127.955076"/><trkpt lat="35.725137" lon="127.95503"/><trkpt lat="35.725013" lon="127.955257"/><trkpt lat="35.724911" lon="127.955327"/><trkpt lat="35.72481" lon="127.955495"/></trkseg>
<trkseg><trkpt lat="35.710343" lon="127.965023"/><trkpt lat="35.710543" lon="127.964909"/><trkpt lat="35.710836" lon="127.964762"/><trkpt lat="35.711008" lon="127.964652"/><trkpt lat="35.711326" lon="127.964642"/><trkpt lat="35.711591" lon="127.964413"/><trkpt lat="35.711889" lon="127.964155"/><trkpt lat="35.71213" lon="127.963948"/><trkpt lat="35.712422" lon="127.963821"/><trkpt lat="35.712583" lon="127.963577"/><trkpt lat="35.712817" lon="127.963356"/><trkpt lat="35.713003" lon="127.963139"/><trkpt lat="35.713177" lon="127.962871"/><trkpt lat="35.713491" lon="127.96277"/><trkpt lat="35.713762" lon="127.96277"/><trkpt lat="35.714011" lon="127.962685"/><trkpt lat="35.714207" lon="127.962594"/><trkpt lat="35.714346" lon="127.962472"/><trkpt lat="35.714468" lon="127.962675"/><trkpt lat="35.714691" lon="127.962802"/><trkpt lat="35.714938" lon="127.962829"/><trkpt lat="35.715185" lon="127.962629"/><trkpt lat="35.715446" lon="127.96245"/><trkpt lat="35.71575" lon="127.962464"/><trkpt lat="35.716011" lon="127.962579"/><trkpt lat="35.716325" lon="127.962503"/><trkpt lat="35.716482" lon="127.962351"/><trkpt lat="35.716676" lon="127.962202"/><trkpt lat="35.716786" lon="127.962004"/><trkpt lat="35.716923" lon="127.961838"/><trkpt lat="35.716876" lon="127.961504"/><trkpt lat="35.716983" lon="127.961297"/><trkpt lat="35.717219" lon="127.961091"/><trkpt lat="35.717448" lon="127.96086"/><trkpt lat="35.717612" lon="127.960581"/><trkpt lat="35.717914" lon="127.960289"/><trkpt lat="35.718206" lon="127.95992"/><trkpt lat="35.718278" lon="127.95973"/><trkpt lat="35.718435" lon="127.95966"/><trkpt lat="35.718576" lon="127.959424"/><trkpt lat="35.718837" lon="127.959148"/><trkpt lat="35.719062" lon="127.958906"/><trkpt lat="35.719285" lon="127.958706"/><trkpt lat="35.719468" lon="127.95863"/><trkpt lat="35.719707" lon="127.958607"/><trkpt lat="35.720015" lon="127.958503"/><trkpt lat="35.720387" lon="127.958302"/><trkpt lat="35.720609" lon="127.957999"/><trkpt lat="35.720665" lon="127.957899"/><trkpt lat="35.720779" lon="127.957801"/><trkpt lat="35.72089" lon="127.957638"/><trkpt lat="35.721005" lon="127.957386"/><trkpt lat="35.721145" lon="127.957198"/><trkpt lat="35.721229" lon="127.95707"/><trkpt lat="35.721313" lon="127.957072"/><trkpt lat="35.72137" lon="127.956992"/><trkpt lat="35.72138" lon="127.956753"/><trkpt lat="35.721479" lon="127.956574"/><trkpt lat="35.721591" lon="127.956359"/><trkpt lat="35.721693" lon="127.955939"/><trkpt lat="35.721671" lon="127.955758"/><trkpt lat="35.721713" lon="127.955474"/><trkpt lat="35.721738" lon="127.955161"/><trkpt lat="35.721814" lon="127.955025"/><trkpt lat="35.721976" lon="127.955116"/><trkpt lat="35.722357" lon="127.955092"/><trkpt lat="35.72271" lon="127.955393"/><trkpt lat="35.722899" lon="127.955487"/><trkpt lat="35.723044" lon="127.955505"/><trkpt lat="35.723283" lon="127.955533"/><trkpt lat="35.723388" lon="127.955588"/><trkpt lat="35.723613" lon="127.955713"/><trkpt lat="35.723873" lon="127.955702"/><trkpt lat="35.724105" lon="127.955637"/><trkpt lat="35.72422" lon="127.955647"/><trkpt lat="35.724395" lon="127.955651"/><trkpt lat="35.724489" lon="127.955679"/><trkpt lat="35.724625" lon="127.955635"/><trkpt lat="35.724714" lon="127.95555"/><trkpt lat="35.72481" lon="127.955495"/></trkseg>
<trkseg><trkpt lat="35.739655" lon="127.98055"/><trkpt lat="35.739604" lon="127.980899"/><trkpt lat="35.739702" lon="127.981262"/><trkpt lat="35.739835" lon="127.981643"/><trkpt lat="35.740017" lon="127.982205"/><trkpt lat="35.740167" lon="127.982634"/><trkpt lat="35.740291" lon="127.98297"/><trkpt lat="35.740171" lon="127.983192"/><trkpt lat="35.740248" lon="127.983428"/><trkpt lat="35.740495" lon="127.983561"/><trkpt lat="35.740777" lon="127.98388"/><trkpt lat="35.740903" lon="127.984156"/><trkpt lat="35.740996" lon="127.984496"/><trkpt lat="35.741003" lon="127.984778"/><trkpt lat="35.74112" lon="127.984988"/><trkpt lat="35.741076" lon="127.985296"/><trkpt lat="35.740974" lon="127.985817"/><trkpt lat="35.740759" lon="127.986447"/><trkpt lat="35.740325" lon="127.986955"/><trkpt lat="35.739755" lon="127.987324"/><trkpt lat="35.739381" lon="127.987775"/><trkpt lat="35.738998" lon="127.988231"/><trkpt lat="35.738735" lon="127.988535"/><trkpt lat="35.73836" lon="127.989076"/><trkpt lat="35.737924" lon="127.989576"/><trkpt lat="35.737621" lon="127.989876"/><trkpt lat="35.7376" lon="127.990007"/></trkseg>
</trk>
</gpx>
