<?xml version="1.0" encoding="UTF-8"?>
<gpx version="1.1" creator="letnaturechoose" xmlns="http://www.topografix.com/GPX/1/1">
<metadata><name>망설봉 등산로</name></metadata>
<trk><name>망설봉</name>
<trkseg><trkpt lat="35.672236" lon="127.883682"/><trkpt lat="35.672231" lon="127.883253"/><trkpt lat="35.672261" lon="127.882905"/><trkpt lat="35.672285" lon="127.882542"/><trkpt lat="35.672399" lon="127.882389"/><trkpt lat="35.672499" lon="127.882628"/><trkpt lat="35.672602" lon="127.882854"/><trkpt lat="35.672623" lon="127.883179"/><trkpt lat="35.672773" lon="127.883464"/><trkpt lat="35.672885" lon="127.883678"/><trkpt lat="35.67301" lon="127.883874"/><trkpt lat="35.673162" lon="127.884102"/><trkpt lat="35.673315" lon="127.884325"/><trkpt lat="35.673463" lon="127.884492"/><trkpt lat="35.673665" lon="127.884637"/><trkpt lat="35.67385" lon="127.884651"/><trkpt lat="35.674053" lon="127.884741"/><trkpt lat="35.674241" lon="127.884776"/><trkpt lat="35.674399" lon="127.884737"/><trkpt lat="35.674559" lon="127.884663"/><trkpt lat="35.674703" lon="127.884573"/><trkpt lat="35.674927" lon="127.884651"/><trkpt lat="35.675115" lon="127.884688"/><trkpt lat="35.67527" lon="127.884813"/><trkpt lat="35.675402" lon="127.88485"/><trkpt lat="35.675532" lon="127.884801"/><trkpt lat="35.675651" lon="127.884783"/></trkseg>
<trkseg><trkpt lat="35.681445" lon="127.893613"/><trkpt lat="35.681726" lon="127.893566"/><trkpt lat="35.68193" lon="127.893426"/><trkpt lat="35.682129" lon="127.893161"/><trkpt lat="35.682376" lon="127.893145"/><trkpt lat="35.682642" lon="127.893078"/><trkpt lat="35.682809" lon="127.892956"/><trkpt lat="35.682945" lon="127.892831"/><trkpt lat="35.683004" lon="127.892714"/><trkpt lat="35.683056" lon="127.892679"/></trkseg>
<trkseg><trkpt lat="35.645849" lon="127.875424"/><trkpt lat="35.645848" lon="127.875585"/><trkpt lat="35.645939" lon="127.875793"/><trkpt lat="35.646126" lon="127.875885"/><trkpt lat="35.646286" lon="127.876009"/><trkpt lat="35.646447" lon="127.876079"/><trkpt lat="35.646669" lon="127.876153"/><trkpt lat="35.646867" lon="127.876391"/><trkpt lat="35.647089" lon="127.876695"/><trkpt lat="35.647307" lon="127.876869"/><trkpt lat="35.647391" lon="127.876724"/><trkpt lat="35.647513" lon="127.876821"/><trkpt lat="35.647649" lon="127.877102"/><trkpt lat="35.647829" lon="127.877304"/><trkpt lat="35.648082" lon="127.877594"/><trkpt lat="35.648074" lon="127.877826"/><trkpt lat="35.648243" lon="127.877755"/><trkpt lat="35.648386" lon="127.877769"/><trkpt lat="35.648644" lon="127.877687"/><trkpt lat="35.648702" lon="127.877608"/><trkpt lat="35.648802" lon="127.87763"/><trkpt lat="35.648928" lon="127.877655"/><trkpt lat="35.649014" lon="127.877744"/><trkpt lat="35.649135" lon="127.878022"/><trkpt lat="35.649346" lon="127.878307"/><trkpt lat="35.649486" lon="127.878659"/><trkpt lat="35.649655" lon="127.879053"/><trkpt lat="35.649762" lon="127.879465"/><trkpt lat="35.649943" lon="127.879818"/><trkpt lat="35.650123" lon="127.879958"/><trkpt lat="35.650285" lon="127.880204"/><trkpt lat="35.650487" lon="127.88034"/><trkpt lat="35.650597" lon="127.88057"/><trkpt lat="35.650755" lon="127.880754"/><trkpt lat="35.650864" lon="127.880896"/><trkpt lat="35.650927" lon="127.881159"/><trkpt lat="35.651304" lon="127.881397"/><trkpt lat="35.651522" lon="127.881414"/><trkpt lat="35.651671" lon="127.881529"/><trkpt lat="35.65172" lon="127.881805"/><trkpt lat="35.651845" lon="127.882094"/><trkpt lat="35.651995" lon="127.882394"/><trkpt lat="35.652228" lon="127.882493"/><trkpt lat="35.652457" lon="127.88262"/><trkpt lat="35.652427" lon="127.882905"/><trkpt lat="35.652344" lon="127.883107"/><trkpt lat="35.652425" lon="127.883222"/><trkpt lat="35.652563" lon="127.883464"/><trkpt lat="35.652582" lon="127.883694"/><trkpt lat="35.652635" lon="127.88402"/><trkpt lat="35.652704" lon="127.884289"/><trkpt lat="35.652824" lon="127.884575"/><trkpt lat="35.652807" lon="127.885099"/><trkpt lat="35.652788" lon="127.885539"/><trkpt lat="35.652787" lon="127.885835"/><trkpt lat="35.652755" lon="127.886116"/></trkseg>
<trkseg><trkpt lat="35.679866" lon="127.901131"/><trkpt lat="35.678453" lon="127.900435"/><trkpt lat="35.677953" lon="127.900159"/><trkpt lat="35.677507" lon="127.899713"/><trkpt lat="35.676818" lon="127.899442"/><trkpt lat="35.676455" lon="127.899323"/></trkseg>
<trkseg><trkpt lat="35.667303" lon="127.877726"/><trkpt lat="35.667142" lon="127.877887"/><trkpt lat="35.666982" lon="127.877848"/><trkpt lat="35.666972" lon="127.877984"/><trkpt lat="35.666846" lon="127.878046"/><trkpt lat="35.66676" lon="127.87814"/><trkpt lat="35.666675" lon="127.878256"/><trkpt lat="35.666693" lon="127.878408"/><trkpt lat="35.666658" lon="127.878668"/><trkpt lat="35.666547" lon="127.87888"/><trkpt lat="35.66651" lon="127.87901"/><trkpt lat="35.666494" lon="127.879135"/><trkpt lat="35.66647" lon="127.879365"/><trkpt lat="35.666411" lon="127.879612"/><trkpt lat="35.666352" lon="127.879811"/><trkpt lat="35.666268" lon="127.880048"/><trkpt lat="35.6662" lon="127.880467"/><trkpt lat="35.666205" lon="127.880642"/><trkpt lat="35.666224" lon="127.880968"/><trkpt lat="35.666339" lon="127.881358"/><trkpt lat="35.66643" lon="127.881663"/><trkpt lat="35.66642" lon="127.881928"/><trkpt lat="35.666533" lon="127.882047"/><trkpt lat="35.666565" lon="127.882235"/><trkpt lat="35.666524" lon="127.882429"/><trkpt lat="35.666414" lon="127.882676"/><trkpt lat="35.666372" lon="127.882888"/><trkpt lat="35.666183" lon="127.883101"/><trkpt lat="35.666034" lon="127.883252"/><trkpt lat="35.665861" lon="127.883496"/><trkpt lat="35.665824" lon="127.883621"/><trkpt lat="35.665779" lon="127.883897"/><trkpt lat="35.66572" lon="127.884147"/><trkpt lat="35.665594" lon="127.884182"/><trkpt lat="35.665451" lon="127.884229"/><trkpt lat="35.665309" lon="127.8843"/><trkpt lat="35.665212" lon="127.884316"/><trkpt lat="35.665102" lon="127.884454"/><trkpt lat="35.665011" lon="127.884482"/><trkpt lat="35.664901" lon="127.884426"/><trkpt lat="35.664723" lon="127.884424"/><trkpt lat="35.664599" lon="127.884467"/><trkpt lat="35.664437" lon="127.884547"/><trkpt lat="35.664218" lon="127.884612"/><trkpt lat="35.663951" lon="127.884821"/><trkpt lat="35.663825" lon="127.884998"/><trkpt lat="35.663753" lon="127.885108"/><trkpt lat="35.663554" lon="127.885372"/><trkpt lat="35.663449" lon="127.885531"/><trkpt lat="35.663208" lon="127.885851"/><trkpt lat="35.662973" lon="127.885937"/><trkpt lat="35.662638" lon="127.886012"/><trkpt lat="35.662438" lon="127.886456"/><trkpt lat="35.662308" lon="127.886737"/><trkpt lat="35.662141" lon="127.887038"/><trkpt lat="35.661934" lon="127.887385"/><trkpt lat="35.661743" lon="127.887496"/><trkpt lat="35.661674" lon="127.88771"/><trkpt lat="35.661344" lon="127.888008"/><trkpt lat="35.661136" lon="127.888125"/><trkpt lat="35.660925" lon="127.888198"/><trkpt lat="35.660864" lon="127.888402"/><trkpt lat="35.660834" lon="127.888667"/><trkpt lat="35.66093" lon="127.889072"/><trkpt lat="35.660902" lon="127.889331"/><trkpt lat="35.660745" lon="127.889668"/><trkpt lat="35.660826" lon="127.889984"/><trkpt lat="35.660885" lon="127.890429"/><trkpt lat="35.66078" lon="127.890727"/><trkpt lat="35.66071" lon="127.890953"/><trkpt lat="35.66061" lon="127.891091"/><trkpt lat="35.660447" lon="127.891064"/><trkpt lat="35.660343" lon="127.891201"/><trkpt lat="35.660235" lon="127.891401"/><trkpt lat="35.659955" lon="127.891428"/><trkpt lat="35.659652" lon="127.891337"/><trkpt lat="35.659407" lon="127.891233"/></trkseg>
<trkseg><trkpt lat="35.668188" lon="127.877462"/><trkpt lat="35.667996" lon="127.877548"/><trkpt lat="35.667898" lon="127.877605"/><trkpt lat="35.667783" lon="127.877664"/><trkpt lat="35.66761" lon="127.877753"/><trkpt lat="35.66749" lon="127.877769"/><trkpt lat="35.667326" lon="127.877767"/><trkpt lat="35.667303" lon="127.877726"/></trkseg>
<trkseg><trkpt lat="35.639116" lon="127.877273"/><trkpt lat="35.639183" lon="127.877153"/><trkpt lat="35.639221" lon="127.877009"/><trkpt lat="35.639113" lon="127.876782"/><trkpt lat="35.639062" lon="127.876599"/><trkpt lat="35.639017" lon="127.87648"/><trkpt lat="35.638919" lon="127.876454"/><trkpt lat="35.638767" lon="127.876297"/><trkpt lat="35.638572" lon="127.876067"/><trkpt lat="35.638331" lon="127.876001"/><trkpt lat="35.638115" lon="127.875868"/><trkpt lat="35.638051" lon="127.875779"/><trkpt lat="35.637937" lon="127.875643"/><trkpt lat="35.637843" lon="127.875523"/><trkpt lat="35.637719" lon="127.875346"/><trkpt lat="35.637676" lon="127.875208"/><trkpt lat="35.637507" lon="127.874911"/><trkpt lat="35.637537" lon="127.874726"/><trkpt lat="35.63752" lon="127.874571"/><trkpt lat="35.637503" lon="127.874367"/><trkpt lat="35.637476" lon="127.87425"/><trkpt lat="35.63743" lon="127.874162"/><trkpt lat="35.637342" lon="127.873929"/><trkpt lat="35.637254" lon="127.873759"/><trkpt lat="35.637101" lon="127.873508"/><trkpt lat="35.637008" lon="127.873402"/><trkpt lat="35.636798" lon="127.873203"/><trkpt lat="35.636662" lon="127.873041"/><trkpt lat="35.63653" lon="127.872804"/><trkpt lat="35.63643" lon="127.872644"/><trkpt lat="35.636276" lon="127.872484"/><trkpt lat="35.636222" lon="127.872465"/><trkpt lat="35.636033" lon="127.872383"/><trkpt lat="35.635866" lon="127.872312"/><trkpt lat="35.635767" lon="127.872285"/><trkpt lat="35.635673" lon="127.87234"/><trkpt lat="35.635624" lon="127.872389"/><trkpt lat="35.635531" lon="127.872398"/><trkpt lat="35.635493" lon="127.872461"/><trkpt lat="35.63539" lon="127.872622"/><trkpt lat="35.635202" lon="127.872674"/><trkpt lat="35.63513" lon="127.872567"/><trkpt lat="35.635027" lon="127.872535"/><trkpt lat="35.63486" lon="127.872353"/><trkpt lat="35.634674" lon="127.872107"/><trkpt lat="35.634427" lon="127.871869"/><trkpt lat="35.634279" lon="127.871657"/><trkpt lat="35.634195" lon="127.871363"/><trkpt lat="35.634137" lon="127.871209"/><trkpt lat="35.633975" lon="127.871191"/><trkpt lat="35.633603" lon="127.870944"/><trkpt lat="35.633482" lon="127.870844"/><trkpt lat="35.633248" lon="127.870815"/><trkpt lat="35.633125" lon="127.870818"/><trkpt lat="35.632957" lon="127.870839"/><trkpt lat="35.632855" lon="127.870812"/><trkpt lat="35.632647" lon="127.870855"/><trkpt lat="35.632525" lon="127.870912"/><trkpt lat="35.632337" lon="127.870978"/><trkpt lat="35.63204" lon="127.871216"/><trkpt lat="35.631713" lon="127.871573"/><trkpt lat="35.631524" lon="127.871594"/><trkpt lat="35.63131" lon="127.871727"/><trkpt lat="35.631109" lon="127.871926"/><trkpt lat="35.630846" lon="127.872022"/><trkpt lat="35.630718" lon="127.872038"/><trkpt lat="35.630601" lon="127.871944"/><trkpt lat="35.630457" lon="127.871702"/><trkpt lat="35.630283" lon="127.871469"/><trkpt lat="35.630161" lon="127.87105"/><trkpt lat="35.630174" lon="127.870872"/><trkpt lat="35.630016" lon="127.870628"/><trkpt lat="35.629738" lon="127.870655"/><trkpt lat="35.629461" lon="127.870652"/><trkpt lat="35.629275" lon="127.870609"/><trkpt lat="35.628986" lon="127.870777"/><trkpt lat="35.628872" lon="127.870724"/><trkpt lat="35.628709" lon="127.870642"/><trkpt lat="35.628436" lon="127.870538"/><trkpt lat="35.628171" lon="127.870479"/><trkpt lat="35.62788" lon="127.870496"/><trkpt lat="35.62774" lon="127.870466"/><trkpt lat="35.627576" lon="127.870376"/><trkpt lat="35.627348" lon="127.870466"/><trkpt lat="35.627078" lon="127.87042"/><trkpt lat="35.626858" lon="127.870248"/><trkpt lat="35.626717" lon="127.870071"/><trkpt lat="35.626657" lon="127.869972"/><trkpt lat="35.626505" lon="127.869829"/><trkpt lat="35.626294" lon="127.869677"/><trkpt lat="35.626067" lon="127.869588"/><trkpt lat="35.625928" lon="127.869602"/><trkpt lat="35.625768" lon="127.869598"/><trkpt lat="35.625664" lon="127.869689"/><trkpt lat="35.625577" lon="127.869807"/><trkpt lat="35.625469" lon="127.869759"/><trkpt lat="35.625359" lon="127.86984"/><trkpt lat="35.625235" lon="127.869945"/><trkpt lat="35.625101" lon="127.870059"/><trkpt lat="35.624886" lon="127.870226"/><trkpt lat="35.62472" lon="127.870413"/><trkpt lat="35.624584" lon="127.870676"/><trkpt lat="35.624512" lon="127.870835"/><trkpt lat="35.624461" lon="127.870946"/><trkpt lat="35.624381" lon="127.871146"/><trkpt lat="35.624329" lon="127.871303"/><trkpt lat="35.62425" lon="127.871455"/><trkpt lat="35.624207" lon="127.871552"/><trkpt lat="35.624085" lon="127.871694"/><trkpt lat="35.623984" lon="127.871668"/><trkpt lat="35.623833" lon="127.871724"/><trkpt lat="35.623717" lon="127.87172"/><trkpt lat="35.623613" lon="127.871697"/><trkpt lat="35.623498" lon="127.871782"/><trkpt lat="35.623395" lon="127.871787"/><trkpt lat="35.623126" lon="127.871839"/><trkpt lat="35.622942" lon="127.87183"/><trkpt lat="35.622807" lon="127.871779"/><trkpt lat="35.622668" lon="127.871788"/><trkpt lat="35.622531" lon="127.871803"/><trkpt lat="35.622418" lon="127.871842"/><trkpt lat="35.62233" lon="127.871884"/><trkpt lat="35.622205" lon="127.87188"/><trkpt lat="35.622071" lon="127.871886"/><trkpt lat="35.621899" lon="127.871905"/><trkpt lat="35.621731" lon="127.871878"/><trkpt lat="35.621655" lon="127.871839"/><trkpt lat="35.621571" lon="127.871757"/><trkpt lat="35.621467" lon="127.871664"/><trkpt lat="35.621354" lon="127.871556"/><trkpt lat="35.621255" lon="127.871499"/><trkpt lat="35.621152" lon="127.87141"/><trkpt lat="35.621035" lon="127.87121"/><trkpt lat="35.620971" lon="127.871126"/></trkseg>
<trkseg><trkpt lat="35.67224" lon="127.885963"/><trkpt lat="35.672449" lon="127.886056"/><trkpt lat="35.672793" lon="127.886142"/><trkpt lat="35.673174" lon="127.886005"/><trkpt lat="35.673415" lon="127.885909"/><trkpt lat="35.673851" lon="127.886038"/><trkpt lat="35.674087" lon="127.886142"/><trkpt lat="35.674151" lon="127.886199"/><trkpt lat="35.674256" lon="127.886197"/><trkpt lat="35.674685" lon="127.886425"/><trkpt lat="35.675121" lon="127.886777"/><trkpt lat="35.67539" lon="127.886812"/><trkpt lat="35.675727" lon="127.886904"/><trkpt lat="35.675852" lon="127.886956"/><trkpt lat="35.675937" lon="127.887037"/><trkpt lat="35.676031" lon="127.887146"/><trkpt lat="35.676067" lon="127.887229"/><trkpt lat="35.676281" lon="127.887562"/></trkseg>
<trkseg><trkpt lat="35.678732" lon="127.888123"/><trkpt lat="35.678871" lon="127.88817"/><trkpt lat="35.678999" lon="127.888298"/><trkpt lat="35.679128" lon="127.888305"/><trkpt lat="35.679296" lon="127.888375"/><trkpt lat="35.679453" lon="127.888457"/><trkpt lat="35.679539" lon="127.888556"/><trkpt lat="35.679683" lon="127.888564"/><trkpt lat="35.679746" lon="127.888594"/></trkseg>
<trkseg><trkpt lat="35.669391" lon="127.876951"/><trkpt lat="35.669429" lon="127.876789"/><trkpt lat="35.669389" lon="127.876629"/><trkpt lat="35.66938" lon="127.876435"/><trkpt lat="35.669451" lon="127.87625"/><trkpt lat="35.669441" lon="127.876076"/><trkpt lat="35.669509" lon="127.875857"/><trkpt lat="35.669606" lon="127.875624"/><trkpt lat="35.669684" lon="127.875578"/><trkpt lat="35.669692" lon="127.875465"/><trkpt lat="35.669683" lon="127.875397"/><trkpt lat="35.669593" lon="127.875234"/><trkpt lat="35.66959" lon="127.875096"/><trkpt lat="35.669497" lon="127.874875"/><trkpt lat="35.669463" lon="127.874698"/><trkpt lat="35.669383" lon="127.874471"/><trkpt lat="35.669436" lon="127.874309"/><trkpt lat="35.669645" lon="127.874158"/><trkpt lat="35.669805" lon="127.873937"/><trkpt lat="35.669794" lon="127.873609"/><trkpt lat="35.669727" lon="127.873295"/><trkpt lat="35.669835" lon="127.872948"/><trkpt lat="35.669973" lon="127.872563"/><trkpt lat="35.670073" lon="127.872304"/><trkpt lat="35.670184" lon="127.872089"/><trkpt lat="35.670235" lon="127.871888"/><trkpt lat="35.670334" lon="127.871741"/><trkpt lat="35.670412" lon="127.871536"/><trkpt lat="35.670402" lon="127.871416"/><trkpt lat="35.670406" lon="127.87124"/><trkpt lat="35.670477" lon="127.871049"/><trkpt lat="35.670487" lon="127.870862"/><trkpt lat="35.6705" lon="127.870597"/><trkpt lat="35.670494" lon="127.870468"/><trkpt lat="35.670517" lon="127.870277"/><trkpt lat="35.670565" lon="127.870085"/><trkpt lat="35.670702" lon="127.869822"/><trkpt lat="35.670778" lon="127.869627"/><trkpt lat="35.670739" lon="127.869421"/><trkpt lat="35.670815" lon="127.869218"/><trkpt lat="35.670761" lon="127.868975"/><trkpt lat="35.670497" lon="127.868917"/><trkpt lat="35.670297" lon="127.868786"/><trkpt lat="35.670047" lon="127.86871"/><trkpt lat="35.669802" lon="127.868537"/><trkpt lat="35.66965" lon="127.868332"/><trkpt lat="35.669411" lon="127.86816"/><trkpt lat="35.669241" lon="127.867962"/><trkpt lat="35.669094" lon="127.867712"/><trkpt lat="35.668951" lon="127.867416"/><trkpt lat="35.668804" lon="127.867171"/><trkpt lat="35.668624" lon="127.866968"/><trkpt lat="35.668518" lon="127.866731"/><trkpt lat="35.668353" lon="127.866656"/><trkpt lat="35.668322" lon="127.86657"/><trkpt lat="35.668319" lon="127.866523"/></trkseg>
<trkseg><trkpt lat="35.68409" lon="127.886354"/><trkpt lat="35.68395" lon="127.886077"/><trkpt lat="35.683958" lon="127.885981"/><trkpt lat="35.683945" lon="127.885929"/><trkpt lat="35.683928" lon="127.885724"/><trkpt lat="35.683917" lon="127.885572"/><trkpt lat="35.683858" lon="127.885494"/></trkseg>
<trkseg><trkpt lat="35.685889" lon="127.888896"/><trkpt lat="35.685561" lon="127.888652"/><trkpt lat="35.685402" lon="127.888341"/><trkpt lat="35.685488" lon="127.888065"/><trkpt lat="35.685637" lon="127.887773"/><trkpt lat="35.685565" lon="127.887582"/></trkseg>
<trkseg><trkpt lat="35.683736" lon="127.893313"/><trkpt lat="35.683549" lon="127.89324"/><trkpt lat="35.683288" lon="127.893043"/><trkpt lat="35.683056" lon="127.892679"/></trkseg>
<trkseg><trkpt lat="35.668319" lon="127.866523"/><trkpt lat="35.668451" lon="127.86648"/><trkpt lat="35.668573" lon="127.866353"/><trkpt lat="35.668565" lon="127.866115"/><trkpt lat="35.668637" lon="127.86593"/><trkpt lat="35.668789" lon="127.865891"/><trkpt lat="35.668915" lon="127.865768"/><trkpt lat="35.669283" lon="127.865549"/><trkpt lat="35.669515" lon="127.865374"/><trkpt lat="35.66988" lon="127.865061"/><trkpt lat="35.670199" lon="127.864697"/><trkpt lat="35.670509" lon="127.86421"/><trkpt lat="35.670771" lon="127.863686"/><trkpt lat="35.671121" lon="127.863326"/><trkpt lat="35.671482" lon="127.863217"/><trkpt lat="35.672038" lon="127.86306"/><trkpt lat="35.672487" lon="127.863179"/><trkpt lat="35.672962" lon="127.863447"/><trkpt lat="35.673456" lon="127.863544"/><trkpt lat="35.674211" lon="127.863495"/><trkpt lat="35.674676" lon="127.863499"/><trkpt lat="35.675018" lon="127.863899"/><trkpt lat="35.675438" lon="127.864318"/><trkpt lat="35.675927" lon="127.864403"/><trkpt lat="35.67638" lon="127.864269"/><trkpt lat="35.676411" lon="127.863915"/><trkpt lat="35.676322" lon="127.863478"/><trkpt lat="35.676858" lon="127.862943"/><trkpt lat="35.67724" lon="127.862814"/><trkpt lat="35.678084" lon="127.862679"/><trkpt lat="35.678627" lon="127.86243"/><trkpt lat="35.679012" lon="127.86253"/><trkpt lat="35.679649" lon="127.862794"/><trkpt lat="35.680419" lon="127.863006"/><trkpt lat="35.681113" lon="127.863265"/><trkpt lat="35.681514" lon="127.863646"/><trkpt lat="35.681707" lon="127.863969"/><trkpt lat="35.681865" lon="127.864296"/><trkpt lat="35.682241" lon="127.864655"/><trkpt lat="35.682312" lon="127.865211"/><trkpt lat="35.682172" lon="127.86561"/><trkpt lat="35.6821" lon="127.866001"/><trkpt lat="35.682366" lon="127.866289"/><trkpt lat="35.682742" lon="127.866466"/><trkpt lat="35.683096" lon="127.866794"/><trkpt lat="35.683396" lon="127.867278"/><trkpt lat="35.683416" lon="127.867935"/><trkpt lat="35.683485" lon="127.868407"/><trkpt lat="35.683329" lon="127.869023"/><trkpt lat="35.683443" lon="127.86975"/><trkpt lat="35.683599" lon="127.87039"/><trkpt lat="35.68383" lon="127.870858"/><trkpt lat="35.68406" lon="127.871504"/><trkpt lat="35.684088" lon="127.872205"/><trkpt lat="35.684274" lon="127.872583"/><trkpt lat="35.684672" lon="127.872766"/><trkpt lat="35.685059" lon="127.872675"/><trkpt lat="35.685304" lon="127.872825"/><trkpt lat="35.685549" lon="127.873012"/><trkpt lat="35.68587" lon="127.873129"/><trkpt lat="35.68616" lon="127.873281"/><trkpt lat="35.68653" lon="127.873434"/><trkpt lat="35.686665" lon="127.873498"/></trkseg>
<trkseg><trkpt lat="35.685565" lon="127.887582"/><trkpt lat="35.685271" lon="127.887084"/><trkpt lat="35.684946" lon="127.886871"/><trkpt lat="35.684308" lon="127.887311"/><trkpt lat="35.68413" lon="127.886871"/><trkpt lat="35.684137" lon="127.886593"/><trkpt lat="35.68409" lon="127.886354"/></trkseg>
<trkseg><trkpt lat="35.684796" lon="127.882254"/><trkpt lat="35.684832" lon="127.882429"/><trkpt lat="35.684939" lon="127.88257"/><trkpt lat="35.684857" lon="127.882697"/><trkpt lat="35.684832" lon="127.882895"/><trkpt lat="35.68487" lon="127.883059"/><trkpt lat="35.684903" lon="127.883263"/><trkpt lat="35.684882" lon="127.883445"/><trkpt lat="35.684938" lon="127.883585"/><trkpt lat="35.685069" lon="127.883632"/><trkpt lat="35.685077" lon="127.883837"/><trkpt lat="35.685148" lon="127.883923"/><trkpt lat="35.685181" lon="127.88401"/><trkpt lat="35.685226" lon="127.884076"/><trkpt lat="35.685273" lon="127.884151"/><trkpt lat="35.685337" lon="127.884326"/><trkpt lat="35.685441" lon="127.884496"/><trkpt lat="35.685468" lon="127.884638"/><trkpt lat="35.685581" lon="127.884684"/><trkpt lat="35.685654" lon="127.884817"/><trkpt lat="35.685692" lon="127.884943"/><trkpt lat="35.685804" lon="127.88506"/><trkpt lat="35.685861" lon="127.885108"/><trkpt lat="35.685982" lon="127.885293"/><trkpt lat="35.686008" lon="127.88541"/><trkpt lat="35.68601" lon="127.885634"/><trkpt lat="35.686029" lon="127.885806"/><trkpt lat="35.686044" lon="127.885872"/><trkpt lat="35.68602" lon="127.886101"/><trkpt lat="35.685936" lon="127.886202"/><trkpt lat="35.685868" lon="127.886302"/><trkpt lat="35.685836" lon="127.886486"/><trkpt lat="35.685807" lon="127.886635"/><trkpt lat="35.685927" lon="127.886832"/><trkpt lat="35.686054" lon="127.887007"/><trkpt lat="35.685814" lon="127.887221"/><trkpt lat="35.685643" lon="127.887416"/><trkpt lat="35.685565" lon="127.887582"/></trkseg>
<trkseg><trkpt lat="35.672543" lon="127.884597"/><trkpt lat="35.67237" lon="127.884585"/><trkpt lat="35.672253" lon="127.884782"/><trkpt lat="35.672071" lon="127.884989"/><trkpt lat="35.671941" lon="127.885219"/><trkpt lat="35.671904" lon="127.885325"/><trkpt lat="35.671952" lon="127.885639"/><trkpt lat="35.672012" lon="127.885855"/><trkpt lat="35.671984" lon="127.885984"/><trkpt lat="35.671987" lon="127.886186"/><trkpt lat="35.672008" lon="127.886424"/><trkpt lat="35.671967" lon="127.886694"/><trkpt lat="35.671927" lon="127.886782"/><trkpt lat="35.6719" lon="127.887009"/><trkpt lat="35.671886" lon="127.887153"/></trkseg>
<trkseg><trkpt lat="35.666655" lon="127.900202"/><trkpt lat="35.666538" lon="127.899968"/><trkpt lat="35.666502" lon="127.899636"/><trkpt lat="35.666326" lon="127.899352"/><trkpt lat="35.666169" lon="127.899063"/><trkpt lat="35.66618" lon="127.898695"/><trkpt lat="35.666241" lon="127.898366"/><trkpt lat="35.666305" lon="127.898042"/><trkpt lat="35.666198" lon="127.89771"/><trkpt lat="35.666065" lon="127.897425"/><trkpt lat="35.665964" lon="127.897097"/><trkpt lat="35.66578" lon="127.896843"/><trkpt lat="35.665765" lon="127.896577"/><trkpt lat="35.665812" lon="127.896241"/><trkpt lat="35.665824" lon="127.895818"/><trkpt lat="35.665917" lon="127.895531"/><trkpt lat="35.665977" lon="127.895275"/><trkpt lat="35.665884" lon="127.894976"/><trkpt lat="35.665796" lon="127.89457"/><trkpt lat="35.665955" lon="127.894319"/><trkpt lat="35.666087" lon="127.893966"/><trkpt lat="35.666217" lon="127.893739"/><trkpt lat="35.666366" lon="127.893688"/><trkpt lat="35.666544" lon="127.893613"/><trkpt lat="35.666659" lon="127.893463"/><trkpt lat="35.666837" lon="127.893489"/><trkpt lat="35.66704" lon="127.893455"/><trkpt lat="35.667228" lon="127.893268"/><trkpt lat="35.667489" lon="127.892999"/><trkpt lat="35.667643" lon="127.892725"/><trkpt lat="35.667712" lon="127.892468"/><trkpt lat="35.667846" lon="127.892459"/><trkpt lat="35.668092" lon="127.892449"/><trkpt lat="35.668231" lon="127.89257"/><trkpt lat="35.668496" lon="127.892584"/><trkpt lat="35.668668" lon="127.892406"/><trkpt lat="35.668848" lon="127.892305"/><trkpt lat="35.668943" lon="127.892186"/><trkpt lat="35.668981" lon="127.891963"/><trkpt lat="35.669193" lon="127.891634"/><trkpt lat="35.669415" lon="127.89134"/><trkpt lat="35.669657" lon="127.891207"/><trkpt lat="35.669849" lon="127.891082"/><trkpt lat="35.670013" lon="127.890931"/><trkpt lat="35.670199" lon="127.890809"/><trkpt lat="35.670614" lon="127.890538"/></trkseg>
<trkseg><trkpt lat="35.671179" lon="127.889962"/><trkpt lat="35.671044" lon="127.890014"/><trkpt lat="35.670925" lon="127.889902"/><trkpt lat="35.670756" lon="127.88999"/></trkseg>
<trkseg><trkpt lat="35.679412" lon="127.887451"/><trkpt lat="35.67926" lon="127.887552"/><trkpt lat="35.679456" lon="127.887856"/><trkpt lat="35.679607" lon="127.888117"/><trkpt lat="35.679686" lon="127.888346"/><trkpt lat="35.679746" lon="127.888594"/></trkseg>
<trkseg><trkpt lat="35.667303" lon="127.877726"/><trkpt lat="35.667238" lon="127.877635"/><trkpt lat="35.667178" lon="127.877512"/><trkpt lat="35.667054" lon="127.877505"/><trkpt lat="35.666942" lon="127.8774"/><trkpt lat="35.666794" lon="127.877355"/><trkpt lat="35.666622" lon="127.877181"/><trkpt lat="35.666537" lon="127.876947"/><trkpt lat="35.666333" lon="127.876794"/><trkpt lat="35.666034" lon="127.876733"/><trkpt lat="35.665801" lon="127.876704"/><trkpt lat="35.665627" lon="127.876583"/><trkpt lat="35.665444" lon="127.876486"/><trkpt lat="35.665161" lon="127.876385"/><trkpt lat="35.664862" lon="127.876344"/><trkpt lat="35.664646" lon="127.876297"/><trkpt lat="35.664477" lon="127.876243"/><trkpt lat="35.664197" lon="127.876148"/><trkpt lat="35.663939" lon="127.875875"/><trkpt lat="35.663652" lon="127.875564"/><trkpt lat="35.663443" lon="127.875423"/><trkpt lat="35.663232" lon="127.875361"/><trkpt lat="35.663092" lon="127.875373"/><trkpt lat="35.662811" lon="127.875452"/><trkpt lat="35.662429" lon="127.875484"/><trkpt lat="35.662206" lon="127.875538"/><trkpt lat="35.662065" lon="127.875428"/><trkpt lat="35.661818" lon="127.875268"/><trkpt lat="35.661499" lon="127.875111"/><trkpt lat="35.661241" lon="127.875041"/><trkpt lat="35.660895" lon="127.875142"/><trkpt lat="35.660556" lon="127.875285"/><trkpt lat="35.660119" lon="127.875355"/><trkpt lat="35.659911" lon="127.875325"/><trkpt lat="35.659728" lon="127.87549"/><trkpt lat="35.659501" lon="127.875718"/><trkpt lat="35.659122" lon="127.875899"/><trkpt lat="35.658811" lon="127.876128"/><trkpt lat="35.658505" lon="127.876412"/><trkpt lat="35.658241" lon="127.8767"/><trkpt lat="35.658068" lon="127.876965"/><trkpt lat="35.657897" lon="127.876943"/><trkpt lat="35.65761" lon="127.876817"/><trkpt lat="35.657402" lon="127.876621"/><trkpt lat="35.657143" lon="127.876394"/><trkpt lat="35.656969" lon="127.87616"/><trkpt lat="35.656806" lon="127.875861"/><trkpt lat="35.656584" lon="127.875502"/><trkpt lat="35.656424" lon="127.875357"/><trkpt lat="35.656176" lon="127.875364"/><trkpt lat="35.65584" lon="127.875342"/><trkpt lat="35.655558" lon="127.875281"/><trkpt lat="35.655161" lon="127.875213"/><trkpt lat="35.654707" lon="127.874936"/><trkpt lat="35.654446" lon="127.875091"/><trkpt lat="35.654198" lon="127.875211"/><trkpt lat="35.654003" lon="127.875216"/><trkpt lat="35.653665" lon="127.875172"/><trkpt lat="35.653273" lon="127.875124"/><trkpt lat="35.653205" lon="127.875093"/><trkpt lat="35.653047" lon="127.875012"/><trkpt lat="35.652831" lon="127.874965"/><trkpt lat="35.65245" lon="127.874857"/><trkpt lat="35.65224" lon="127.874659"/><trkpt lat="35.651935" lon="127.87432"/><trkpt lat="35.651729" lon="127.874122"/><trkpt lat="35.651735" lon="127.873919"/><trkpt lat="35.651272" lon="127.873936"/><trkpt lat="35.651021" lon="127.874189"/><trkpt lat="35.650667" lon="127.874144"/><trkpt lat="35.650207" lon="127.874153"/><trkpt lat="35.649879" lon="127.874402"/><trkpt lat="35.649509" lon="127.874521"/><trkpt lat="35.649261" lon="127.874552"/><trkpt lat="35.648886" lon="127.874396"/><trkpt lat="35.648676" lon="127.87453"/><trkpt lat="35.648428" lon="127.87478"/><trkpt lat="35.648357" lon="127.875185"/><trkpt lat="35.64819" lon="127.875609"/><trkpt lat="35.647937" lon="127.875667"/><trkpt lat="35.647653" lon="127.875609"/><trkpt lat="35.647349" lon="127.87545"/><trkpt lat="35.647032" lon="127.875273"/><trkpt lat="35.646677" lon="127.875149"/><trkpt lat="35.646282" lon="127.875268"/><trkpt lat="35.646053" lon="127.875409"/><trkpt lat="35.645849" lon="127.875424"/></trkseg>
<trkseg><trkpt lat="35.645849" lon="127.875424"/><trkpt lat="35.645747" lon="127.875415"/><trkpt lat="35.645693" lon="127.875544"/><trkpt lat="35.645533" lon="127.87583"/><trkpt lat="35.645348" lon="127.87611"/><trkpt lat="35.645166" lon="127.876311"/><trkpt lat="35.644923" lon="127.876312"/><trkpt lat="35.644506" lon="127.876195"/><trkpt lat="35.644157" lon="127.876235"/><trkpt lat="35.643954" lon="127.875857"/><trkpt lat="35.64369" lon="127.875484"/><trkpt lat="35.643465" lon="127.875156"/><trkpt lat="35.643104" lon="127.875025"/><trkpt lat="35.642788" lon="127.875095"/><trkpt lat="35.642489" lon="127.875369"/><trkpt lat="35.642324" lon="127.875702"/><trkpt lat="35.642134" lon="127.875794"/><trkpt lat="35.641905" lon="127.875936"/><trkpt lat="35.641599" lon="127.876019"/><trkpt lat="35.641459" lon="127.876044"/><trkpt lat="35.641234" lon="127.876234"/><trkpt lat="35.641126" lon="127.876488"/><trkpt lat="35.641093" lon="127.876682"/><trkpt lat="35.64113" lon="127.876936"/><trkpt lat="35.641066" lon="127.877166"/><trkpt lat="35.641024" lon="127.877364"/><trkpt lat="35.640989" lon="127.877548"/><trkpt lat="35.640862" lon="127.877657"/><trkpt lat="35.640681" lon="127.877616"/><trkpt lat="35.640464" lon="127.877423"/><trkpt lat="35.640209" lon="127.877316"/><trkpt lat="35.63993" lon="127.877317"/><trkpt lat="35.639671" lon="127.877381"/><trkpt lat="35.639425" lon="127.877228"/><trkpt lat="35.639206" lon="127.877236"/><trkpt lat="35.639116" lon="127.877273"/></trkseg>
<trkseg><trkpt lat="35.669391" lon="127.876951"/><trkpt lat="35.669143" lon="127.876938"/><trkpt lat="35.668988" lon="127.876906"/><trkpt lat="35.66875" lon="127.876881"/><trkpt lat="35.668522" lon="127.877037"/><trkpt lat="35.668428" lon="127.877117"/><trkpt lat="35.668318" lon="127.877235"/><trkpt lat="35.668188" lon="127.877462"/></trkseg>
<trkseg><trkpt lat="35.672236" lon="127.883682"/><trkpt lat="35.672083" lon="127.883317"/><trkpt lat="35.672019" lon="127.883034"/><trkpt lat="35.671939" lon="127.882772"/><trkpt lat="35.671841" lon="127.882582"/><trkpt lat="35.671797" lon="127.882518"/><trkpt lat="35.671652" lon="127.882306"/><trkpt lat="35.671447" lon="127.882191"/><trkpt lat="35.671306" lon="127.881958"/><trkpt lat="35.671194" lon="127.88163"/><trkpt lat="35.67103" lon="127.881267"/><trkpt lat="35.670836" lon="127.881046"/><trkpt lat="35.670718" lon="127.880886"/><trkpt lat="35.670532" lon="127.880595"/><trkpt lat="35.670632" lon="127.880453"/><trkpt lat="35.670516" lon="127.880048"/><trkpt lat="35.670406" lon="127.879782"/><trkpt lat="35.670274" lon="127.87954"/><trkpt lat="35.670087" lon="127.879346"/><trkpt lat="35.670001" lon="127.879174"/><trkpt lat="35.669926" lon="127.879012"/><trkpt lat="35.669843" lon="127.878844"/><trkpt lat="35.669721" lon="127.878663"/><trkpt lat="35.669613" lon="127.878505"/><trkpt lat="35.669433" lon="127.878299"/><trkpt lat="35.669332" lon="127.878079"/><trkpt lat="35.669373" lon="127.877715"/><trkpt lat="35.669415" lon="127.877399"/><trkpt lat="35.669434" lon="127.877181"/><trkpt lat="35.669416" lon="127.876995"/><trkpt lat="35.669391" lon="127.876951"/></trkseg>
<trkseg><trkpt lat="35.67224" lon="127.885963"/><trkpt lat="35.672236" lon="127.885659"/><trkpt lat="35.672364" lon="127.885332"/><trkpt lat="35.672646" lon="127.885238"/><trkpt lat="35.672682" lon="127.884909"/><trkpt lat="35.672543" lon="127.884597"/><trkpt lat="35.672543" lon="127.884597"/></trkseg>
<trkseg><trkpt lat="35.67157" lon="127.888727"/><trkpt lat="35.671711" lon="127.888573"/><trkpt lat="35.671922" lon="127.888172"/><trkpt lat="35.67209" lon="127.8878"/><trkpt lat="35.671984" lon="127.887502"/><trkpt lat="35.671886" lon="127.887153"/></trkseg>
<trkseg><trkpt lat="35.675651" lon="127.884783"/><trkpt lat="35.675692" lon="127.884507"/><trkpt lat="35.675657" lon="127.884219"/><trkpt lat="35.675624" lon="127.883898"/><trkpt lat="35.675597" lon="127.883672"/><trkpt lat="35.675599" lon="127.883373"/><trkpt lat="35.67552" lon="127.883068"/><trkpt lat="35.675422" lon="127.882849"/><trkpt lat="35.675449" lon="127.882563"/><trkpt lat="35.675438" lon="127.882448"/><trkpt lat="35.675482" lon="127.882163"/><trkpt lat="35.675405" lon="127.881951"/><trkpt lat="35.675367" lon="127.881777"/><trkpt lat="35.675369" lon="127.881446"/><trkpt lat="35.675358" lon="127.881216"/><trkpt lat="35.675262" lon="127.881185"/><trkpt lat="35.675148" lon="127.881191"/><trkpt lat="35.674993" lon="127.880939"/><trkpt lat="35.674905" lon="127.880764"/><trkpt lat="35.674796" lon="127.880554"/><trkpt lat="35.674741" lon="127.880372"/><trkpt lat="35.674609" lon="127.880269"/><trkpt lat="35.674474" lon="127.880135"/><trkpt lat="35.674366" lon="127.879958"/><trkpt lat="35.674271" lon="127.879627"/><trkpt lat="35.67424" lon="127.879383"/><trkpt lat="35.674024" lon="127.8792"/><trkpt lat="35.673745" lon="127.879011"/><trkpt lat="35.67354" lon="127.878924"/><trkpt lat="35.673507" lon="127.878754"/><trkpt lat="35.673374" lon="127.878555"/><trkpt lat="35.673292" lon="127.878368"/><trkpt lat="35.673146" lon="127.878207"/><trkpt lat="35.673276" lon="127.8779"/><trkpt lat="35.673281" lon="127.87784"/></trkseg>
<trkseg><trkpt lat="35.679412" lon="127.887451"/><trkpt lat="35.679328" lon="127.887306"/><trkpt lat="35.679306" lon="127.887258"/><trkpt lat="35.679244" lon="127.887149"/><trkpt lat="35.679139" lon="127.887033"/><trkpt lat="35.679016" lon="127.886955"/><trkpt lat="35.678883" lon="127.886884"/><trkpt lat="35.678689" lon="127.886768"/><trkpt lat="35.678431" lon="127.886621"/><trkpt lat="35.678246" lon="127.886407"/><trkpt lat="35.678045" lon="127.886286"/><trkpt lat="35.677826" lon="127.886001"/><trkpt lat="35.677557" lon="127.885958"/><trkpt lat="35.677228" lon="127.885881"/><trkpt lat="35.677071" lon="127.885778"/><trkpt lat="35.676927" lon="127.885637"/><trkpt lat="35.676742" lon="127.885533"/><trkpt lat="35.676554" lon="127.885424"/><trkpt lat="35.676425" lon="127.885417"/><trkpt lat="35.676228" lon="127.885296"/><trkpt lat="35.676004" lon="127.885246"/><trkpt lat="35.67583" lon="127.885074"/><trkpt lat="35.675758" lon="127.884919"/><trkpt lat="35.675689" lon="127.884798"/><trkpt lat="35.675651" lon="127.884783"/></trkseg>
<trkseg><trkpt lat="35.683056" lon="127.892679"/><trkpt lat="35.682984" lon="127.892402"/><trkpt lat="35.682943" lon="127.891968"/><trkpt lat="35.682916" lon="127.891098"/><trkpt lat="35.682972" lon="127.890791"/><trkpt lat="35.682836" lon="127.890462"/><trkpt lat="35.682428" lon="127.890015"/><trkpt lat="35.682376" lon="127.889847"/><trkpt lat="35.682246" lon="127.889908"/><trkpt lat="35.682056" lon="127.889869"/><trkpt lat="35.681868" lon="127.889693"/><trkpt lat="35.681581" lon="127.88955"/><trkpt lat="35.681338" lon="127.889642"/><trkpt lat="35.681203" lon="127.889604"/><trkpt lat="35.681038" lon="127.889461"/><trkpt lat="35.680866" lon="127.889334"/><trkpt lat="35.68082" lon="127.889148"/><trkpt lat="35.680604" lon="127.889009"/><trkpt lat="35.680406" lon="127.888765"/><trkpt lat="35.68032" lon="127.888549"/><trkpt lat="35.680133" lon="127.888347"/><trkpt lat="35.679947" lon="127.888127"/><trkpt lat="35.679724" lon="127.887951"/><trkpt lat="35.679556" lon="127.887725"/><trkpt lat="35.679369" lon="127.887547"/><trkpt lat="35.679412" lon="127.887451"/></trkseg>
<trkseg><trkpt lat="35.681445" lon="127.893613"/><trkpt lat="35.681613" lon="127.893817"/><trkpt lat="35.681872" lon="127.894061"/><trkpt lat="35.681972" lon="127.894255"/><trkpt lat="35.681893" lon="127.894562"/><trkpt lat="35.681695" lon="127.894661"/><trkpt lat="35.681524" lon="127.894718"/><trkpt lat="35.68129" lon="127.894839"/><trkpt lat="35.681315" lon="127.894913"/></trkseg>
<trkseg><trkpt lat="35.681315" lon="127.894913"/><trkpt lat="35.681407" lon="127.895304"/><trkpt lat="35.681448" lon="127.895633"/><trkpt lat="35.68145" lon="127.895934"/><trkpt lat="35.681513" lon="127.896371"/><trkpt lat="35.681628" lon="127.896893"/><trkpt lat="35.681634" lon="127.89696"/></trkseg>
<trkseg><trkpt lat="35.678732" lon="127.888123"/><trkpt lat="35.678795" lon="127.888301"/><trkpt lat="35.678799" lon="127.88842"/><trkpt lat="35.678816" lon="127.88854"/><trkpt lat="35.678862" lon="127.888707"/><trkpt lat="35.678837" lon="127.888836"/><trkpt lat="35.678899" lon="127.888999"/><trkpt lat="35.678915" lon="127.889318"/><trkpt lat="35.678826" lon="127.889496"/><trkpt lat="35.678851" lon="127.889728"/><trkpt lat="35.678904" lon="127.889999"/><trkpt lat="35.679002" lon="127.890175"/><trkpt lat="35.679079" lon="127.890334"/><trkpt lat="35.679132" lon="127.890616"/><trkpt lat="35.679156" lon="127.890798"/><trkpt lat="35.679042" lon="127.890897"/><trkpt lat="35.678955" lon="127.890701"/><trkpt lat="35.678877" lon="127.890951"/><trkpt lat="35.67892" lon="127.891221"/><trkpt lat="35.679056" lon="127.891451"/><trkpt lat="35.679169" lon="127.891652"/><trkpt lat="35.679183" lon="127.89185"/><trkpt lat="35.679316" lon="127.892209"/><trkpt lat="35.679461" lon="127.892417"/><trkpt lat="35.679623" lon="127.892698"/><trkpt lat="35.679753" lon="127.89287"/><trkpt lat="35.679875" lon="127.893081"/><trkpt lat="35.679905" lon="127.893304"/><trkpt lat="35.680085" lon="127.893509"/><trkpt lat="35.680261" lon="127.893591"/><trkpt lat="35.680355" lon="127.893737"/><trkpt lat="35.680503" lon="127.893819"/><trkpt lat="35.6807" lon="127.893905"/><trkpt lat="35.680687" lon="127.894036"/><trkpt lat="35.680617" lon="127.894218"/><trkpt lat="35.680594" lon="127.894479"/><trkpt lat="35.680739" lon="127.894547"/><trkpt lat="35.680879" lon="127.894645"/><trkpt lat="35.681046" lon="127.894772"/><trkpt lat="35.681224" lon="127.894851"/><trkpt lat="35.681315" lon="127.894913"/></trkseg>
<trkseg><trkpt lat="35.676281" lon="127.887562"/><trkpt lat="35.676514" lon="127.887444"/><trkpt lat="35.676703" lon="127.887526"/><trkpt lat="35.676904" lon="127.887581"/><trkpt lat="35.677121" lon="127.887633"/><trkpt lat="35.677393" lon="127.887645"/><trkpt lat="35.677554" lon="127.887676"/><trkpt lat="35.677754" lon="127.887647"/><trkpt lat="35.677955" lon="127.887654"/><trkpt lat="35.678182" lon="127.887699"/><trkpt lat="35.678409" lon="127.887794"/><trkpt lat="35.678525" lon="127.887892"/><trkpt lat="35.678666" lon="127.888009"/><trkpt lat="35.678732" lon="127.888123"/></trkseg>
<trkseg><trkpt lat="35.684801" lon="127.881872"/><trkpt lat="35.684722" lon="127.881879"/><trkpt lat="35.684431" lon="127.881792"/><trkpt lat="35.684119" lon="127.881816"/><trkpt lat="35.683841" lon="127.881697"/><trkpt lat="35.683723" lon="127.881505"/><trkpt lat="35.683419" lon="127.881329"/><trkpt lat="35.683165" lon="127.881393"/><trkpt lat="35.683011" lon="127.881439"/><trkpt lat="35.682644" lon="127.881635"/><trkpt lat="35.682448" lon="127.881782"/><trkpt lat="35.682237" lon="127.881924"/><trkpt lat="35.681921" lon="127.882113"/><trkpt lat="35.681564" lon="127.882107"/><trkpt lat="35.6812" lon="127.881991"/><trkpt lat="35.680836" lon="127.88209"/><trkpt lat="35.68057" lon="127.882288"/><trkpt lat="35.680179" lon="127.882378"/><trkpt lat="35.679881" lon="127.882373"/><trkpt lat="35.679523" lon="127.882384"/><trkpt lat="35.679269" lon="127.882349"/><trkpt lat="35.678971" lon="127.882193"/><trkpt lat="35.678809" lon="127.882093"/><trkpt lat="35.678553" lon="127.881875"/><trkpt lat="35.678313" lon="127.88152"/><trkpt lat="35.678068" lon="127.881359"/><trkpt lat="35.677702" lon="127.881196"/><trkpt lat="35.677455" lon="127.881133"/><trkpt lat="35.677244" lon="127.881138"/><trkpt lat="35.677089" lon="127.881011"/><trkpt lat="35.677036" lon="127.880985"/><trkpt lat="35.676915" lon="127.880727"/><trkpt lat="35.676787" lon="127.880587"/><trkpt lat="35.676535" lon="127.880277"/><trkpt lat="35.676324" lon="127.880058"/><trkpt lat="35.676235" lon="127.879686"/><trkpt lat="35.675939" lon="127.87924"/><trkpt lat="35.675695" lon="127.878894"/><trkpt lat="35.675619" lon="127.878667"/><trkpt lat="35.675599" lon="127.878523"/><trkpt lat="35.675571" lon="127.878422"/><trkpt lat="35.675439" lon="127.878435"/><trkpt lat="35.675137" lon="127.87834"/><trkpt lat="35.674867" lon="127.878268"/><trkpt lat="35.67485" lon="127.878257"/><trkpt lat="35.674697" lon="127.878128"/><trkpt lat="35.674504" lon="127.877998"/><trkpt lat="35.674231" lon="127.877986"/><trkpt lat="35.673935" lon="127.877943"/><trkpt lat="35.673686" lon="127.877863"/><trkpt lat="35.673473" lon="127.877831"/><trkpt lat="35.673281" lon="127.87784"/></trkseg>
<trkseg><trkpt lat="35.673281" lon="127.87784"/><trkpt lat="35.672923" lon="127.877941"/><trkpt lat="35.672666" lon="127.877997"/><trkpt lat="35.672535" lon="127.877947"/><trkpt lat="35.672393" lon="127.87783"/><trkpt lat="35.672116" lon="127.877909"/><trkpt lat="35.671939" lon="127.877916"/><trkpt lat="35.671699" lon="127.877904"/><trkpt lat="35.671446" lon="127.877858"/><trkpt lat="35.671216" lon="127.877702"/><trkpt lat="35.67058" lon="127.877375"/><trkpt lat="35.670146" lon="127.877364"/><trkpt lat="35.669912" lon="127.877114"/><trkpt lat="35.66971" lon="127.876894"/><trkpt lat="35.669551" lon="127.876892"/><trkpt lat="35.669415" lon="127.876929"/><trkpt lat="35.669391" lon="127.876951"/></trkseg>
<trkseg><trkpt lat="35.668319" lon="127.866523"/><trkpt lat="35.668302" lon="127.866438"/><trkpt lat="35.668315" lon="127.866382"/><trkpt lat="35.668303" lon="127.866265"/><trkpt lat="35.66821" lon="127.866125"/><trkpt lat="35.668057" lon="127.865941"/><trkpt lat="35.66782" lon="127.865697"/><trkpt lat="35.667643" lon="127.86565"/><trkpt lat="35.667406" lon="127.865714"/><trkpt lat="35.667249" lon="127.865739"/><trkpt lat="35.667037" lon="127.865612"/><trkpt lat="35.666985" lon="127.865488"/><trkpt lat="35.666874" lon="127.865283"/><trkpt lat="35.666518" lon="127.864805"/><trkpt lat="35.666214" lon="127.864437"/><trkpt lat="35.665929" lon="127.864365"/><trkpt lat="35.665751" lon="127.864265"/><trkpt lat="35.665587" lon="127.864273"/><trkpt lat="35.665397" lon="127.864206"/><trkpt lat="35.665222" lon="127.864055"/><trkpt lat="35.665112" lon="127.863895"/><trkpt lat="35.66493" lon="127.863704"/><trkpt lat="35.664893" lon="127.86358"/><trkpt lat="35.66477" lon="127.863593"/><trkpt lat="35.664482" lon="127.863491"/><trkpt lat="35.664213" lon="127.86339"/><trkpt lat="35.663978" lon="127.863371"/><trkpt lat="35.663849" lon="127.863393"/><trkpt lat="35.663729" lon="127.863203"/><trkpt lat="35.663535" lon="127.862993"/><trkpt lat="35.663383" lon="127.862772"/><trkpt lat="35.663271" lon="127.862571"/><trkpt lat="35.663058" lon="127.862402"/><trkpt lat="35.66283" lon="127.862423"/><trkpt lat="35.662686" lon="127.862573"/><trkpt lat="35.662566" lon="127.862631"/><trkpt lat="35.662391" lon="127.862593"/><trkpt lat="35.662259" lon="127.862533"/><trkpt lat="35.662143" lon="127.862541"/><trkpt lat="35.662022" lon="127.862393"/><trkpt lat="35.661855" lon="127.862238"/><trkpt lat="35.66166" lon="127.862163"/><trkpt lat="35.66146" lon="127.862236"/><trkpt lat="35.661288" lon="127.862351"/><trkpt lat="35.66111" lon="127.862495"/><trkpt lat="35.660896" lon="127.862587"/><trkpt lat="35.66071" lon="127.862479"/><trkpt lat="35.660412" lon="127.862282"/><trkpt lat="35.6602" lon="127.862101"/><trkpt lat="35.659995" lon="127.862054"/><trkpt lat="35.659749" lon="127.86204"/><trkpt lat="35.659542" lon="127.862047"/><trkpt lat="35.659354" lon="127.86186"/><trkpt lat="35.659191" lon="127.86168"/><trkpt lat="35.659238" lon="127.861441"/><trkpt lat="35.659292" lon="127.861195"/><trkpt lat="35.659318" lon="127.860904"/><trkpt lat="35.659322" lon="127.860726"/><trkpt lat="35.659254" lon="127.860485"/><trkpt lat="35.659254" lon="127.860177"/><trkpt lat="35.659295" lon="127.85993"/><trkpt lat="35.659271" lon="127.859633"/><trkpt lat="35.659099" lon="127.859209"/><trkpt lat="35.658996" lon="127.858866"/><trkpt lat="35.658896" lon="127.858567"/><trkpt lat="35.658776" lon="127.858481"/><trkpt lat="35.658723" lon="127.858474"/><trkpt lat="35.658586" lon="127.858426"/><trkpt lat="35.658442" lon="127.858353"/><trkpt lat="35.658415" lon="127.85828"/><trkpt lat="35.658383" lon="127.858236"/><trkpt lat="35.658347" lon="127.858169"/><trkpt lat="35.658163" lon="127.858012"/><trkpt lat="35.658077" lon="127.85797"/><trkpt lat="35.657982" lon="127.857828"/><trkpt lat="35.657868" lon="127.857844"/><trkpt lat="35.657762" lon="127.857764"/><trkpt lat="35.657879" lon="127.857594"/><trkpt lat="35.657904" lon="127.857385"/><trkpt lat="35.657793" lon="127.857296"/><trkpt lat="35.657733" lon="127.857233"/><trkpt lat="35.657853" lon="127.857148"/><trkpt lat="35.657999" lon="127.85708"/><trkpt lat="35.658091" lon="127.856888"/><trkpt lat="35.658268" lon="127.856719"/><trkpt lat="35.658414" lon="127.856589"/><trkpt lat="35.65829" lon="127.8565"/><trkpt lat="35.658175" lon="127.856353"/><trkpt lat="35.658066" lon="127.856267"/><trkpt lat="35.65799" lon="127.856088"/><trkpt lat="35.657891" lon="127.855968"/><trkpt lat="35.657786" lon="127.855777"/><trkpt lat="35.657744" lon="127.855656"/><trkpt lat="35.657702" lon="127.855554"/><trkpt lat="35.657756" lon="127.855316"/><trkpt lat="35.65779" lon="127.855161"/><trkpt lat="35.657694" lon="127.854998"/><trkpt lat="35.657697" lon="127.854838"/><trkpt lat="35.657707" lon="127.854775"/><trkpt lat="35.657755" lon="127.854596"/><trkpt lat="35.657746" lon="127.854353"/><trkpt lat="35.657649" lon="127.854175"/><trkpt lat="35.657651" lon="127.853947"/><trkpt lat="35.657655" lon="127.853856"/><trkpt lat="35.657631" lon="127.853671"/><trkpt lat="35.657651" lon="127.853546"/><trkpt lat="35.657661" lon="127.853339"/><trkpt lat="35.657662" lon="127.853161"/><trkpt lat="35.657611" lon="127.852989"/><trkpt lat="35.657626" lon="127.852775"/><trkpt lat="35.657738" lon="127.852576"/><trkpt lat="35.657904" lon="127.852426"/><trkpt lat="35.657944" lon="127.852296"/><trkpt lat="35.657987" lon="127.852157"/><trkpt lat="35.658015" lon="127.851971"/><trkpt lat="35.658161" lon="127.851901"/><trkpt lat="35.658453" lon="127.851318"/><trkpt lat="35.658466" lon="127.851025"/><trkpt lat="35.65853" lon="127.850822"/><trkpt lat="35.658411" lon="127.850669"/><trkpt lat="35.658352" lon="127.850561"/><trkpt lat="35.658481" lon="127.850552"/><trkpt lat="35.658582" lon="127.850524"/><trkpt lat="35.658637" lon="127.850553"/><trkpt lat="35.658855" lon="127.850492"/><trkpt lat="35.65901" lon="127.850366"/><trkpt lat="35.659145" lon="127.850264"/><trkpt lat="35.65925" lon="127.850146"/><trkpt lat="35.659407" lon="127.850058"/><trkpt lat="35.659572" lon="127.849818"/><trkpt lat="35.659732" lon="127.849649"/><trkpt lat="35.659837" lon="127.849476"/><trkpt lat="35.659794" lon="127.849384"/><trkpt lat="35.659698" lon="127.849211"/><trkpt lat="35.659551" lon="127.849103"/><trkpt lat="35.659431" lon="127.848952"/><trkpt lat="35.659377" lon="127.84887"/><trkpt lat="35.659364" lon="127.848763"/><trkpt lat="35.659314" lon="127.848694"/><trkpt lat="35.659178" lon="127.848584"/><trkpt lat="35.658819" lon="127.848451"/><trkpt lat="35.658564" lon="127.848453"/><trkpt lat="35.65834" lon="127.848499"/><trkpt lat="35.658017" lon="127.848534"/><trkpt lat="35.657689" lon="127.848546"/><trkpt lat="35.657364" lon="127.848444"/><trkpt lat="35.657169" lon="127.848368"/><trkpt lat="35.657074" lon="127.84811"/><trkpt lat="35.656906" lon="127.847879"/><trkpt lat="35.656737" lon="127.847728"/><trkpt lat="35.6566" lon="127.847599"/><trkpt lat="35.656401" lon="127.847442"/><trkpt lat="35.656152" lon="127.847332"/><trkpt lat="35.656034" lon="127.847089"/><trkpt lat="35.655919" lon="127.846954"/><trkpt lat="35.655989" lon="127.846792"/><trkpt lat="35.656156" lon="127.846534"/><trkpt lat="35.656257" lon="127.846417"/><trkpt lat="35.656371" lon="127.846332"/><trkpt lat="35.656553" lon="127.846167"/><trkpt lat="35.656685" lon="127.846061"/><trkpt lat="35.656846" lon="127.845885"/><trkpt lat="35.656896" lon="127.845644"/><trkpt lat="35.656988" lon="127.845496"/><trkpt lat="35.657067" lon="127.84543"/><trkpt lat="35.657142" lon="127.845363"/><trkpt lat="35.657237" lon="127.845296"/><trkpt lat="35.657331" lon="127.845188"/><trkpt lat="35.657505" lon="127.845069"/><trkpt lat="35.65764" lon="127.844973"/><trkpt lat="35.657796" lon="127.844827"/><trkpt lat="35.657939" lon="127.844651"/><trkpt lat="35.658024" lon="127.84453"/><trkpt lat="35.658071" lon="127.844438"/><trkpt lat="35.658232" lon="127.844202"/><trkpt lat="35.658393" lon="127.843987"/><trkpt lat="35.658513" lon="127.843801"/><trkpt lat="35.658593" lon="127.843542"/><trkpt lat="35.658614" lon="127.843271"/><trkpt lat="35.658526" lon="127.843014"/><trkpt lat="35.65847" lon="127.842797"/><trkpt lat="35.658438" lon="127.842554"/><trkpt lat="35.658518" lon="127.842304"/><trkpt lat="35.658675" lon="127.842032"/><trkpt lat="35.65883" lon="127.841828"/><trkpt lat="35.658978" lon="127.841631"/><trkpt lat="35.659042" lon="127.841581"/><trkpt lat="35.659286" lon="127.841539"/><trkpt lat="35.659463" lon="127.841461"/><trkpt lat="35.659664" lon="127.841334"/><trkpt lat="35.659803" lon="127.841081"/><trkpt lat="35.659937" lon="127.840785"/><trkpt lat="35.660028" lon="127.840664"/><trkpt lat="35.660048" lon="127.84047"/><trkpt lat="35.660028" lon="127.840175"/><trkpt lat="35.660103" lon="127.839951"/><trkpt lat="35.660306" lon="127.839792"/><trkpt lat="35.660316" lon="127.839538"/><trkpt lat="35.660397" lon="127.839319"/><trkpt lat="35.660424" lon="127.839287"/><trkpt lat="35.660434" lon="127.83919"/><trkpt lat="35.660418" lon="127.839104"/><trkpt lat="35.660481" lon="127.83899"/><trkpt lat="35.660537" lon="127.838844"/><trkpt lat="35.660613" lon="127.838709"/><trkpt lat="35.66062" lon="127.83852"/><trkpt lat="35.660753" lon="127.838356"/><trkpt lat="35.660874" lon="127.838176"/><trkpt lat="35.660953" lon="127.837923"/><trkpt lat="35.660895" lon="127.83773"/><trkpt lat="35.660791" lon="127.837553"/><trkpt lat="35.660692" lon="127.837404"/><trkpt lat="35.660757" lon="127.837174"/><trkpt lat="35.660868" lon="127.837017"/><trkpt lat="35.66097" lon="127.83691"/><trkpt lat="35.660928" lon="127.83676"/><trkpt lat="35.660779" lon="127.836497"/><trkpt lat="35.660651" lon="127.836203"/><trkpt lat="35.660514" lon="127.835921"/><trkpt lat="35.660365" lon="127.835775"/><trkpt lat="35.660235" lon="127.835624"/><trkpt lat="35.660129" lon="127.835519"/><trkpt lat="35.659968" lon="127.835412"/><trkpt lat="35.659892" lon="127.835352"/><trkpt lat="35.659792" lon="127.835278"/><trkpt lat="35.659732" lon="127.835164"/><trkpt lat="35.659567" lon="127.834987"/><trkpt lat="35.65945" lon="127.834809"/><trkpt lat="35.659352" lon="127.834711"/><trkpt lat="35.659348" lon="127.83454"/><trkpt lat="35.659426" lon="127.834329"/><trkpt lat="35.659485" lon="127.834205"/><trkpt lat="35.659548" lon="127.83403"/><trkpt lat="35.659688" lon="127.833785"/><trkpt lat="35.65981" lon="127.833675"/><trkpt lat="35.659971" lon="127.83349"/><trkpt lat="35.66006" lon="127.833383"/><trkpt lat="35.660186" lon="127.833205"/><trkpt lat="35.660284" lon="127.833189"/><trkpt lat="35.660453" lon="127.833253"/><trkpt lat="35.660756" lon="127.833213"/><trkpt lat="35.660902" lon="127.833034"/><trkpt lat="35.661177" lon="127.83292"/><trkpt lat="35.661356" lon="127.833044"/><trkpt lat="35.661487" lon="127.833222"/><trkpt lat="35.661724" lon="127.833395"/><trkpt lat="35.661987" lon="127.83361"/><trkpt lat="35.662038" lon="127.833645"/><trkpt lat="35.662245" lon="127.833602"/><trkpt lat="35.662443" lon="127.833579"/><trkpt lat="35.662634" lon="127.833547"/><trkpt lat="35.662956" lon="127.833534"/><trkpt lat="35.663279" lon="127.8336"/><trkpt lat="35.663636" lon="127.833762"/><trkpt lat="35.663801" lon="127.833751"/><trkpt lat="35.664023" lon="127.833572"/><trkpt lat="35.664264" lon="127.83337"/><trkpt lat="35.664422" lon="127.833266"/><trkpt lat="35.664545" lon="127.833244"/><trkpt lat="35.664691" lon="127.833366"/><trkpt lat="35.664922" lon="127.833434"/><trkpt lat="35.665144" lon="127.833473"/><trkpt lat="35.665268" lon="127.833596"/><trkpt lat="35.665433" lon="127.833721"/><trkpt lat="35.665645" lon="127.833826"/><trkpt lat="35.665886" lon="127.833789"/><trkpt lat="35.666033" lon="127.833789"/><trkpt lat="35.666305" lon="127.833861"/><trkpt lat="35.666482" lon="127.833784"/><trkpt lat="35.666763" lon="127.833855"/><trkpt lat="35.667089" lon="127.833875"/><trkpt lat="35.667246" lon="127.833882"/><trkpt lat="35.667469" lon="127.833934"/><trkpt lat="35.66757" lon="127.834115"/><trkpt lat="35.667634" lon="127.834169"/><trkpt lat="35.667723" lon="127.834106"/><trkpt lat="35.667854" lon="127.833996"/><trkpt lat="35.668063" lon="127.833958"/><trkpt lat="35.668219" lon="127.833838"/><trkpt lat="35.668311" lon="127.833794"/><trkpt lat="35.66841" lon="127.833744"/><trkpt lat="35.668562" lon="127.833607"/><trkpt lat="35.668626" lon="127.833524"/><trkpt lat="35.668714" lon="127.833479"/><trkpt lat="35.668815" lon="127.833255"/><trkpt lat="35.668903" lon="127.833098"/><trkpt lat="35.669083" lon="127.833052"/><trkpt lat="35.669232" lon="127.83314"/><trkpt lat="35.669419" lon="127.833217"/><trkpt lat="35.66962" lon="127.833299"/><trkpt lat="35.669813" lon="127.833315"/><trkpt lat="35.669836" lon="127.833301"/><trkpt lat="35.669896" lon="127.833214"/><trkpt lat="35.669936" lon="127.833086"/><trkpt lat="35.669844" lon="127.832932"/><trkpt lat="35.669795" lon="127.832775"/><trkpt lat="35.669911" lon="127.83262"/><trkpt lat="35.669941" lon="127.832531"/><trkpt lat="35.669896" lon="127.832322"/><trkpt lat="35.669953" lon="127.832035"/><trkpt lat="35.670048" lon="127.831805"/><trkpt lat="35.670089" lon="127.831588"/><trkpt lat="35.670178" lon="127.831322"/><trkpt lat="35.67022" lon="127.831155"/><trkpt lat="35.670128" lon="127.831105"/><trkpt lat="35.670006" lon="127.831036"/><trkpt lat="35.669935" lon="127.830909"/><trkpt lat="35.669897" lon="127.830795"/><trkpt lat="35.669913" lon="127.830529"/><trkpt lat="35.669839" lon="127.830124"/><trkpt lat="35.66977" lon="127.82984"/><trkpt lat="35.669646" lon="127.829664"/><trkpt lat="35.66961" lon="127.829436"/><trkpt lat="35.669666" lon="127.829221"/><trkpt lat="35.669776" lon="127.82897"/><trkpt lat="35.66985" lon="127.828781"/><trkpt lat="35.669713" lon="127.828617"/><trkpt lat="35.66957" lon="127.828435"/><trkpt lat="35.669509" lon="127.828252"/><trkpt lat="35.66954" lon="127.828059"/><trkpt lat="35.669553" lon="127.827936"/></trkseg>
<trkseg><trkpt lat="35.639116" lon="127.877273"/><trkpt lat="35.638878" lon="127.87733"/><trkpt lat="35.638689" lon="127.877287"/><trkpt lat="35.638515" lon="127.877114"/><trkpt lat="35.638358" lon="127.877286"/><trkpt lat="35.638352" lon="127.877672"/><trkpt lat="35.638358" lon="127.877877"/><trkpt lat="35.638337" lon="127.878099"/><trkpt lat="35.638257" lon="127.878501"/><trkpt lat="35.638317" lon="127.878829"/><trkpt lat="35.638392" lon="127.879339"/><trkpt lat="35.638431" lon="127.879814"/><trkpt lat="35.638248" lon="127.880168"/><trkpt lat="35.63797" lon="127.880524"/><trkpt lat="35.637929" lon="127.880978"/><trkpt lat="35.638077" lon="127.881249"/><trkpt lat="35.638244" lon="127.881523"/><trkpt lat="35.638257" lon="127.881656"/><trkpt lat="35.638243" lon="127.881724"/><trkpt lat="35.638284" lon="127.881954"/><trkpt lat="35.638239" lon="127.882089"/><trkpt lat="35.638267" lon="127.882199"/><trkpt lat="35.638188" lon="127.882304"/><trkpt lat="35.638113" lon="127.882377"/><trkpt lat="35.638049" lon="127.882443"/><trkpt lat="35.637963" lon="127.882499"/><trkpt lat="35.637931" lon="127.882644"/><trkpt lat="35.637893" lon="127.882773"/><trkpt lat="35.637866" lon="127.882877"/><trkpt lat="35.637799" lon="127.883118"/><trkpt lat="35.637575" lon="127.883316"/><trkpt lat="35.637424" lon="127.883363"/><trkpt lat="35.637283" lon="127.883533"/><trkpt lat="35.637231" lon="127.883664"/><trkpt lat="35.637086" lon="127.883704"/><trkpt lat="35.636895" lon="127.883773"/><trkpt lat="35.636664" lon="127.883877"/><trkpt lat="35.636413" lon="127.88403"/><trkpt lat="35.636261" lon="127.884107"/><trkpt lat="35.636041" lon="127.884251"/><trkpt lat="35.63598" lon="127.884401"/><trkpt lat="35.635805" lon="127.884687"/><trkpt lat="35.635626" lon="127.884993"/><trkpt lat="35.635395" lon="127.884987"/><trkpt lat="35.635214" lon="127.884912"/><trkpt lat="35.63502" lon="127.884727"/><trkpt lat="35.634813" lon="127.884559"/><trkpt lat="35.634667" lon="127.884412"/><trkpt lat="35.634325" lon="127.884313"/><trkpt lat="35.634166" lon="127.884271"/><trkpt lat="35.633906" lon="127.884214"/><trkpt lat="35.633728" lon="127.884037"/><trkpt lat="35.633471" lon="127.883835"/><trkpt lat="35.633269" lon="127.883539"/><trkpt lat="35.633021" lon="127.883264"/><trkpt lat="35.632722" lon="127.883213"/><trkpt lat="35.632403" lon="127.883157"/><trkpt lat="35.631955" lon="127.883158"/><trkpt lat="35.631574" lon="127.883129"/><trkpt lat="35.631348" lon="127.883233"/><trkpt lat="35.631081" lon="127.883133"/><trkpt lat="35.630767" lon="127.8832"/><trkpt lat="35.6306" lon="127.882935"/><trkpt lat="35.630331" lon="127.88275"/><trkpt lat="35.630051" lon="127.882759"/><trkpt lat="35.629728" lon="127.882601"/><trkpt lat="35.629287" lon="127.882511"/><trkpt lat="35.628874" lon="127.882516"/><trkpt lat="35.628516" lon="127.882712"/><trkpt lat="35.628073" lon="127.88276"/><trkpt lat="35.627697" lon="127.882934"/><trkpt lat="35.62736" lon="127.883158"/><trkpt lat="35.627175" lon="127.88341"/><trkpt lat="35.626802" lon="127.883479"/><trkpt lat="35.626211" lon="127.883197"/><trkpt lat="35.625977" lon="127.88302"/><trkpt lat="35.625408" lon="127.88353"/><trkpt lat="35.625042" lon="127.88371"/><trkpt lat="35.624865" lon="127.883893"/><trkpt lat="35.624594" lon="127.884015"/><trkpt lat="35.624319" lon="127.884128"/><trkpt lat="35.624081" lon="127.884089"/><trkpt lat="35.624073" lon="127.883687"/><trkpt lat="35.623956" lon="127.883531"/><trkpt lat="35.623782" lon="127.88365"/><trkpt lat="35.623481" lon="127.8837"/><trkpt lat="35.623259" lon="127.883769"/><trkpt lat="35.623213" lon="127.883525"/><trkpt lat="35.623246" lon="127.883113"/><trkpt lat="35.623452" lon="127.882887"/><trkpt lat="35.623354" lon="127.882576"/><trkpt lat="35.623215" lon="127.882333"/><trkpt lat="35.62301" lon="127.882348"/><trkpt lat="35.622652" lon="127.882478"/><trkpt lat="35.622375" lon="127.88243"/><trkpt lat="35.622076" lon="127.88213"/><trkpt lat="35.621719" lon="127.882274"/><trkpt lat="35.621549" lon="127.882843"/><trkpt lat="35.621554" lon="127.88327"/><trkpt lat="35.621354" lon="127.883745"/><trkpt lat="35.62088" lon="127.884413"/><trkpt lat="35.6206" lon="127.884774"/><trkpt lat="35.620292" lon="127.884757"/><trkpt lat="35.620029" lon="127.884823"/><trkpt lat="35.619824" lon="127.88511"/><trkpt lat="35.619496" lon="127.885405"/><trkpt lat="35.61925" lon="127.885699"/><trkpt lat="35.619333" lon="127.886069"/><trkpt lat="35.619431" lon="127.886185"/></trkseg>
<trkseg><trkpt lat="35.668188" lon="127.877462"/><trkpt lat="35.668033" lon="127.877368"/><trkpt lat="35.667841" lon="127.877204"/><trkpt lat="35.667571" lon="127.877361"/><trkpt lat="35.667303" lon="127.877233"/><trkpt lat="35.667025" lon="127.876996"/><trkpt lat="35.667142" lon="127.876703"/><trkpt lat="35.667415" lon="127.876493"/><trkpt lat="35.667456" lon="127.876226"/><trkpt lat="35.667312" lon="127.875965"/><trkpt lat="35.667707" lon="127.875836"/><trkpt lat="35.667699" lon="127.875404"/><trkpt lat="35.667767" lon="127.87496"/><trkpt lat="35.667659" lon="127.874572"/><trkpt lat="35.66759" lon="127.87407"/><trkpt lat="35.667531" lon="127.873767"/><trkpt lat="35.667219" lon="127.873684"/><trkpt lat="35.666953" lon="127.873584"/><trkpt lat="35.666953" lon="127.873223"/><trkpt lat="35.666946" lon="127.87281"/><trkpt lat="35.666892" lon="127.872422"/><trkpt lat="35.666651" lon="127.872075"/><trkpt lat="35.666631" lon="127.871813"/><trkpt lat="35.666544" lon="127.871511"/><trkpt lat="35.666726" lon="127.871128"/><trkpt lat="35.667091" lon="127.870962"/><trkpt lat="35.667036" lon="127.870378"/><trkpt lat="35.666865" lon="127.870009"/><trkpt lat="35.666801" lon="127.869713"/><trkpt lat="35.666947" lon="127.869313"/><trkpt lat="35.667001" lon="127.868753"/><trkpt lat="35.66693" lon="127.868457"/><trkpt lat="35.666945" lon="127.868078"/><trkpt lat="35.66717" lon="127.867746"/><trkpt lat="35.667632" lon="127.867452"/><trkpt lat="35.667839" lon="127.86719"/><trkpt lat="35.667995" lon="127.866955"/><trkpt lat="35.668151" lon="127.866753"/><trkpt lat="35.668319" lon="127.866523"/></trkseg>
<trkseg><trkpt lat="35.672543" lon="127.884597"/><trkpt lat="35.672431" lon="127.88423"/><trkpt lat="35.672236" lon="127.883682"/></trkseg>
<trkseg><trkpt lat="35.670756" lon="127.88999"/><trkpt lat="35.670764" lon="127.890246"/><trkpt lat="35.670614" lon="127.890538"/></trkseg>
<trkseg><trkpt lat="35.671179" lon="127.889962"/><trkpt lat="35.67118" lon="127.890238"/><trkpt lat="35.671073" lon="127.890659"/><trkpt lat="35.671099" lon="127.890894"/><trkpt lat="35.671193" lon="127.891183"/><trkpt lat="35.671294" lon="127.891419"/><trkpt lat="35.671359" lon="127.891615"/><trkpt lat="35.671461" lon="127.892032"/><trkpt lat="35.671407" lon="127.892274"/><trkpt lat="35.671366" lon="127.8928"/><trkpt lat="35.671352" lon="127.893189"/><trkpt lat="35.671285" lon="127.893401"/><trkpt lat="35.67121" lon="127.89362"/><trkpt lat="35.671219" lon="127.893889"/><trkpt lat="35.671216" lon="127.89406"/><trkpt lat="35.671233" lon="127.894341"/><trkpt lat="35.671323" lon="127.894488"/><trkpt lat="35.671371" lon="127.894555"/><trkpt lat="35.671474" lon="127.89464"/><trkpt lat="35.671508" lon="127.894994"/><trkpt lat="35.671492" lon="127.895166"/><trkpt lat="35.671673" lon="127.89536"/><trkpt lat="35.671961" lon="127.895616"/><trkpt lat="35.672237" lon="127.895861"/><trkpt lat="35.672534" lon="127.896115"/><trkpt lat="35.67277" lon="127.896442"/><trkpt lat="35.673006" lon="127.896552"/><trkpt lat="35.673356" lon="127.896617"/><trkpt lat="35.673557" lon="127.89681"/><trkpt lat="35.673757" lon="127.896995"/><trkpt lat="35.674039" lon="127.897232"/><trkpt lat="35.674349" lon="127.897553"/><trkpt lat="35.674569" lon="127.897847"/><trkpt lat="35.674802" lon="127.898147"/><trkpt lat="35.675062" lon="127.898458"/><trkpt lat="35.675258" lon="127.898634"/><trkpt lat="35.675467" lon="127.898672"/><trkpt lat="35.675686" lon="127.898852"/><trkpt lat="35.675987" lon="127.899036"/><trkpt lat="35.676181" lon="127.899339"/><trkpt lat="35.676363" lon="127.899469"/><trkpt lat="35.676455" lon="127.899323"/></trkseg>
<trkseg><trkpt lat="35.67157" lon="127.888727"/><trkpt lat="35.671478" lon="127.888986"/><trkpt lat="35.671417" lon="127.889044"/><trkpt lat="35.67135" lon="127.889229"/><trkpt lat="35.6713" lon="127.889417"/><trkpt lat="35.671228" lon="127.889662"/><trkpt lat="35.671169" lon="127.88982"/><trkpt lat="35.671167" lon="127.889918"/><trkpt lat="35.671179" lon="127.889962"/></trkseg>
<trkseg><trkpt lat="35.671886" lon="127.887153"/><trkpt lat="35.671827" lon="127.887272"/><trkpt lat="35.671803" lon="127.887519"/><trkpt lat="35.671748" lon="127.887792"/><trkpt lat="35.671711" lon="127.888119"/><trkpt lat="35.671648" lon="127.888421"/><trkpt lat="35.67157" lon="127.888727"/><trkpt lat="35.67157" lon="127.888727"/></trkseg>
<trkseg><trkpt lat="35.671886" lon="127.887153"/><trkpt lat="35.672066" lon="127.88679"/><trkpt lat="35.672141" lon="127.886473"/><trkpt lat="35.672209" lon="127.886389"/><trkpt lat="35.672192" lon="127.886218"/><trkpt lat="35.67222" lon="127.886044"/><trkpt lat="35.67224" lon="127.885963"/></trkseg>
<trkseg><trkpt lat="35.670756" lon="127.88999"/><trkpt lat="35.67074" lon="127.889699"/><trkpt lat="35.670798" lon="127.889219"/><trkpt lat="35.67094" lon="127.888761"/><trkpt lat="35.671017" lon="127.888238"/><trkpt lat="35.671025" lon="127.887573"/><trkpt lat="35.671104" lon="127.887127"/><trkpt lat="35.671123" lon="127.886817"/><trkpt lat="35.671066" lon="127.886653"/><trkpt lat="35.670809" lon="127.886412"/><trkpt lat="35.670694" lon="127.886158"/><trkpt lat="35.67071" lon="127.885871"/><trkpt lat="35.670749" lon="127.88553"/><trkpt lat="35.670699" lon="127.885189"/><trkpt lat="35.670787" lon="127.884898"/><trkpt lat="35.671128" lon="127.884717"/><trkpt lat="35.671401" lon="127.884527"/><trkpt lat="35.671542" lon="127.884145"/><trkpt lat="35.671697" lon="127.883917"/><trkpt lat="35.671892" lon="127.88392"/><trkpt lat="35.672067" lon="127.883906"/><trkpt lat="35.6722" lon="127.883775"/><trkpt lat="35.672236" lon="127.883682"/></trkseg>
<trkseg><trkpt lat="35.670614" lon="127.890538"/><trkpt lat="35.670472" lon="127.890746"/><trkpt lat="35.67041" lon="127.891022"/><trkpt lat="35.670394" lon="127.891346"/><trkpt lat="35.670237" lon="127.891711"/><trkpt lat="35.67013" lon="127.892073"/><trkpt lat="35.670047" lon="127.892472"/><trkpt lat="35.669913" lon="127.892821"/><trkpt lat="35.669827" lon="127.893178"/><trkpt lat="35.669717" lon="127.8936"/><trkpt lat="35.669654" lon="127.893975"/><trkpt lat="35.669688" lon="127.894303"/><trkpt lat="35.669776" lon="127.894608"/><trkpt lat="35.669887" lon="127.894927"/><trkpt lat="35.669994" lon="127.895202"/><trkpt lat="35.67015" lon="127.895526"/><trkpt lat="35.670307" lon="127.895843"/><trkpt lat="35.670468" lon="127.896168"/><trkpt lat="35.670597" lon="127.896577"/><trkpt lat="35.670783" lon="127.896858"/><trkpt lat="35.671019" lon="127.897122"/><trkpt lat="35.671174" lon="127.897387"/><trkpt lat="35.671327" lon="127.897719"/><trkpt lat="35.671494" lon="127.898077"/><trkpt lat="35.671596" lon="127.89843"/><trkpt lat="35.671623" lon="127.898799"/><trkpt lat="35.671564" lon="127.899121"/><trkpt lat="35.671597" lon="127.899453"/><trkpt lat="35.671635" lon="127.900018"/><trkpt lat="35.671611" lon="127.90047"/><trkpt lat="35.671603" lon="127.900855"/><trkpt lat="35.671519" lon="127.901059"/><trkpt lat="35.671467" lon="127.901254"/><trkpt lat="35.671583" lon="127.901525"/><trkpt lat="35.671546" lon="127.901782"/><trkpt lat="35.671314" lon="127.90184"/><trkpt lat="35.671249" lon="127.902014"/><trkpt lat="35.671219" lon="127.902337"/><trkpt lat="35.671072" lon="127.902478"/><trkpt lat="35.670939" lon="127.90285"/><trkpt lat="35.670735" lon="127.902876"/><trkpt lat="35.670521" lon="127.903185"/><trkpt lat="35.67043" lon="127.903347"/></trkseg>
<trkseg><trkpt lat="35.676455" lon="127.899323"/><trkpt lat="35.675954" lon="127.898642"/><trkpt lat="35.675479" lon="127.897949"/><trkpt lat="35.675318" lon="127.897898"/><trkpt lat="35.675154" lon="127.897677"/><trkpt lat="35.675077" lon="127.89742"/><trkpt lat="35.674951" lon="127.897109"/><trkpt lat="35.674727" lon="127.896852"/><trkpt lat="35.67464" lon="127.896585"/><trkpt lat="35.674515" lon="127.896293"/><trkpt lat="35.674408" lon="127.896013"/><trkpt lat="35.674229" lon="127.895614"/><trkpt lat="35.673966" lon="127.895148"/><trkpt lat="35.673796" lon="127.894926"/><trkpt lat="35.673626" lon="127.894685"/><trkpt lat="35.673505" lon="127.894343"/><trkpt lat="35.673418" lon="127.893997"/><trkpt lat="35.6734" lon="127.893513"/><trkpt lat="35.673442" lon="127.893304"/><trkpt lat="35.673495" lon="127.893042"/><trkpt lat="35.673434" lon="127.892736"/><trkpt lat="35.673488" lon="127.892464"/><trkpt lat="35.673356" lon="127.892295"/><trkpt lat="35.673257" lon="127.892073"/><trkpt lat="35.673071" lon="127.891896"/><trkpt lat="35.672866" lon="127.891744"/><trkpt lat="35.672756" lon="127.891564"/><trkpt lat="35.672828" lon="127.891358"/><trkpt lat="35.672901" lon="127.891091"/><trkpt lat="35.672934" lon="127.890818"/><trkpt lat="35.672876" lon="127.890517"/><trkpt lat="35.672784" lon="127.890325"/><trkpt lat="35.672664" lon="127.890152"/><trkpt lat="35.672512" lon="127.89005"/><trkpt lat="35.672417" lon="127.889882"/><trkpt lat="35.672205" lon="127.88955"/><trkpt lat="35.672235" lon="127.889404"/><trkpt lat="35.672399" lon="127.889361"/><trkpt lat="35.672418" lon="127.889214"/><trkpt lat="35.672114" lon="127.889202"/><trkpt lat="35.671981" lon="127.88914"/><trkpt lat="35.67188" lon="127.888986"/><trkpt lat="35.671747" lon="127.888915"/><trkpt lat="35.671631" lon="127.888826"/><trkpt lat="35.67157" lon="127.888727"/></trkseg>
<trkseg><trkpt lat="35.676281" lon="127.887562"/><trkpt lat="35.676328" lon="127.887663"/><trkpt lat="35.676337" lon="127.887821"/><trkpt lat="35.676345" lon="127.887928"/><trkpt lat="35.676364" lon="127.888047"/><trkpt lat="35.676391" lon="127.888287"/><trkpt lat="35.676362" lon="127.888438"/><trkpt lat="35.676344" lon="127.888619"/><trkpt lat="35.676364" lon="127.888744"/><trkpt lat="35.676381" lon="127.888839"/><trkpt lat="35.676341" lon="127.888967"/><trkpt lat="35.676355" lon="127.889083"/><trkpt lat="35.676388" lon="127.889267"/><trkpt lat="35.676267" lon="127.88962"/><trkpt lat="35.676312" lon="127.889732"/><trkpt lat="35.676341" lon="127.889801"/><trkpt lat="35.676368" lon="127.889909"/><trkpt lat="35.676418" lon="127.890045"/><trkpt lat="35.676427" lon="127.890237"/><trkpt lat="35.676377" lon="127.890341"/><trkpt lat="35.676337" lon="127.890569"/><trkpt lat="35.676271" lon="127.890797"/><trkpt lat="35.676233" lon="127.890995"/><trkpt lat="35.676149" lon="127.891108"/><trkpt lat="35.676022" lon="127.891095"/><trkpt lat="35.675707" lon="127.891016"/><trkpt lat="35.675478" lon="127.891053"/><trkpt lat="35.675554" lon="127.891248"/><trkpt lat="35.675908" lon="127.891463"/><trkpt lat="35.675903" lon="127.892196"/><trkpt lat="35.675684" lon="127.892836"/><trkpt lat="35.675784" lon="127.893564"/><trkpt lat="35.675945" lon="127.894003"/><trkpt lat="35.676038" lon="127.894503"/><trkpt lat="35.676258" lon="127.894901"/><trkpt lat="35.676763" lon="127.895431"/><trkpt lat="35.677186" lon="127.89585"/><trkpt lat="35.677464" lon="127.896417"/><trkpt lat="35.677714" lon="127.896692"/><trkpt lat="35.677952" lon="127.896801"/><trkpt lat="35.678297" lon="127.897031"/><trkpt lat="35.67866" lon="127.897492"/><trkpt lat="35.679126" lon="127.898088"/><trkpt lat="35.679808" lon="127.898521"/><trkpt lat="35.679885" lon="127.89848"/></trkseg>
<trkseg><trkpt lat="35.679746" lon="127.888594"/><trkpt lat="35.679729" lon="127.888886"/><trkpt lat="35.679723" lon="127.889067"/><trkpt lat="35.679777" lon="127.889484"/><trkpt lat="35.679793" lon="127.889662"/><trkpt lat="35.679831" lon="127.88984"/><trkpt lat="35.679832" lon="127.890058"/><trkpt lat="35.679858" lon="127.890354"/><trkpt lat="35.679745" lon="127.890684"/><trkpt lat="35.679823" lon="127.890896"/><trkpt lat="35.679894" lon="127.89111"/><trkpt lat="35.679926" lon="127.891386"/><trkpt lat="35.680059" lon="127.89164"/><trkpt lat="35.680196" lon="127.891841"/><trkpt lat="35.68032" lon="127.891975"/><trkpt lat="35.68053" lon="127.892027"/><trkpt lat="35.680733" lon="127.892092"/><trkpt lat="35.680912" lon="127.892238"/><trkpt lat="35.681006" lon="127.892468"/><trkpt lat="35.680997" lon="127.892729"/><trkpt lat="35.681078" lon="127.892945"/><trkpt lat="35.681258" lon="127.89322"/><trkpt lat="35.681324" lon="127.893503"/><trkpt lat="35.681445" lon="127.893613"/></trkseg>
<trkseg><trkpt lat="35.68409" lon="127.886354"/><trkpt lat="35.684161" lon="127.886231"/><trkpt lat="35.684314" lon="127.886155"/><trkpt lat="35.684349" lon="127.88609"/><trkpt lat="35.684313" lon="127.886"/><trkpt lat="35.6843" lon="127.885884"/><trkpt lat="35.684284" lon="127.885829"/><trkpt lat="35.684302" lon="127.885774"/><trkpt lat="35.684281" lon="127.885642"/><trkpt lat="35.684256" lon="127.885451"/><trkpt lat="35.684196" lon="127.885279"/><trkpt lat="35.684153" lon="127.885128"/><trkpt lat="35.684157" lon="127.884968"/><trkpt lat="35.684133" lon="127.884857"/><trkpt lat="35.684119" lon="127.884772"/><trkpt lat="35.684112" lon="127.884539"/><trkpt lat="35.684155" lon="127.884391"/><trkpt lat="35.684141" lon="127.884263"/><trkpt lat="35.684147" lon="127.884141"/><trkpt lat="35.684138" lon="127.884104"/><trkpt lat="35.684124" lon="127.884034"/><trkpt lat="35.684129" lon="127.883963"/><trkpt lat="35.684132" lon="127.8839"/><trkpt lat="35.684145" lon="127.88384"/><trkpt lat="35.68415" lon="127.883803"/><trkpt lat="35.684166" lon="127.88376"/><trkpt lat="35.684183" lon="127.883709"/><trkpt lat="35.684179" lon="127.88369"/><trkpt lat="35.684253" lon="127.883583"/><trkpt lat="35.684387" lon="127.883501"/><trkpt lat="35.684393" lon="127.88333"/><trkpt lat="35.684453" lon="127.883144"/><trkpt lat="35.684333" lon="127.88311"/><trkpt lat="35.684355" lon="127.882967"/><trkpt lat="35.684391" lon="127.882721"/><trkpt lat="35.684508" lon="127.882622"/><trkpt lat="35.684594" lon="127.882521"/><trkpt lat="35.68462" lon="127.882415"/><trkpt lat="35.68469" lon="127.88236"/><trkpt lat="35.684742" lon="127.88231"/><trkpt lat="35.684772" lon="127.88227"/><trkpt lat="35.684796" lon="127.882254"/></trkseg>
<trkseg><trkpt lat="35.684796" lon="127.882254"/><trkpt lat="35.684845" lon="127.882063"/><trkpt lat="35.684801" lon="127.881872"/></trkseg>
<trkseg><trkpt lat="35.691846" lon="127.879897"/><trkpt lat="35.691685" lon="127.879942"/><trkpt lat="35.691518" lon="127.8797"/><trkpt lat="35.691333" lon="127.879534"/><trkpt lat="35.691222" lon="127.879418"/><trkpt lat="35.691057" lon="127.879283"/><trkpt lat="35.690842" lon="127.879302"/><trkpt lat="35.690668" lon="127.879315"/><trkpt lat="35.690488" lon="127.879358"/><trkpt lat="35.690288" lon="127.879433"/><trkpt lat="35.690031" lon="127.879473"/><trkpt lat="35.689872" lon="127.879513"/><trkpt lat="35.689712" lon="127.879545"/><trkpt lat="35.689512" lon="127.879584"/><trkpt lat="35.689228" lon="127.879607"/><trkpt lat="35.688975" lon="127.879624"/><trkpt lat="35.68868" lon="127.879635"/><trkpt lat="35.688392" lon="127.879707"/><trkpt lat="35.688208" lon="127.879835"/><trkpt lat="35.68814" lon="127.879934"/><trkpt lat="35.688056" lon="127.880085"/><trkpt lat="35.687875" lon="127.88022"/><trkpt lat="35.687649" lon="127.88035"/><trkpt lat="35.687465" lon="127.880632"/><trkpt lat="35.68734" lon="127.880811"/><trkpt lat="35.687174" lon="127.881027"/><trkpt lat="35.687058" lon="127.881175"/><trkpt lat="35.686961" lon="127.881324"/><trkpt lat="35.686856" lon="127.881508"/><trkpt lat="35.686638" lon="127.881526"/><trkpt lat="35.686281" lon="127.881531"/><trkpt lat="35.685982" lon="127.88161"/><trkpt lat="35.685781" lon="127.881737"/><trkpt lat="35.68572" lon="127.88175"/><trkpt lat="35.685706" lon="127.881744"/><trkpt lat="35.68559" lon="127.881867"/><trkpt lat="35.685336" lon="127.881874"/><trkpt lat="35.685126" lon="127.881853"/><trkpt lat="35.684934" lon="127.881834"/><trkpt lat="35.684801" lon="127.881872"/></trkseg>
</trk>
</gpx>
